{
"type": "FeatureCollection",
"name": "天仙南路",
"crs": { "type": "name", "properties": { "name": "urn:ogc:def:crs:OGC:1.3:CRS84" } },
"features": [
{ "type": "Feature", "properties": { "北京时间": "2026-05-08 23:00" }, "geometry": { "type": "Polygon", "coordinates": [ [ [ 113.95498315284118, 30.892291561505822 ], [ 113.95498315284118, 30.907707817867532 ], [ 113.937016847158787, 30.907707817867532 ], [ 113.937016847158787, 30.892291561505822 ], [ 113.95498315284118, 30.892291561505822 ] ] ] } },
{ "type": "Feature", "properties": { "北京时间": "2026-05-08 22:00" }, "geometry": { "type": "Polygon", "coordinates": [ [ [ 114.011983152841196, 31.099308277365658 ], [ 114.011983152841196, 31.114691099619378 ], [ 113.994016847158804, 31.114691099619378 ], [ 113.994016847158804, 31.099308277365658 ], [ 114.011983152841196, 31.099308277365658 ] ] ] } },
{ "type": "Feature", "properties": { "北京时间": "2026-05-08 22:00" }, "geometry": { "type": "Polygon", "coordinates": [ [ [ 114.035983152841183, 30.857288745092252 ], [ 114.035983152841183, 30.872710634688126 ], [ 114.018016847158805, 30.872710634688126 ], [ 114.018016847158805, 30.857288745092252 ], [ 114.035983152841183, 30.857288745092252 ] ] ] } },
{ "type": "Feature", "properties": { "北京时间": "2026-05-08 22:00" }, "geometry": { "type": "Polygon", "coordinates": [ [ [ 113.918983152841179, 30.741279431273657 ], [ 113.918983152841179, 30.756719949862344 ], [ 113.901016847158786, 30.756719949862344 ], [ 113.901016847158786, 30.741279431273657 ], [ 113.918983152841179, 30.741279431273657 ] ] ] } },
{ "type": "Feature", "properties": { "北京时间": "2026-05-08 22:00" }, "geometry": { "type": "Polygon", "coordinates": [ [ [ 114.016983152841178, 31.038303340991362 ], [ 114.016983152841178, 31.053696036694109 ], [ 113.999016847158785, 31.053696036694109 ], [ 113.999016847158785, 31.038303340991362 ], [ 114.016983152841178, 31.038303340991362 ] ] ] } },
{ "type": "Feature", "properties": { "北京时间": "2026-05-08 22:00" }, "geometry": { "type": "Polygon", "coordinates": [ [ [ 114.028983152841192, 31.014301401202708 ], [ 114.028983152841192, 31.029697976759106 ], [ 114.0110168471588, 31.029697976759106 ], [ 114.0110168471588, 31.014301401202708 ], [ 114.028983152841192, 31.014301401202708 ] ] ] } },
{ "type": "Feature", "properties": { "北京时间": "2026-05-08 22:00" }, "geometry": { "type": "Polygon", "coordinates": [ [ [ 113.991983152841186, 30.773281997443313 ], [ 113.991983152841186, 30.788717383317692 ], [ 113.974016847158794, 30.788717383317692 ], [ 113.974016847158794, 30.773281997443313 ], [ 113.991983152841186, 30.773281997443313 ] ] ] } },
{ "type": "Feature", "properties": { "北京时间": "2026-05-08 22:00" }, "geometry": { "type": "Polygon", "coordinates": [ [ [ 113.985983152841186, 31.065305524867977 ], [ 113.985983152841186, 31.080693852507117 ], [ 113.968016847158793, 31.080693852507117 ], [ 113.968016847158793, 31.065305524867977 ], [ 113.985983152841186, 31.065305524867977 ] ] ] } },
{ "type": "Feature", "properties": { "北京时间": "2026-05-08 22:00" }, "geometry": { "type": "Polygon", "coordinates": [ [ [ 113.981983152841181, 31.034303017599456 ], [ 113.981983152841181, 31.049696360132053 ], [ 113.964016847158803, 31.049696360132053 ], [ 113.964016847158803, 31.034303017599456 ], [ 113.981983152841181, 31.034303017599456 ] ] ] } },
{ "type": "Feature", "properties": { "北京时间": "2026-05-08 22:00" }, "geometry": { "type": "Polygon", "coordinates": [ [ [ 113.924983152841193, 30.665273346275207 ], [ 113.924983152841193, 30.680726035754454 ], [ 113.9070168471588, 30.680726035754454 ], [ 113.9070168471588, 30.665273346275207 ], [ 113.924983152841193, 30.665273346275207 ] ] ] } },
{ "type": "Feature", "properties": { "北京时间": "2026-05-08 22:00" }, "geometry": { "type": "Polygon", "coordinates": [ [ [ 114.062983152841198, 31.043303745284 ], [ 114.062983152841198, 31.058695632343937 ], [ 114.045016847158806, 31.058695632343937 ], [ 114.045016847158806, 31.043303745284 ], [ 114.062983152841198, 31.043303745284 ] ] ] } },
{ "type": "Feature", "properties": { "北京时间": "2026-05-08 22:00" }, "geometry": { "type": "Polygon", "coordinates": [ [ [ 114.046983152841179, 31.01030107803594 ], [ 114.046983152841179, 31.025698299971982 ], [ 114.0290168471588, 31.025698299971982 ], [ 114.0290168471588, 31.01030107803594 ], [ 114.046983152841179, 31.01030107803594 ] ] ] } },
{ "type": "Feature", "properties": { "北京时间": "2026-05-08 22:00" }, "geometry": { "type": "Polygon", "coordinates": [ [ [ 114.003983152841201, 31.084307062694467 ], [ 114.003983152841201, 31.099692314462544 ], [ 113.986016847158808, 31.099692314462544 ], [ 113.986016847158808, 31.084307062694467 ], [ 114.003983152841201, 31.084307062694467 ] ] ] } },
{ "type": "Feature", "properties": { "北京时间": "2026-05-08 22:00" }, "geometry": { "type": "Polygon", "coordinates": [ [ [ 113.900983152841178, 30.822285931556536 ], [ 113.900983152841178, 30.837713448631792 ], [ 113.883016847158785, 30.837713448631792 ], [ 113.883016847158785, 30.822285931556536 ], [ 113.900983152841178, 30.822285931556536 ] ] ] } },
{ "type": "Feature", "properties": { "北京时间": "2026-05-08 22:00" }, "geometry": { "type": "Polygon", "coordinates": [ [ [ 113.968983152841176, 31.026302370928182 ], [ 113.968983152841176, 31.041697006895401 ], [ 113.951016847158783, 31.041697006895401 ], [ 113.951016847158783, 31.026302370928182 ], [ 113.968983152841176, 31.026302370928182 ] ] ] } },
{ "type": "Feature", "properties": { "北京时间": "2026-05-08 22:00" }, "geometry": { "type": "Polygon", "coordinates": [ [ [ 114.034983152841207, 30.968297687050875 ], [ 114.034983152841207, 30.98370169144183 ], [ 114.0170168471588, 30.98370169144183 ], [ 114.0170168471588, 30.968297687050875 ], [ 114.034983152841207, 30.968297687050875 ] ] ] } },
{ "type": "Feature", "properties": { "北京时间": "2026-05-08 22:00" }, "geometry": { "type": "Polygon", "coordinates": [ [ [ 113.952983152841199, 30.911293091620841 ], [ 113.952983152841199, 30.926706287531939 ], [ 113.935016847158806, 30.926706287531939 ], [ 113.935016847158806, 30.911293091620841 ], [ 113.952983152841199, 30.911293091620841 ] ] ] } },
{ "type": "Feature", "properties": { "北京时间": "2026-05-08 22:00" }, "geometry": { "type": "Polygon", "coordinates": [ [ [ 113.928983152841184, 30.757280714057472 ], [ 113.928983152841184, 30.772718666890942 ], [ 113.911016847158805, 30.772718666890942 ], [ 113.911016847158805, 30.757280714057472 ], [ 113.928983152841184, 30.757280714057472 ] ] ] } },
{ "type": "Feature", "properties": { "北京时间": "2026-05-08 21:00" }, "geometry": { "type": "Polygon", "coordinates": [ [ [ 114.069983152841203, 31.306325093634204 ], [ 114.069983152841203, 31.321674280995062 ], [ 114.052016847158811, 31.321674280995062 ], [ 114.052016847158811, 31.306325093634204 ], [ 114.069983152841203, 31.306325093634204 ] ] ] } },
{ "type": "Feature", "properties": { "北京时间": "2026-05-08 21:00" }, "geometry": { "type": "Polygon", "coordinates": [ [ [ 113.905983152841202, 30.590267354671749 ], [ 113.905983152841202, 30.605732028244073 ], [ 113.888016847158809, 30.605732028244073 ], [ 113.888016847158809, 30.590267354671749 ], [ 113.905983152841202, 30.590267354671749 ] ] ] } },
{ "type": "Feature", "properties": { "北京时间": "2026-05-08 21:00" }, "geometry": { "type": "Polygon", "coordinates": [ [ [ 114.032983152841197, 31.271322243259782 ], [ 114.032983152841197, 31.286677131765504 ], [ 114.015016847158805, 31.286677131765504 ], [ 114.015016847158805, 31.271322243259782 ], [ 114.032983152841197, 31.271322243259782 ] ] ] } },
{ "type": "Feature", "properties": { "北京时间": "2026-05-08 21:00" }, "geometry": { "type": "Polygon", "coordinates": [ [ [ 114.065983152841198, 31.271322243259782 ], [ 114.065983152841198, 31.286677131765504 ], [ 114.048016847158806, 31.286677131765504 ], [ 114.048016847158806, 31.271322243259782 ], [ 114.065983152841198, 31.271322243259782 ] ] ] } },
{ "type": "Feature", "properties": { "北京时间": "2026-05-08 21:00" }, "geometry": { "type": "Polygon", "coordinates": [ [ [ 114.079983152841194, 31.170314033962043 ], [ 114.079983152841194, 31.185685342211297 ], [ 114.062016847158802, 31.185685342211297 ], [ 114.062016847158802, 31.170314033962043 ], [ 114.079983152841194, 31.170314033962043 ] ] ] } },
{ "type": "Feature", "properties": { "北京时间": "2026-05-08 21:00" }, "geometry": { "type": "Polygon", "coordinates": [ [ [ 113.985983152841186, 31.101308439361652 ], [ 113.985983152841186, 31.11669093760046 ], [ 113.968016847158793, 31.11669093760046 ], [ 113.968016847158793, 31.101308439361652 ], [ 113.985983152841186, 31.101308439361652 ] ] ] } },
{ "type": "Feature", "properties": { "北京时间": "2026-05-08 21:00" }, "geometry": { "type": "Polygon", "coordinates": [ [ [ 114.088983152841195, 30.801284244816912 ], [ 114.088983152841195, 30.816715135616644 ], [ 114.071016847158802, 30.816715135616644 ], [ 114.071016847158802, 30.801284244816912 ], [ 114.088983152841195, 30.801284244816912 ] ] ] } },
{ "type": "Feature", "properties": { "北京时间": "2026-05-08 21:00" }, "geometry": { "type": "Polygon", "coordinates": [ [ [ 113.87798315284121, 30.586267035491691 ], [ 113.87798315284121, 30.601732347471529 ], [ 113.860016847158803, 30.601732347471529 ], [ 113.860016847158803, 30.586267035491691 ], [ 113.87798315284121, 30.586267035491691 ] ] ] } },
{ "type": "Feature", "properties": { "北京时间": "2026-05-08 21:00" }, "geometry": { "type": "Polygon", "coordinates": [ [ [ 114.180983152841193, 31.229318826592845 ], [ 114.180983152841193, 31.24468054890891 ], [ 114.163016847158801, 31.24468054890891 ], [ 114.163016847158801, 31.229318826592845 ], [ 114.180983152841193, 31.229318826592845 ] ] ] } },
{ "type": "Feature", "properties": { "北京时间": "2026-05-08 21:00" }, "geometry": { "type": "Polygon", "coordinates": [ [ [ 113.8579831528412, 30.754280473489644 ], [ 113.8579831528412, 30.769718907493925 ], [ 113.840016847158807, 30.769718907493925 ], [ 113.840016847158807, 30.754280473489644 ], [ 113.8579831528412, 30.754280473489644 ] ] ] } },
{ "type": "Feature", "properties": { "北京时间": "2026-05-08 21:00" }, "geometry": { "type": "Polygon", "coordinates": [ [ [ 114.125983152841187, 31.147312167856168 ], [ 114.125983152841187, 31.162687208579712 ], [ 114.108016847158808, 31.162687208579712 ], [ 114.108016847158808, 31.147312167856168 ], [ 114.125983152841187, 31.147312167856168 ] ] ] } },
{ "type": "Feature", "properties": { "北京时间": "2026-05-08 21:00" }, "geometry": { "type": "Polygon", "coordinates": [ [ [ 114.119983152841215, 31.135311194727532 ], [ 114.119983152841215, 31.150688181845467 ], [ 114.102016847158808, 31.150688181845467 ], [ 114.102016847158808, 31.135311194727532 ], [ 114.119983152841215, 31.135311194727532 ] ] ] } },
{ "type": "Feature", "properties": { "北京时间": "2026-05-08 21:00" }, "geometry": { "type": "Polygon", "coordinates": [ [ [ 114.146983152841187, 31.068305767626423 ], [ 114.146983152841187, 31.083693609714206 ], [ 114.129016847158795, 31.083693609714206 ], [ 114.129016847158795, 31.068305767626423 ], [ 114.146983152841187, 31.068305767626423 ] ] ] } },
{ "type": "Feature", "properties": { "北京时间": "2026-05-08 21:00" }, "geometry": { "type": "Polygon", "coordinates": [ [ [ 113.955983152841185, 30.950296235038593 ], [ 113.955983152841185, 30.965703143662296 ], [ 113.938016847158792, 30.965703143662296 ], [ 113.938016847158792, 30.950296235038593 ], [ 113.955983152841185, 30.950296235038593 ] ] ] } },
{ "type": "Feature", "properties": { "北京时间": "2026-05-08 21:00" }, "geometry": { "type": "Polygon", "coordinates": [ [ [ 114.046983152841179, 31.213317526091146 ], [ 114.046983152841179, 31.228681849592476 ], [ 114.0290168471588, 31.228681849592476 ], [ 114.0290168471588, 31.213317526091146 ], [ 114.046983152841179, 31.213317526091146 ] ] ] } },
{ "type": "Feature", "properties": { "北京时间": "2026-05-08 20:00" }, "geometry": { "type": "Polygon", "coordinates": [ [ [ 114.125983152841187, 31.509341682255979 ], [ 114.125983152841187, 31.52465769009471 ], [ 114.108016847158808, 31.52465769009471 ], [ 114.108016847158808, 31.509341682255979 ], [ 114.125983152841187, 31.509341682255979 ] ] ] } },
{ "type": "Feature", "properties": { "北京时间": "2026-05-08 20:00" }, "geometry": { "type": "Polygon", "coordinates": [ [ [ 114.126983152841191, 31.496340617046794 ], [ 114.126983152841191, 31.51165875544887 ], [ 114.109016847158799, 31.51165875544887 ], [ 114.109016847158799, 31.496340617046794 ], [ 114.126983152841191, 31.496340617046794 ] ] ] } },
{ "type": "Feature", "properties": { "北京时间": "2026-05-08 20:00" }, "geometry": { "type": "Polygon", "coordinates": [ [ [ 114.170983152841188, 31.258321185279012 ], [ 114.170983152841188, 31.273678189893594 ], [ 114.15301684715881, 31.273678189893594 ], [ 114.15301684715881, 31.258321185279012 ], [ 114.170983152841188, 31.258321185279012 ] ] ] } },
{ "type": "Feature", "properties": { "北京时间": "2026-05-08 20:00" }, "geometry": { "type": "Polygon", "coordinates": [ [ [ 114.053983152841184, 31.111309249482236 ], [ 114.053983152841184, 31.126690127365343 ], [ 114.036016847158791, 31.126690127365343 ], [ 114.036016847158791, 31.111309249482236 ], [ 114.053983152841184, 31.111309249482236 ] ] ] } },
{ "type": "Feature", "properties": { "北京时间": "2026-05-08 20:00" }, "geometry": { "type": "Polygon", "coordinates": [ [ [ 114.292983152841188, 31.445336441957974 ], [ 114.292983152841188, 31.460662931107681 ], [ 114.275016847158795, 31.460662931107681 ], [ 114.275016847158795, 31.445336441957974 ], [ 114.292983152841188, 31.445336441957974 ] ] ] } },
{ "type": "Feature", "properties": { "北京时间": "2026-05-08 20:00" }, "geometry": { "type": "Polygon", "coordinates": [ [ [ 114.109983152841181, 31.436335705807885 ], [ 114.109983152841181, 31.451663667358584 ], [ 114.092016847158789, 31.451663667358584 ], [ 114.092016847158789, 31.436335705807885 ], [ 114.109983152841181, 31.436335705807885 ] ] ] } },
{ "type": "Feature", "properties": { "北京时间": "2026-05-08 20:00" }, "geometry": { "type": "Polygon", "coordinates": [ [ [ 114.166983152841198, 31.405333171627564 ], [ 114.166983152841198, 31.420666201886533 ], [ 114.149016847158805, 31.420666201886533 ], [ 114.149016847158805, 31.405333171627564 ], [ 114.166983152841198, 31.405333171627564 ] ] ] } },
{ "type": "Feature", "properties": { "北京时间": "2026-05-08 20:00" }, "geometry": { "type": "Polygon", "coordinates": [ [ [ 114.154983152841197, 31.322326397616546 ], [ 114.154983152841197, 31.337672976831975 ], [ 114.137016847158804, 31.337672976831975 ], [ 114.137016847158804, 31.322326397616546 ], [ 114.154983152841197, 31.322326397616546 ] ] ] } },
{ "type": "Feature", "properties": { "北京时间": "2026-05-08 20:00" }, "geometry": { "type": "Polygon", "coordinates": [ [ [ 113.814983152841194, 30.67727430616079 ], [ 113.814983152841194, 30.692725075727477 ], [ 113.797016847158801, 30.692725075727477 ], [ 113.797016847158801, 30.67727430616079 ], [ 113.814983152841194, 30.67727430616079 ] ] ] } },
{ "type": "Feature", "properties": { "北京时间": "2026-05-08 20:00" }, "geometry": { "type": "Polygon", "coordinates": [ [ [ 113.976983152841186, 31.00530067413025 ], [ 113.976983152841186, 31.02069870393532 ], [ 113.959016847158807, 31.02069870393532 ], [ 113.959016847158807, 31.00530067413025 ], [ 113.976983152841186, 31.00530067413025 ] ] ] } },
{ "type": "Feature", "properties": { "北京时间": "2026-05-08 19:00" }, "geometry": { "type": "Polygon", "coordinates": [ [ [ 114.035983152841183, 31.078306576973631 ], [ 114.035983152841183, 31.093692800252207 ], [ 114.018016847158805, 31.093692800252207 ], [ 114.018016847158805, 31.078306576973631 ], [ 114.035983152841183, 31.078306576973631 ] ] ] } },
{ "type": "Feature", "properties": { "北京时间": "2026-05-08 19:00" }, "geometry": { "type": "Polygon", "coordinates": [ [ [ 114.180983152841193, 31.057304877615245 ], [ 114.180983152841193, 31.07269449985175 ], [ 114.163016847158801, 31.07269449985175 ], [ 114.163016847158801, 31.057304877615245 ], [ 114.180983152841193, 31.057304877615245 ] ] ] } },
{ "type": "Feature", "properties": { "北京时间": "2026-05-08 19:00" }, "geometry": { "type": "Polygon", "coordinates": [ [ [ 113.788983152841197, 30.606268631768913 ], [ 113.788983152841197, 30.621730750957521 ], [ 113.771016847158805, 30.621730750957521 ], [ 113.771016847158805, 30.606268631768913 ], [ 113.788983152841197, 30.606268631768913 ] ] ] } },
{ "type": "Feature", "properties": { "北京时间": "2026-05-08 19:00" }, "geometry": { "type": "Polygon", "coordinates": [ [ [ 114.364983152841177, 31.315325827050625 ], [ 114.364983152841177, 31.330673547476945 ], [ 114.347016847158784, 31.330673547476945 ], [ 114.347016847158784, 31.315325827050625 ], [ 114.364983152841177, 31.315325827050625 ] ] ] } },
{ "type": "Feature", "properties": { "北京时间": "2026-05-08 19:00" }, "geometry": { "type": "Polygon", "coordinates": [ [ [ 114.091983152841181, 31.564346193272534 ], [ 114.091983152841181, 31.579653178466231 ], [ 114.074016847158788, 31.579653178466231 ], [ 114.074016847158788, 31.564346193272534 ], [ 114.091983152841181, 31.564346193272534 ] ] ] } },
{ "type": "Feature", "properties": { "北京时间": "2026-05-08 19:00" }, "geometry": { "type": "Polygon", "coordinates": [ [ [ 114.428983152841198, 31.705357790089106 ], [ 114.428983152841198, 31.720641580091524 ], [ 114.411016847158805, 31.720641580091524 ], [ 114.411016847158805, 31.705357790089106 ], [ 114.428983152841198, 31.705357790089106 ] ] ] } },
{ "type": "Feature", "properties": { "北京时间": "2026-05-08 19:00" }, "geometry": { "type": "Polygon", "coordinates": [ [ [ 114.22198315284119, 31.794365133899472 ], [ 114.22198315284119, 31.809634235305477 ], [ 114.204016847158783, 31.809634235305477 ], [ 114.204016847158783, 31.794365133899472 ], [ 114.22198315284119, 31.794365133899472 ] ] ] } },
{ "type": "Feature", "properties": { "北京时间": "2026-05-08 19:00" }, "geometry": { "type": "Polygon", "coordinates": [ [ [ 114.471983152841176, 31.557345618751334 ], [ 114.471983152841176, 31.572653753065193 ], [ 114.454016847158783, 31.572653753065193 ], [ 114.454016847158783, 31.557345618751334 ], [ 114.471983152841176, 31.557345618751334 ] ] ] } },
{ "type": "Feature", "properties": { "北京时间": "2026-05-08 19:00" }, "geometry": { "type": "Polygon", "coordinates": [ [ [ 114.34998315284119, 31.611350053730643 ], [ 114.34998315284119, 31.62664931748705 ], [ 114.332016847158798, 31.62664931748705 ], [ 114.332016847158798, 31.611350053730643 ], [ 114.34998315284119, 31.611350053730643 ] ] ] } },
{ "type": "Feature", "properties": { "北京时间": "2026-05-08 19:00" }, "geometry": { "type": "Polygon", "coordinates": [ [ [ 114.257983152841177, 31.515342174023981 ], [ 114.257983152841177, 31.530657198259853 ], [ 114.240016847158785, 31.530657198259853 ], [ 114.240016847158785, 31.515342174023981 ], [ 114.257983152841177, 31.515342174023981 ] ] ] } },
{ "type": "Feature", "properties": { "北京时间": "2026-05-08 19:00" }, "geometry": { "type": "Polygon", "coordinates": [ [ [ 114.164983152841202, 31.693356801322949 ], [ 114.164983152841202, 31.708642568989692 ], [ 114.14701684715881, 31.708642568989692 ], [ 114.14701684715881, 31.693356801322949 ], [ 114.164983152841202, 31.693356801322949 ] ] ] } },
{ "type": "Feature", "properties": { "北京时间": "2026-05-08 19:00" }, "geometry": { "type": "Polygon", "coordinates": [ [ [ 114.218983152841176, 31.385331537863703 ], [ 114.218983152841176, 31.400667835875083 ], [ 114.201016847158783, 31.400667835875083 ], [ 114.201016847158783, 31.385331537863703 ], [ 114.218983152841176, 31.385331537863703 ] ] ] } },
{ "type": "Feature", "properties": { "北京时间": "2026-05-08 18:00" }, "geometry": { "type": "Polygon", "coordinates": [ [ [ 113.784983152841178, 30.556264642842841 ], [ 113.784983152841178, 30.571734740476131 ], [ 113.7670168471588, 30.571734740476131 ], [ 113.7670168471588, 30.556264642842841 ], [ 113.784983152841178, 30.556264642842841 ] ] ] } },
{ "type": "Feature", "properties": { "北京时间": "2026-05-08 18:00" }, "geometry": { "type": "Polygon", "coordinates": [ [ [ 114.396983152841187, 31.711358284597917 ], [ 114.396983152841187, 31.72664108551675 ], [ 114.379016847158795, 31.72664108551675 ], [ 114.379016847158795, 31.711358284597917 ], [ 114.396983152841187, 31.711358284597917 ] ] ] } },
{ "type": "Feature", "properties": { "北京时间": "2026-05-08 18:00" }, "geometry": { "type": "Polygon", "coordinates": [ [ [ 114.45398315284119, 31.454337178297177 ], [ 114.45398315284119, 31.469662194667734 ], [ 114.436016847158797, 31.469662194667734 ], [ 114.436016847158797, 31.454337178297177 ], [ 114.45398315284119, 31.454337178297177 ] ] ] } },
{ "type": "Feature", "properties": { "北京时间": "2026-05-08 18:00" }, "geometry": { "type": "Polygon", "coordinates": [ [ [ 114.296983152841179, 31.535343813857192 ], [ 114.296983152841179, 31.550655558203939 ], [ 114.2790168471588, 31.550655558203939 ], [ 114.2790168471588, 31.535343813857192 ], [ 114.296983152841179, 31.535343813857192 ] ] ] } },
{ "type": "Feature", "properties": { "北京时间": "2026-05-08 18:00" }, "geometry": { "type": "Polygon", "coordinates": [ [ [ 114.139983152841182, 31.180314845698806 ], [ 114.139983152841182, 31.195684530360523 ], [ 114.12201684715879, 31.195684530360523 ], [ 114.12201684715879, 31.180314845698806 ], [ 114.139983152841182, 31.180314845698806 ] ] ] } },
{ "type": "Feature", "properties": { "北京时间": "2026-05-08 17:00" }, "geometry": { "type": "Polygon", "coordinates": [ [ [ 114.422983152841198, 31.705357790089106 ], [ 114.422983152841198, 31.720641580091524 ], [ 114.405016847158805, 31.720641580091524 ], [ 114.405016847158805, 31.705357790089106 ], [ 114.422983152841198, 31.705357790089106 ] ] ] } },
{ "type": "Feature", "properties": { "北京时间": "2026-05-08 17:00" }, "geometry": { "type": "Polygon", "coordinates": [ [ [ 113.795983152841202, 30.523262013378808 ], [ 113.795983152841202, 30.53873737033225 ], [ 113.77801684715881, 30.53873737033225 ], [ 113.77801684715881, 30.523262013378808 ], [ 113.795983152841202, 30.523262013378808 ] ] ] } },
{ "type": "Feature", "properties": { "北京时间": "2026-05-08 17:00" }, "geometry": { "type": "Polygon", "coordinates": [ [ [ 114.561983152841194, 31.586347999654414 ], [ 114.561983152841194, 31.601651371840259 ], [ 114.544016847158801, 31.601651371840259 ], [ 114.544016847158801, 31.586347999654414 ], [ 114.561983152841194, 31.586347999654414 ] ] ] } },
{ "type": "Feature", "properties": { "北京时间": "2026-05-08 16:00" }, "geometry": { "type": "Polygon", "coordinates": [ [ [ 114.377983152841196, 31.435335624025107 ], [ 114.377983152841196, 31.450663749152561 ], [ 114.360016847158803, 31.450663749152561 ], [ 114.360016847158803, 31.435335624025107 ], [ 114.377983152841196, 31.435335624025107 ] ] ] } },
{ "type": "Feature", "properties": { "北京时间": "2026-05-08 16:00" }, "geometry": { "type": "Polygon", "coordinates": [ [ [ 113.815983152841184, 30.502260341420119 ], [ 113.815983152841184, 30.517739042540899 ], [ 113.798016847158806, 30.517739042540899 ], [ 113.798016847158806, 30.502260341420119 ], [ 113.815983152841184, 30.502260341420119 ] ] ] } },
{ "type": "Feature", "properties": { "北京时间": "2026-05-08 15:00" }, "geometry": { "type": "Polygon", "coordinates": [ [ [ 114.495983152841191, 31.576347178431842 ], [ 114.495983152841191, 31.591652193173722 ], [ 114.478016847158798, 31.591652193173722 ], [ 114.478016847158798, 31.576347178431842 ], [ 114.495983152841191, 31.576347178431842 ] ] ] } },
{ "type": "Feature", "properties": { "北京时间": "2026-05-08 15:00" }, "geometry": { "type": "Polygon", "coordinates": [ [ [ 113.843983152841176, 30.485258988691335 ], [ 113.843983152841176, 30.500740395472242 ], [ 113.826016847158797, 30.500740395472242 ], [ 113.826016847158797, 30.485258988691335 ], [ 113.843983152841176, 30.485258988691335 ] ] ] } },
{ "type": "Feature", "properties": { "北京时间": "2026-05-08 12:00" }, "geometry": { "type": "Polygon", "coordinates": [ [ [ 113.752983152841182, 31.335327457542892 ], [ 113.752983152841182, 31.35067191675893 ], [ 113.735016847158789, 31.35067191675893 ], [ 113.735016847158789, 31.335327457542892 ], [ 113.752983152841182, 31.335327457542892 ] ] ] } },
{ "type": "Feature", "properties": { "北京时间": "2026-05-08 11:00" }, "geometry": { "type": "Polygon", "coordinates": [ [ [ 113.653983152841178, 31.076306415085444 ], [ 113.653983152841178, 31.091692962163361 ], [ 113.636016847158785, 31.091692962163361 ], [ 113.636016847158785, 31.076306415085444 ], [ 113.653983152841178, 31.076306415085444 ] ] ] } },
{ "type": "Feature", "properties": { "北京时间": "2026-05-08 10:00" }, "geometry": { "type": "Polygon", "coordinates": [ [ [ 113.57898315284119, 30.81128504789698 ], [ 113.57898315284119, 30.826714332419751 ], [ 113.561016847158797, 30.826714332419751 ], [ 113.561016847158797, 30.81128504789698 ], [ 113.57898315284119, 30.81128504789698 ] ] ] } },
{ "type": "Feature", "properties": { "北京时间": "2026-05-08 09:00" }, "geometry": { "type": "Polygon", "coordinates": [ [ [ 113.501983152841177, 30.522261933738147 ], [ 113.501983152841177, 30.5377374499848 ], [ 113.484016847158784, 30.5377374499848 ], [ 113.484016847158784, 30.522261933738147 ], [ 113.501983152841177, 30.522261933738147 ] ] ] } }
]
}
