{
"type": "FeatureCollection",
"name": "天仙南路",
"crs": { "type": "name", "properties": { "name": "urn:ogc:def:crs:OGC:1.3:CRS84" } },
"features": [
{ "type": "Feature", "properties": { "北京时间": "2026-05-13 00:00" }, "geometry": { "type": "Polygon", "coordinates": [ [ [ 113.95498315284118, 30.892291561505822 ], [ 113.95498315284118, 30.907707817867532 ], [ 113.937016847158787, 30.907707817867532 ], [ 113.937016847158787, 30.892291561505822 ], [ 113.95498315284118, 30.892291561505822 ] ] ] } },
{ "type": "Feature", "properties": { "北京时间": "2026-05-12 23:00" }, "geometry": { "type": "Polygon", "coordinates": [ [ [ 113.949983152841199, 30.808284806948279 ], [ 113.949983152841199, 30.823714573403496 ], [ 113.932016847158792, 30.823714573403496 ], [ 113.932016847158792, 30.808284806948279 ], [ 113.949983152841199, 30.808284806948279 ] ] ] } },
{ "type": "Feature", "properties": { "北京时间": "2026-05-12 23:00" }, "geometry": { "type": "Polygon", "coordinates": [ [ [ 113.865983152841196, 30.733278790107541 ], [ 113.865983152841196, 30.748720591122314 ], [ 113.848016847158803, 30.748720591122314 ], [ 113.848016847158803, 30.733278790107541 ], [ 113.865983152841196, 30.733278790107541 ] ] ] } },
{ "type": "Feature", "properties": { "北京时间": "2026-05-12 23:00" }, "geometry": { "type": "Polygon", "coordinates": [ [ [ 113.932983152841189, 30.766281435887937 ], [ 113.932983152841189, 30.781717944955048 ], [ 113.915016847158796, 30.781717944955048 ], [ 113.915016847158796, 30.766281435887937 ], [ 113.932983152841189, 30.766281435887937 ] ] ] } },
{ "type": "Feature", "properties": { "北京时间": "2026-05-12 23:00" }, "geometry": { "type": "Polygon", "coordinates": [ [ [ 113.873983152841191, 30.749280072590306 ], [ 113.873983152841191, 30.76471930845188 ], [ 113.856016847158799, 30.76471930845188 ], [ 113.856016847158799, 30.749280072590306 ], [ 113.873983152841191, 30.749280072590306 ] ] ] } },
{ "type": "Feature", "properties": { "北京时间": "2026-05-12 23:00" }, "geometry": { "type": "Polygon", "coordinates": [ [ [ 113.952983152841199, 30.788283201164241 ], [ 113.952983152841199, 30.803716179421276 ], [ 113.935016847158806, 30.803716179421276 ], [ 113.935016847158806, 30.788283201164241 ], [ 113.952983152841199, 30.788283201164241 ] ] ] } },
{ "type": "Feature", "properties": { "北京时间": "2026-05-12 23:00" }, "geometry": { "type": "Polygon", "coordinates": [ [ [ 113.875983152841201, 30.762281115050879 ], [ 113.875983152841201, 30.777718265838956 ], [ 113.858016847158808, 30.777718265838956 ], [ 113.858016847158808, 30.762281115050879 ], [ 113.875983152841201, 30.762281115050879 ] ] ] } },
{ "type": "Feature", "properties": { "北京时间": "2026-05-12 23:00" }, "geometry": { "type": "Polygon", "coordinates": [ [ [ 113.899983152841202, 30.765281355675139 ], [ 113.899983152841202, 30.780718025179539 ], [ 113.882016847158809, 30.780718025179539 ], [ 113.882016847158809, 30.765281355675139 ], [ 113.899983152841202, 30.765281355675139 ] ] ] } },
{ "type": "Feature", "properties": { "北京时间": "2026-05-12 23:00" }, "geometry": { "type": "Polygon", "coordinates": [ [ [ 113.982983152841186, 30.835286976248074 ], [ 113.982983152841186, 30.850712403788624 ], [ 113.965016847158793, 30.850712403788624 ], [ 113.965016847158793, 30.835286976248074 ], [ 113.982983152841186, 30.835286976248074 ] ] ] } },
{ "type": "Feature", "properties": { "北京时间": "2026-05-12 23:00" }, "geometry": { "type": "Polygon", "coordinates": [ [ [ 113.911983152841188, 30.785282960377732 ], [ 113.911983152841188, 30.800716420242868 ], [ 113.894016847158809, 30.800716420242868 ], [ 113.894016847158809, 30.785282960377732 ], [ 113.911983152841188, 30.785282960377732 ] ] ] } },
{ "type": "Feature", "properties": { "北京时间": "2026-05-12 23:00" }, "geometry": { "type": "Polygon", "coordinates": [ [ [ 113.915983152841179, 30.802284325114332 ], [ 113.915983152841179, 30.817715055307513 ], [ 113.898016847158786, 30.817715055307513 ], [ 113.898016847158786, 30.802284325114332 ], [ 113.915983152841179, 30.802284325114332 ] ] ] } },
{ "type": "Feature", "properties": { "北京时间": "2026-05-12 23:00" }, "geometry": { "type": "Polygon", "coordinates": [ [ [ 113.93998315284118, 30.796283843365018 ], [ 113.93998315284118, 30.811715537126958 ], [ 113.922016847158801, 30.811715537126958 ], [ 113.922016847158801, 30.796283843365018 ], [ 113.93998315284118, 30.796283843365018 ] ] ] } },
{ "type": "Feature", "properties": { "北京时间": "2026-05-12 23:00" }, "geometry": { "type": "Polygon", "coordinates": [ [ [ 113.935983152841189, 30.775282157908876 ], [ 113.935983152841189, 30.790717222828729 ], [ 113.918016847158796, 30.790717222828729 ], [ 113.918016847158796, 30.775282157908876 ], [ 113.935983152841189, 30.775282157908876 ] ] ] } },
{ "type": "Feature", "properties": { "北京时间": "2026-05-12 23:00" }, "geometry": { "type": "Polygon", "coordinates": [ [ [ 113.907983152841183, 30.866289469038055 ], [ 113.907983152841183, 30.881709910637557 ], [ 113.89001684715879, 30.881709910637557 ], [ 113.89001684715879, 30.866289469038055 ], [ 113.907983152841183, 30.866289469038055 ] ] ] } },
{ "type": "Feature", "properties": { "北京时间": "2026-05-12 23:00" }, "geometry": { "type": "Polygon", "coordinates": [ [ [ 113.863983152841186, 30.735278950384956 ], [ 113.863983152841186, 30.750720430821428 ], [ 113.846016847158808, 30.750720430821428 ], [ 113.846016847158808, 30.735278950384956 ], [ 113.863983152841186, 30.735278950384956 ] ] ] } },
{ "type": "Feature", "properties": { "北京时间": "2026-05-12 23:00" }, "geometry": { "type": "Polygon", "coordinates": [ [ [ 113.874983152841182, 30.833286815500447 ], [ 113.874983152841182, 30.848712564559566 ], [ 113.857016847158803, 30.848712564559566 ], [ 113.857016847158803, 30.833286815500447 ], [ 113.874983152841182, 30.833286815500447 ] ] ] } },
{ "type": "Feature", "properties": { "北京时间": "2026-05-12 23:00" }, "geometry": { "type": "Polygon", "coordinates": [ [ [ 113.946983152841185, 30.796283843365018 ], [ 113.946983152841185, 30.811715537126958 ], [ 113.929016847158792, 30.811715537126958 ], [ 113.929016847158792, 30.796283843365018 ], [ 113.946983152841185, 30.796283843365018 ] ] ] } },
{ "type": "Feature", "properties": { "北京时间": "2026-05-12 23:00" }, "geometry": { "type": "Polygon", "coordinates": [ [ [ 114.046983152841179, 30.827286333313971 ], [ 114.046983152841179, 30.842713046816026 ], [ 114.0290168471588, 30.842713046816026 ], [ 114.0290168471588, 30.827286333313971 ], [ 114.046983152841179, 30.827286333313971 ] ] ] } },
{ "type": "Feature", "properties": { "北京时间": "2026-05-12 23:00" }, "geometry": { "type": "Polygon", "coordinates": [ [ [ 114.022983152841178, 30.840287378158255 ], [ 114.022983152841178, 30.855712001820155 ], [ 114.005016847158785, 30.855712001820155 ], [ 114.005016847158785, 30.840287378158255 ], [ 114.022983152841178, 30.840287378158255 ] ] ] } },
{ "type": "Feature", "properties": { "北京时间": "2026-05-12 23:00" }, "geometry": { "type": "Polygon", "coordinates": [ [ [ 113.911983152841188, 30.755280553676567 ], [ 113.911983152841188, 30.770718827295283 ], [ 113.894016847158809, 30.770718827295283 ], [ 113.894016847158809, 30.755280553676567 ], [ 113.911983152841188, 30.755280553676567 ] ] ] } },
{ "type": "Feature", "properties": { "北京时间": "2026-05-12 23:00" }, "geometry": { "type": "Polygon", "coordinates": [ [ [ 113.940983152841198, 30.800284164521834 ], [ 113.940983152841198, 30.815715215923397 ], [ 113.923016847158792, 30.815715215923397 ], [ 113.923016847158792, 30.800284164521834 ], [ 113.940983152841198, 30.800284164521834 ] ] ] } },
{ "type": "Feature", "properties": { "北京时间": "2026-05-12 22:00" }, "geometry": { "type": "Polygon", "coordinates": [ [ [ 113.793983152841179, 30.633270788237617 ], [ 113.793983152841179, 30.648728594169633 ], [ 113.776016847158786, 30.648728594169633 ], [ 113.776016847158786, 30.633270788237617 ], [ 113.793983152841179, 30.633270788237617 ] ] ] } },
{ "type": "Feature", "properties": { "北京时间": "2026-05-12 22:00" }, "geometry": { "type": "Polygon", "coordinates": [ [ [ 113.944983152841203, 30.683274786230683 ], [ 113.944983152841203, 30.698724595586921 ], [ 113.927016847158811, 30.698724595586921 ], [ 113.927016847158811, 30.683274786230683 ], [ 113.944983152841203, 30.683274786230683 ] ] ] } },
{ "type": "Feature", "properties": { "北京时间": "2026-05-12 22:00" }, "geometry": { "type": "Polygon", "coordinates": [ [ [ 114.149983152841187, 30.774282077674926 ], [ 114.149983152841187, 30.789717303074394 ], [ 114.132016847158795, 30.789717303074394 ], [ 114.132016847158795, 30.774282077674926 ], [ 114.149983152841187, 30.774282077674926 ] ] ] } },
{ "type": "Feature", "properties": { "北京时间": "2026-05-12 22:00" }, "geometry": { "type": "Polygon", "coordinates": [ [ [ 113.836983152841199, 30.638271187772059 ], [ 113.836983152841199, 30.653728194576122 ], [ 113.819016847158807, 30.653728194576122 ], [ 113.819016847158807, 30.638271187772059 ], [ 113.836983152841199, 30.638271187772059 ] ] ] } },
{ "type": "Feature", "properties": { "北京时间": "2026-05-12 22:00" }, "geometry": { "type": "Polygon", "coordinates": [ [ [ 113.816983152841203, 30.760280954646461 ], [ 113.816983152841203, 30.775718426266803 ], [ 113.799016847158811, 30.775718426266803 ], [ 113.799016847158811, 30.760280954646461 ], [ 113.816983152841203, 30.760280954646461 ] ] ] } },
{ "type": "Feature", "properties": { "北京时间": "2026-05-12 22:00" }, "geometry": { "type": "Polygon", "coordinates": [ [ [ 114.067983152841194, 30.791283441971903 ], [ 114.067983152841194, 30.806715938578538 ], [ 114.050016847158801, 30.806715938578538 ], [ 114.050016847158801, 30.791283441971903 ], [ 114.067983152841194, 30.791283441971903 ] ] ] } },
{ "type": "Feature", "properties": { "北京时间": "2026-05-12 22:00" }, "geometry": { "type": "Polygon", "coordinates": [ [ [ 113.802983152841179, 30.605268551932674 ], [ 113.802983152841179, 30.620730830805591 ], [ 113.785016847158786, 30.620730830805591 ], [ 113.785016847158786, 30.605268551932674 ], [ 113.802983152841179, 30.605268551932674 ] ] ] } },
{ "type": "Feature", "properties": { "北京时间": "2026-05-12 22:00" }, "geometry": { "type": "Polygon", "coordinates": [ [ [ 113.864983152841191, 30.675274146156323 ], [ 113.864983152841191, 30.690725235755497 ], [ 113.847016847158798, 30.690725235755497 ], [ 113.847016847158798, 30.675274146156323 ], [ 113.864983152841191, 30.675274146156323 ] ] ] } },
{ "type": "Feature", "properties": { "北京时间": "2026-05-12 22:00" }, "geometry": { "type": "Polygon", "coordinates": [ [ [ 113.912983152841193, 30.694275666578864 ], [ 113.912983152841193, 30.70972371510927 ], [ 113.8950168471588, 30.70972371510927 ], [ 113.8950168471588, 30.694275666578864 ], [ 113.912983152841193, 30.694275666578864 ] ] ] } },
{ "type": "Feature", "properties": { "北京时间": "2026-05-12 22:00" }, "geometry": { "type": "Polygon", "coordinates": [ [ [ 113.905983152841202, 30.694275666578864 ], [ 113.905983152841202, 30.70972371510927 ], [ 113.888016847158809, 30.70972371510927 ], [ 113.888016847158809, 30.694275666578864 ], [ 113.905983152841202, 30.694275666578864 ] ] ] } },
{ "type": "Feature", "properties": { "北京时间": "2026-05-12 22:00" }, "geometry": { "type": "Polygon", "coordinates": [ [ [ 114.022983152841178, 30.784282880120266 ], [ 114.022983152841178, 30.799716500512034 ], [ 114.005016847158785, 30.799716500512034 ], [ 114.005016847158785, 30.784282880120266 ], [ 114.022983152841178, 30.784282880120266 ] ] ] } },
{ "type": "Feature", "properties": { "北京时间": "2026-05-12 22:00" }, "geometry": { "type": "Polygon", "coordinates": [ [ [ 113.929983152841189, 30.687275106324346 ], [ 113.929983152841189, 30.702724275446169 ], [ 113.912016847158796, 30.702724275446169 ], [ 113.912016847158796, 30.687275106324346 ], [ 113.929983152841189, 30.687275106324346 ] ] ] } },
{ "type": "Feature", "properties": { "北京时间": "2026-05-12 22:00" }, "geometry": { "type": "Polygon", "coordinates": [ [ [ 113.914983152841202, 30.6572727065398 ], [ 113.914983152841202, 30.672726675584187 ], [ 113.89701684715881, 30.672726675584187 ], [ 113.89701684715881, 30.6572727065398 ], [ 113.914983152841202, 30.6572727065398 ] ] ] } },
{ "type": "Feature", "properties": { "北京时间": "2026-05-12 22:00" }, "geometry": { "type": "Polygon", "coordinates": [ [ [ 113.927983152841193, 30.670273746186332 ], [ 113.927983152841193, 30.685725635784387 ], [ 113.910016847158801, 30.685725635784387 ], [ 113.910016847158801, 30.670273746186332 ], [ 113.927983152841193, 30.670273746186332 ] ] ] } },
{ "type": "Feature", "properties": { "北京时间": "2026-05-12 22:00" }, "geometry": { "type": "Polygon", "coordinates": [ [ [ 113.862983152841196, 30.708276787433835 ], [ 113.862983152841196, 30.723722594089672 ], [ 113.845016847158803, 30.723722594089672 ], [ 113.845016847158803, 30.708276787433835 ], [ 113.862983152841196, 30.708276787433835 ] ] ] } },
{ "type": "Feature", "properties": { "北京时间": "2026-05-12 22:00" }, "geometry": { "type": "Polygon", "coordinates": [ [ [ 113.782983152841183, 30.587267115283176 ], [ 113.782983152841183, 30.602732267668205 ], [ 113.76501684715879, 30.602732267668205 ], [ 113.76501684715879, 30.587267115283176 ], [ 113.782983152841183, 30.587267115283176 ] ] ] } },
{ "type": "Feature", "properties": { "北京时间": "2026-05-12 22:00" }, "geometry": { "type": "Polygon", "coordinates": [ [ [ 113.852983152841176, 30.608268791448459 ], [ 113.852983152841176, 30.623730591254322 ], [ 113.835016847158784, 30.623730591254322 ], [ 113.835016847158784, 30.608268791448459 ], [ 113.852983152841176, 30.608268791448459 ] ] ] } },
{ "type": "Feature", "properties": { "北京时间": "2026-05-12 22:00" }, "geometry": { "type": "Polygon", "coordinates": [ [ [ 113.863983152841186, 30.810284967578397 ], [ 113.863983152841186, 30.825714412750017 ], [ 113.846016847158808, 30.825714412750017 ], [ 113.846016847158808, 30.810284967578397 ], [ 113.863983152841186, 30.810284967578397 ] ] ] } },
{ "type": "Feature", "properties": { "北京时间": "2026-05-12 22:00" }, "geometry": { "type": "Polygon", "coordinates": [ [ [ 113.765983152841187, 30.574266078177676 ], [ 113.765983152841187, 30.589733304927758 ], [ 113.748016847158809, 30.589733304927758 ], [ 113.748016847158809, 30.574266078177676 ], [ 113.765983152841187, 30.574266078177676 ] ] ] } },
{ "type": "Feature", "properties": { "北京时间": "2026-05-12 21:00" }, "geometry": { "type": "Polygon", "coordinates": [ [ [ 113.752983152841182, 30.687275106324346 ], [ 113.752983152841182, 30.702724275446169 ], [ 113.735016847158789, 30.702724275446169 ], [ 113.735016847158789, 30.687275106324346 ], [ 113.752983152841182, 30.687275106324346 ] ] ] } },
{ "type": "Feature", "properties": { "北京时间": "2026-05-12 21:00" }, "geometry": { "type": "Polygon", "coordinates": [ [ [ 113.743983152841182, 30.462257159613728 ], [ 113.743983152841182, 30.477742224824279 ], [ 113.726016847158789, 30.477742224824279 ], [ 113.726016847158789, 30.462257159613728 ], [ 113.743983152841182, 30.462257159613728 ] ] ] } },
{ "type": "Feature", "properties": { "北京时间": "2026-05-12 21:00" }, "geometry": { "type": "Polygon", "coordinates": [ [ [ 113.899983152841202, 30.562265121202948 ], [ 113.899983152841202, 30.577734262044803 ], [ 113.882016847158809, 30.577734262044803 ], [ 113.882016847158809, 30.562265121202948 ], [ 113.899983152841202, 30.562265121202948 ] ] ] } },
{ "type": "Feature", "properties": { "北京时间": "2026-05-12 21:00" }, "geometry": { "type": "Polygon", "coordinates": [ [ [ 113.914983152841202, 30.581266636569616 ], [ 113.914983152841202, 30.596732746452833 ], [ 113.89701684715881, 30.596732746452833 ], [ 113.89701684715881, 30.581266636569616 ], [ 113.914983152841202, 30.581266636569616 ] ] ] } },
{ "type": "Feature", "properties": { "北京时间": "2026-05-12 21:00" }, "geometry": { "type": "Polygon", "coordinates": [ [ [ 113.70998315284119, 30.502260341420119 ], [ 113.70998315284119, 30.517739042540899 ], [ 113.692016847158783, 30.517739042540899 ], [ 113.692016847158783, 30.502260341420119 ], [ 113.70998315284119, 30.502260341420119 ] ] ] } },
{ "type": "Feature", "properties": { "北京时间": "2026-05-12 21:00" }, "geometry": { "type": "Polygon", "coordinates": [ [ [ 113.824983152841185, 30.730278549709066 ], [ 113.824983152841185, 30.745720831556003 ], [ 113.807016847158806, 30.745720831556003 ], [ 113.807016847158806, 30.730278549709066 ], [ 113.824983152841185, 30.730278549709066 ] ] ] } },
{ "type": "Feature", "properties": { "北京时间": "2026-05-12 21:00" }, "geometry": { "type": "Polygon", "coordinates": [ [ [ 113.940983152841198, 30.584266875915802 ], [ 113.940983152841198, 30.599732507071121 ], [ 113.923016847158792, 30.599732507071121 ], [ 113.923016847158792, 30.584266875915802 ], [ 113.940983152841198, 30.584266875915802 ] ] ] } },
{ "type": "Feature", "properties": { "北京时间": "2026-05-12 21:00" }, "geometry": { "type": "Polygon", "coordinates": [ [ [ 113.767983152841197, 30.511261057846518 ], [ 113.767983152841197, 30.526738326007319 ], [ 113.750016847158804, 30.526738326007319 ], [ 113.750016847158804, 30.511261057846518 ], [ 113.767983152841197, 30.511261057846518 ] ] ] } },
{ "type": "Feature", "properties": { "北京时间": "2026-05-12 21:00" }, "geometry": { "type": "Polygon", "coordinates": [ [ [ 113.779983152841197, 30.4552566031856 ], [ 113.779983152841197, 30.470742781336 ], [ 113.762016847158804, 30.470742781336 ], [ 113.762016847158804, 30.4552566031856 ], [ 113.779983152841197, 30.4552566031856 ] ] ] } },
{ "type": "Feature", "properties": { "北京时间": "2026-05-12 21:00" }, "geometry": { "type": "Polygon", "coordinates": [ [ [ 113.799983152841179, 30.614269270543605 ], [ 113.799983152841179, 30.62973011208819 ], [ 113.782016847158786, 30.62973011208819 ], [ 113.782016847158786, 30.614269270543605 ], [ 113.799983152841179, 30.614269270543605 ] ] ] } },
{ "type": "Feature", "properties": { "北京时间": "2026-05-12 21:00" }, "geometry": { "type": "Polygon", "coordinates": [ [ [ 113.860983152841214, 30.589267274873201 ], [ 113.860983152841214, 30.604732108054474 ], [ 113.843016847158822, 30.604732108054474 ], [ 113.843016847158822, 30.589267274873201 ], [ 113.860983152841214, 30.589267274873201 ] ] ] } },
{ "type": "Feature", "properties": { "北京时间": "2026-05-12 21:00" }, "geometry": { "type": "Polygon", "coordinates": [ [ [ 113.87798315284121, 30.575266157940884 ], [ 113.87798315284121, 30.59073322515269 ], [ 113.860016847158803, 30.59073322515269 ], [ 113.860016847158803, 30.575266157940884 ], [ 113.87798315284121, 30.575266157940884 ] ] ] } },
{ "type": "Feature", "properties": { "北京时间": "2026-05-12 21:00" }, "geometry": { "type": "Polygon", "coordinates": [ [ [ 113.934983152841198, 30.575266157940884 ], [ 113.934983152841198, 30.59073322515269 ], [ 113.917016847158806, 30.59073322515269 ], [ 113.917016847158806, 30.575266157940884 ], [ 113.934983152841198, 30.575266157940884 ] ] ] } },
{ "type": "Feature", "properties": { "北京时间": "2026-05-12 21:00" }, "geometry": { "type": "Polygon", "coordinates": [ [ [ 113.72498315284119, 30.451256285278568 ], [ 113.72498315284119, 30.466743099290806 ], [ 113.707016847158798, 30.466743099290806 ], [ 113.707016847158798, 30.451256285278568 ], [ 113.72498315284119, 30.451256285278568 ] ] ] } },
{ "type": "Feature", "properties": { "北京时间": "2026-05-12 21:00" }, "geometry": { "type": "Polygon", "coordinates": [ [ [ 113.663983152841197, 30.413253267044617 ], [ 113.663983152841197, 30.428746117979344 ], [ 113.646016847158805, 30.428746117979344 ], [ 113.646016847158805, 30.413253267044617 ], [ 113.663983152841197, 30.413253267044617 ] ] ] } },
{ "type": "Feature", "properties": { "北京时间": "2026-05-12 21:00" }, "geometry": { "type": "Polygon", "coordinates": [ [ [ 113.813983152841189, 30.562265121202948 ], [ 113.813983152841189, 30.577734262044803 ], [ 113.79601684715881, 30.577734262044803 ], [ 113.79601684715881, 30.562265121202948 ], [ 113.813983152841189, 30.562265121202948 ] ] ] } },
{ "type": "Feature", "properties": { "北京时间": "2026-05-12 20:00" }, "geometry": { "type": "Polygon", "coordinates": [ [ [ 113.728983152841181, 30.522261933738147 ], [ 113.728983152841181, 30.5377374499848 ], [ 113.711016847158803, 30.5377374499848 ], [ 113.711016847158803, 30.522261933738147 ], [ 113.728983152841181, 30.522261933738147 ] ] ] } },
{ "type": "Feature", "properties": { "北京时间": "2026-05-12 20:00" }, "geometry": { "type": "Polygon", "coordinates": [ [ [ 113.758983152841196, 30.447255967409287 ], [ 113.758983152841196, 30.462743417207893 ], [ 113.741016847158804, 30.462743417207893 ], [ 113.741016847158804, 30.447255967409287 ], [ 113.758983152841196, 30.447255967409287 ] ] ] } },
{ "type": "Feature", "properties": { "北京时间": "2026-05-12 20:00" }, "geometry": { "type": "Polygon", "coordinates": [ [ [ 113.69598315284118, 30.634270868139797 ], [ 113.69598315284118, 30.649728514255639 ], [ 113.678016847158787, 30.649728514255639 ], [ 113.678016847158787, 30.634270868139797 ], [ 113.69598315284118, 30.634270868139797 ] ] ] } },
{ "type": "Feature", "properties": { "北京时间": "2026-05-12 20:00" }, "geometry": { "type": "Polygon", "coordinates": [ [ [ 113.808983152841179, 30.646271827149615 ], [ 113.808983152841179, 30.661727555104139 ], [ 113.791016847158787, 30.661727555104139 ], [ 113.791016847158787, 30.646271827149615 ], [ 113.808983152841179, 30.646271827149615 ] ] ] } },
{ "type": "Feature", "properties": { "北京时间": "2026-05-12 20:00" }, "geometry": { "type": "Polygon", "coordinates": [ [ [ 113.692983152841194, 30.385251045263384 ], [ 113.692983152841194, 30.400748340096222 ], [ 113.675016847158801, 30.400748340096222 ], [ 113.675016847158801, 30.385251045263384 ], [ 113.692983152841194, 30.385251045263384 ] ] ] } },
{ "type": "Feature", "properties": { "北京时间": "2026-05-12 20:00" }, "geometry": { "type": "Polygon", "coordinates": [ [ [ 113.814983152841194, 30.485258988691335 ], [ 113.814983152841194, 30.500740395472242 ], [ 113.797016847158801, 30.500740395472242 ], [ 113.797016847158801, 30.485258988691335 ], [ 113.814983152841194, 30.485258988691335 ] ] ] } },
{ "type": "Feature", "properties": { "北京时间": "2026-05-12 19:00" }, "geometry": { "type": "Polygon", "coordinates": [ [ [ 113.656983152841178, 30.587267115283176 ], [ 113.656983152841178, 30.602732267668205 ], [ 113.639016847158786, 30.602732267668205 ], [ 113.639016847158786, 30.587267115283176 ], [ 113.656983152841178, 30.587267115283176 ] ] ] } },
{ "type": "Feature", "properties": { "北京时间": "2026-05-12 19:00" }, "geometry": { "type": "Polygon", "coordinates": [ [ [ 113.817983152841194, 30.568265599647905 ], [ 113.817983152841194, 30.583733783528686 ], [ 113.800016847158801, 30.583733783528686 ], [ 113.800016847158801, 30.568265599647905 ], [ 113.817983152841194, 30.568265599647905 ] ] ] } },
{ "type": "Feature", "properties": { "北京时间": "2026-05-12 19:00" }, "geometry": { "type": "Polygon", "coordinates": [ [ [ 113.653983152841178, 30.438255252341413 ], [ 113.653983152841178, 30.453744132383353 ], [ 113.636016847158785, 30.453744132383353 ], [ 113.636016847158785, 30.438255252341413 ], [ 113.653983152841178, 30.438255252341413 ] ] ] } },
{ "type": "Feature", "properties": { "北京时间": "2026-05-12 18:00" }, "geometry": { "type": "Polygon", "coordinates": [ [ [ 113.640983152841201, 30.534262889581615 ], [ 113.640983152841201, 30.549736493998658 ], [ 113.623016847158809, 30.549736493998658 ], [ 113.623016847158809, 30.534262889581615 ], [ 113.640983152841201, 30.534262889581615 ] ] ] } },
{ "type": "Feature", "properties": { "北京时间": "2026-05-12 18:00" }, "geometry": { "type": "Polygon", "coordinates": [ [ [ 113.839983152841185, 30.496259863908612 ], [ 113.839983152841185, 30.511739520123871 ], [ 113.822016847158793, 30.511739520123871 ], [ 113.822016847158793, 30.496259863908612 ], [ 113.839983152841185, 30.496259863908612 ] ] ] } },
{ "type": "Feature", "properties": { "北京时间": "2026-05-12 17:00" }, "geometry": { "type": "Polygon", "coordinates": [ [ [ 113.651983152841197, 30.478258431883468 ], [ 113.651983152841197, 30.493740952363598 ], [ 113.634016847158804, 30.493740952363598 ], [ 113.634016847158804, 30.478258431883468 ], [ 113.651983152841197, 30.478258431883468 ] ] ] } },
{ "type": "Feature", "properties": { "北京时间": "2026-05-12 16:00" }, "geometry": { "type": "Polygon", "coordinates": [ [ [ 113.672983152841184, 30.420253822779056 ], [ 113.672983152841184, 30.435745562161092 ], [ 113.655016847158805, 30.435745562161092 ], [ 113.655016847158805, 30.420253822779056 ], [ 113.672983152841184, 30.420253822779056 ] ] ] } },
{ "type": "Feature", "properties": { "北京时间": "2026-05-11 05:00" }, "geometry": { "type": "Polygon", "coordinates": [ [ [ 113.773983152841183, 30.447255967409287 ], [ 113.773983152841183, 30.462743417207893 ], [ 113.756016847158804, 30.462743417207893 ], [ 113.756016847158804, 30.447255967409287 ], [ 113.773983152841183, 30.447255967409287 ] ] ] } },
{ "type": "Feature", "properties": { "北京时间": "2026-05-11 04:00" }, "geometry": { "type": "Polygon", "coordinates": [ [ [ 113.825983152841189, 30.611269030985437 ], [ 113.825983152841189, 30.62673035168185 ], [ 113.808016847158797, 30.62673035168185 ], [ 113.808016847158797, 30.611269030985437 ], [ 113.825983152841189, 30.611269030985437 ] ] ] } },
{ "type": "Feature", "properties": { "北京时间": "2026-05-11 03:00" }, "geometry": { "type": "Polygon", "coordinates": [ [ [ 113.902983152841202, 30.762281115050879 ], [ 113.902983152841202, 30.777718265838956 ], [ 113.885016847158809, 30.777718265838956 ], [ 113.885016847158809, 30.762281115050879 ], [ 113.902983152841202, 30.762281115050879 ] ] ] } },
{ "type": "Feature", "properties": { "北京时间": "2026-05-11 02:00" }, "geometry": { "type": "Polygon", "coordinates": [ [ [ 113.993983152841182, 30.895291803046565 ], [ 113.993983152841182, 30.910707576291937 ], [ 113.976016847158789, 30.910707576291937 ], [ 113.976016847158789, 30.895291803046565 ], [ 113.993983152841182, 30.895291803046565 ] ] ] } },
{ "type": "Feature", "properties": { "北京时间": "2026-05-11 01:00" }, "geometry": { "type": "Polygon", "coordinates": [ [ [ 114.086983152841199, 31.023302128465154 ], [ 114.086983152841199, 31.038697249392971 ], [ 114.069016847158807, 31.038697249392971 ], [ 114.069016847158807, 31.023302128465154 ], [ 114.086983152841199, 31.023302128465154 ] ] ] } },
{ "type": "Feature", "properties": { "北京时间": "2026-05-11 00:00" }, "geometry": { "type": "Polygon", "coordinates": [ [ [ 114.219983152841195, 31.193315901306626 ], [ 114.219983152841195, 31.208683474604609 ], [ 114.202016847158788, 31.208683474604609 ], [ 114.202016847158788, 31.193315901306626 ], [ 114.219983152841195, 31.193315901306626 ] ] ] } }
]
}
