{
"type": "FeatureCollection",
"name": "东城",
"crs": { "type": "name", "properties": { "name": "urn:ogc:def:crs:OGC:1.3:CRS84" } },
"features": [
{ "type": "Feature", "properties": { "北京时间": "2026-05-13 00:00" }, "geometry": { "type": "Polygon", "coordinates": [ [ [ 113.950983152841175, 30.899292125133776 ], [ 113.950983152841175, 30.914707254158273 ], [ 113.933016847158797, 30.914707254158273 ], [ 113.933016847158797, 30.899292125133776 ], [ 113.950983152841175, 30.899292125133776 ] ] ] } },
{ "type": "Feature", "properties": { "北京时间": "2026-05-12 23:00" }, "geometry": { "type": "Polygon", "coordinates": [ [ [ 113.946983152841185, 30.815285369194822 ], [ 113.946983152841185, 30.830714011075202 ], [ 113.929016847158792, 30.830714011075202 ], [ 113.929016847158792, 30.815285369194822 ], [ 113.946983152841185, 30.815285369194822 ] ] ] } },
{ "type": "Feature", "properties": { "北京时间": "2026-05-12 23:00" }, "geometry": { "type": "Polygon", "coordinates": [ [ [ 113.861983152841177, 30.740279351119668 ], [ 113.861983152841177, 30.755720030028066 ], [ 113.844016847158784, 30.755720030028066 ], [ 113.844016847158784, 30.740279351119668 ], [ 113.861983152841177, 30.740279351119668 ] ] ] } },
{ "type": "Feature", "properties": { "北京时间": "2026-05-12 23:00" }, "geometry": { "type": "Polygon", "coordinates": [ [ [ 113.927983152841193, 30.773281997443313 ], [ 113.927983152841193, 30.788717383317692 ], [ 113.910016847158801, 30.788717383317692 ], [ 113.910016847158801, 30.773281997443313 ], [ 113.927983152841193, 30.773281997443313 ] ] ] } },
{ "type": "Feature", "properties": { "北京时间": "2026-05-12 23:00" }, "geometry": { "type": "Polygon", "coordinates": [ [ [ 113.869983152841186, 30.756280633865838 ], [ 113.869983152841186, 30.771718747094287 ], [ 113.852016847158808, 30.771718747094287 ], [ 113.852016847158808, 30.756280633865838 ], [ 113.869983152841186, 30.756280633865838 ] ] ] } },
{ "type": "Feature", "properties": { "北京时间": "2026-05-12 23:00" }, "geometry": { "type": "Polygon", "coordinates": [ [ [ 113.94898315284118, 30.796283843365018 ], [ 113.94898315284118, 30.811715537126958 ], [ 113.931016847158787, 30.811715537126958 ], [ 113.931016847158787, 30.796283843365018 ], [ 113.94898315284118, 30.796283843365018 ] ] ] } },
{ "type": "Feature", "properties": { "北京时间": "2026-05-12 23:00" }, "geometry": { "type": "Polygon", "coordinates": [ [ [ 113.871983152841182, 30.76928167654042 ], [ 113.871983152841182, 30.784717704267432 ], [ 113.854016847158803, 30.784717704267432 ], [ 113.854016847158803, 30.76928167654042 ], [ 113.871983152841182, 30.76928167654042 ] ] ] } },
{ "type": "Feature", "properties": { "北京时间": "2026-05-12 23:00" }, "geometry": { "type": "Polygon", "coordinates": [ [ [ 113.896983152841187, 30.772281917214066 ], [ 113.896983152841187, 30.787717463558657 ], [ 113.879016847158795, 30.787717463558657 ], [ 113.879016847158795, 30.772281917214066 ], [ 113.896983152841187, 30.772281917214066 ] ] ] } },
{ "type": "Feature", "properties": { "北京时间": "2026-05-12 23:00" }, "geometry": { "type": "Polygon", "coordinates": [ [ [ 113.97798315284119, 30.842287538938777 ], [ 113.97798315284119, 30.857711841016329 ], [ 113.960016847158784, 30.857711841016329 ], [ 113.960016847158784, 30.842287538938777 ], [ 113.97798315284119, 30.842287538938777 ] ] ] } },
{ "type": "Feature", "properties": { "北京时间": "2026-05-12 23:00" }, "geometry": { "type": "Polygon", "coordinates": [ [ [ 113.907983152841183, 30.792283522245818 ], [ 113.907983152841183, 30.807715858292919 ], [ 113.89001684715879, 30.807715858292919 ], [ 113.89001684715879, 30.792283522245818 ], [ 113.907983152841183, 30.792283522245818 ] ] ] } },
{ "type": "Feature", "properties": { "北京时间": "2026-05-12 23:00" }, "geometry": { "type": "Polygon", "coordinates": [ [ [ 113.911983152841188, 30.809284887262169 ], [ 113.911983152841188, 30.824714493077924 ], [ 113.894016847158809, 30.824714493077924 ], [ 113.894016847158809, 30.809284887262169 ], [ 113.911983152841188, 30.809284887262169 ] ] ] } },
{ "type": "Feature", "properties": { "北京时间": "2026-05-12 23:00" }, "geometry": { "type": "Polygon", "coordinates": [ [ [ 113.935983152841189, 30.803284405414121 ], [ 113.935983152841189, 30.818714974996055 ], [ 113.918016847158796, 30.818714974996055 ], [ 113.918016847158796, 30.803284405414121 ], [ 113.935983152841189, 30.803284405414121 ] ] ] } },
{ "type": "Feature", "properties": { "北京时间": "2026-05-12 23:00" }, "geometry": { "type": "Polygon", "coordinates": [ [ [ 113.930983152841179, 30.782282719612382 ], [ 113.930983152841179, 30.7977166610433 ], [ 113.913016847158801, 30.7977166610433 ], [ 113.913016847158801, 30.782282719612382 ], [ 113.930983152841179, 30.782282719612382 ] ] ] } },
{ "type": "Feature", "properties": { "北京时间": "2026-05-12 23:00" }, "geometry": { "type": "Polygon", "coordinates": [ [ [ 113.904983152841183, 30.873290032238568 ], [ 113.904983152841183, 30.888709347355618 ], [ 113.88701684715879, 30.888709347355618 ], [ 113.88701684715879, 30.873290032238568 ], [ 113.904983152841183, 30.873290032238568 ] ] ] } },
{ "type": "Feature", "properties": { "北京时间": "2026-05-12 23:00" }, "geometry": { "type": "Polygon", "coordinates": [ [ [ 113.859983152841181, 30.742279511430006 ], [ 113.859983152841181, 30.75771986969426 ], [ 113.842016847158789, 30.75771986969426 ], [ 113.842016847158789, 30.742279511430006 ], [ 113.859983152841181, 30.742279511430006 ] ] ] } },
{ "type": "Feature", "properties": { "北京时间": "2026-05-12 23:00" }, "geometry": { "type": "Polygon", "coordinates": [ [ [ 113.871983152841182, 30.841287458547338 ], [ 113.871983152841182, 30.856711921419411 ], [ 113.854016847158803, 30.856711921419411 ], [ 113.854016847158803, 30.841287458547338 ], [ 113.871983152841182, 30.841287458547338 ] ] ] } },
{ "type": "Feature", "properties": { "北京时间": "2026-05-12 23:00" }, "geometry": { "type": "Polygon", "coordinates": [ [ [ 113.94298315284118, 30.804284485716256 ], [ 113.94298315284118, 30.819714894682253 ], [ 113.925016847158801, 30.819714894682253 ], [ 113.925016847158801, 30.804284485716256 ], [ 113.94298315284118, 30.804284485716256 ] ] ] } },
{ "type": "Feature", "properties": { "北京时间": "2026-05-12 23:00" }, "geometry": { "type": "Polygon", "coordinates": [ [ [ 114.042983152841188, 30.834286895873088 ], [ 114.042983152841188, 30.849712484175267 ], [ 114.025016847158795, 30.849712484175267 ], [ 114.025016847158795, 30.834286895873088 ], [ 114.042983152841188, 30.834286895873088 ] ] ] } },
{ "type": "Feature", "properties": { "北京时间": "2026-05-12 23:00" }, "geometry": { "type": "Polygon", "coordinates": [ [ [ 114.017983152841197, 30.847287940931199 ], [ 114.017983152841197, 30.862711438965643 ], [ 114.000016847158804, 30.862711438965643 ], [ 114.000016847158804, 30.847287940931199 ], [ 114.017983152841197, 30.847287940931199 ] ] ] } },
{ "type": "Feature", "properties": { "北京时间": "2026-05-12 23:00" }, "geometry": { "type": "Polygon", "coordinates": [ [ [ 113.908983152841188, 30.763281195256621 ], [ 113.908983152841188, 30.778718185621504 ], [ 113.891016847158809, 30.778718185621504 ], [ 113.891016847158809, 30.763281195256621 ], [ 113.908983152841188, 30.763281195256621 ] ] ] } },
{ "type": "Feature", "properties": { "北京时间": "2026-05-12 23:00" }, "geometry": { "type": "Polygon", "coordinates": [ [ [ 113.937983152841184, 30.807284726636745 ], [ 113.937983152841184, 30.822714653726695 ], [ 113.920016847158792, 30.822714653726695 ], [ 113.920016847158792, 30.807284726636745 ], [ 113.937983152841184, 30.807284726636745 ] ] ] } },
{ "type": "Feature", "properties": { "北京时间": "2026-05-12 22:00" }, "geometry": { "type": "Polygon", "coordinates": [ [ [ 113.790983152841193, 30.640271347602329 ], [ 113.790983152841193, 30.655728034722255 ], [ 113.7730168471588, 30.655728034722255 ], [ 113.7730168471588, 30.640271347602329 ], [ 113.790983152841193, 30.640271347602329 ] ] ] } },
{ "type": "Feature", "properties": { "北京时间": "2026-05-12 22:00" }, "geometry": { "type": "Polygon", "coordinates": [ [ [ 113.940983152841198, 30.690275346419316 ], [ 113.940983152841198, 30.705724035315903 ], [ 113.923016847158792, 30.705724035315903 ], [ 113.923016847158792, 30.690275346419316 ], [ 113.940983152841198, 30.690275346419316 ] ] ] } },
{ "type": "Feature", "properties": { "北京时间": "2026-05-12 22:00" }, "geometry": { "type": "Polygon", "coordinates": [ [ [ 114.144983152841178, 30.780282559113914 ], [ 114.144983152841178, 30.795716821565179 ], [ 114.127016847158799, 30.795716821565179 ], [ 114.127016847158799, 30.780282559113914 ], [ 114.144983152841178, 30.780282559113914 ] ] ] } },
{ "type": "Feature", "properties": { "北京时间": "2026-05-12 22:00" }, "geometry": { "type": "Polygon", "coordinates": [ [ [ 113.83598315284118, 30.645271747219191 ], [ 113.83598315284118, 30.660727635046381 ], [ 113.818016847158802, 30.660727635046381 ], [ 113.818016847158802, 30.645271747219191 ], [ 113.83598315284118, 30.645271747219191 ] ] ] } },
{ "type": "Feature", "properties": { "北京时间": "2026-05-12 22:00" }, "geometry": { "type": "Polygon", "coordinates": [ [ [ 113.815983152841184, 30.768281596320573 ], [ 113.815983152841184, 30.783717784498979 ], [ 113.798016847158806, 30.783717784498979 ], [ 113.798016847158806, 30.768281596320573 ], [ 113.815983152841184, 30.768281596320573 ] ] ] } },
{ "type": "Feature", "properties": { "北京时间": "2026-05-12 22:00" }, "geometry": { "type": "Polygon", "coordinates": [ [ [ 114.063983152841189, 30.798284003938729 ], [ 114.063983152841189, 30.813715376529888 ], [ 114.04601684715881, 30.813715376529888 ], [ 114.04601684715881, 30.798284003938729 ], [ 114.063983152841189, 30.798284003938729 ] ] ] } },
{ "type": "Feature", "properties": { "北京时间": "2026-05-12 22:00" }, "geometry": { "type": "Polygon", "coordinates": [ [ [ 113.797983152841184, 30.611269030985437 ], [ 113.797983152841184, 30.62673035168185 ], [ 113.780016847158791, 30.62673035168185 ], [ 113.780016847158791, 30.611269030985437 ], [ 113.797983152841184, 30.611269030985437 ] ] ] } },
{ "type": "Feature", "properties": { "北京时间": "2026-05-12 22:00" }, "geometry": { "type": "Polygon", "coordinates": [ [ [ 113.860983152841214, 30.682274706213143 ], [ 113.860983152841214, 30.697724675616232 ], [ 113.843016847158822, 30.697724675616232 ], [ 113.843016847158822, 30.682274706213143 ], [ 113.860983152841214, 30.682274706213143 ] ] ] } },
{ "type": "Feature", "properties": { "北京时间": "2026-05-12 22:00" }, "geometry": { "type": "Polygon", "coordinates": [ [ [ 113.909983152841178, 30.702276307010944 ], [ 113.909983152841178, 30.717723074583098 ], [ 113.892016847158786, 30.717723074583098 ], [ 113.892016847158786, 30.702276307010944 ], [ 113.909983152841178, 30.702276307010944 ] ] ] } },
{ "type": "Feature", "properties": { "北京时间": "2026-05-12 22:00" }, "geometry": { "type": "Polygon", "coordinates": [ [ [ 113.901983152841197, 30.702276307010944 ], [ 113.901983152841197, 30.717723074583098 ], [ 113.88401684715879, 30.717723074583098 ], [ 113.88401684715879, 30.702276307010944 ], [ 113.901983152841197, 30.702276307010944 ] ] ] } },
{ "type": "Feature", "properties": { "北京时间": "2026-05-12 22:00" }, "geometry": { "type": "Polygon", "coordinates": [ [ [ 114.016983152841178, 30.790283361700322 ], [ 114.016983152841178, 30.805716018861794 ], [ 113.999016847158785, 30.805716018861794 ], [ 113.999016847158785, 30.790283361700322 ], [ 114.016983152841178, 30.790283361700322 ] ] ] } },
{ "type": "Feature", "properties": { "北京时间": "2026-05-12 22:00" }, "geometry": { "type": "Polygon", "coordinates": [ [ [ 113.926983152841188, 30.695275746624638 ], [ 113.926983152841188, 30.710723635051725 ], [ 113.909016847158796, 30.710723635051725 ], [ 113.909016847158796, 30.695275746624638 ], [ 113.926983152841188, 30.695275746624638 ] ] ] } },
{ "type": "Feature", "properties": { "北京时间": "2026-05-12 22:00" }, "geometry": { "type": "Polygon", "coordinates": [ [ [ 113.909983152841178, 30.663273186327228 ], [ 113.909983152841178, 30.678726195726004 ], [ 113.892016847158786, 30.678726195726004 ], [ 113.892016847158786, 30.663273186327228 ], [ 113.909983152841178, 30.663273186327228 ] ] ] } },
{ "type": "Feature", "properties": { "北京时间": "2026-05-12 22:00" }, "geometry": { "type": "Polygon", "coordinates": [ [ [ 113.922983152841184, 30.676274226157386 ], [ 113.922983152841184, 30.691725155742667 ], [ 113.905016847158805, 30.691725155742667 ], [ 113.905016847158805, 30.676274226157386 ], [ 113.922983152841184, 30.676274226157386 ] ] ] } },
{ "type": "Feature", "properties": { "北京时间": "2026-05-12 22:00" }, "geometry": { "type": "Polygon", "coordinates": [ [ [ 113.858983152841176, 30.716277428129445 ], [ 113.858983152841176, 30.731721953300042 ], [ 113.841016847158784, 30.731721953300042 ], [ 113.841016847158784, 30.716277428129445 ], [ 113.858983152841176, 30.716277428129445 ] ] ] } },
{ "type": "Feature", "properties": { "北京时间": "2026-05-12 22:00" }, "geometry": { "type": "Polygon", "coordinates": [ [ [ 113.778983152841192, 30.592267514275921 ], [ 113.778983152841192, 30.607731868616227 ], [ 113.7610168471588, 30.607731868616227 ], [ 113.7610168471588, 30.592267514275921 ], [ 113.778983152841192, 30.592267514275921 ] ] ] } },
{ "type": "Feature", "properties": { "北京时间": "2026-05-12 22:00" }, "geometry": { "type": "Polygon", "coordinates": [ [ [ 113.850983152841181, 30.615269350401046 ], [ 113.850983152841181, 30.630730032218924 ], [ 113.833016847158788, 30.630730032218924 ], [ 113.833016847158788, 30.615269350401046 ], [ 113.850983152841181, 30.615269350401046 ] ] ] } },
{ "type": "Feature", "properties": { "北京时间": "2026-05-12 22:00" }, "geometry": { "type": "Polygon", "coordinates": [ [ [ 113.860983152841214, 30.817285529857848 ], [ 113.860983152841214, 30.832713850388842 ], [ 113.843016847158822, 30.832713850388842 ], [ 113.843016847158822, 30.817285529857848 ], [ 113.860983152841214, 30.817285529857848 ] ] ] } },
{ "type": "Feature", "properties": { "北京时间": "2026-05-12 22:00" }, "geometry": { "type": "Polygon", "coordinates": [ [ [ 113.762983152841215, 30.580266556792282 ], [ 113.762983152841215, 30.595732826242045 ], [ 113.745016847158823, 30.595732826242045 ], [ 113.745016847158823, 30.580266556792282 ], [ 113.762983152841215, 30.580266556792282 ] ] ] } },
{ "type": "Feature", "properties": { "北京时间": "2026-05-12 21:00" }, "geometry": { "type": "Polygon", "coordinates": [ [ [ 113.753983152841215, 30.696275826672771 ], [ 113.753983152841215, 30.711723554991849 ], [ 113.736016847158808, 30.711723554991849 ], [ 113.736016847158808, 30.696275826672771 ], [ 113.753983152841215, 30.696275826672771 ] ] ] } },
{ "type": "Feature", "properties": { "北京时间": "2026-05-12 21:00" }, "geometry": { "type": "Polygon", "coordinates": [ [ [ 113.7389831528412, 30.467257557133152 ], [ 113.7389831528412, 30.482741827245153 ], [ 113.721016847158808, 30.482741827245153 ], [ 113.721016847158808, 30.467257557133152 ], [ 113.7389831528412, 30.467257557133152 ] ] ] } },
{ "type": "Feature", "properties": { "北京时间": "2026-05-12 21:00" }, "geometry": { "type": "Polygon", "coordinates": [ [ [ 113.893983152841201, 30.567265519901184 ], [ 113.893983152841201, 30.582733863287263 ], [ 113.876016847158809, 30.582733863287263 ], [ 113.876016847158809, 30.567265519901184 ], [ 113.893983152841201, 30.567265519901184 ] ] ] } },
{ "type": "Feature", "properties": { "北京时间": "2026-05-12 21:00" }, "geometry": { "type": "Polygon", "coordinates": [ [ [ 113.910983152841197, 30.588267195077009 ], [ 113.910983152841197, 30.603732187862519 ], [ 113.893016847158805, 30.603732187862519 ], [ 113.893016847158805, 30.588267195077009 ], [ 113.910983152841197, 30.588267195077009 ] ] ] } },
{ "type": "Feature", "properties": { "北京时间": "2026-05-12 21:00" }, "geometry": { "type": "Polygon", "coordinates": [ [ [ 113.707983152841194, 30.508260819016499 ], [ 113.707983152841194, 30.523738564873057 ], [ 113.690016847158788, 30.523738564873057 ], [ 113.690016847158788, 30.508260819016499 ], [ 113.707983152841194, 30.508260819016499 ] ] ] } },
{ "type": "Feature", "properties": { "北京时间": "2026-05-12 21:00" }, "geometry": { "type": "Polygon", "coordinates": [ [ [ 113.821983152841185, 30.737279110671782 ], [ 113.821983152841185, 30.752720270511144 ], [ 113.804016847158806, 30.752720270511144 ], [ 113.804016847158806, 30.737279110671782 ], [ 113.821983152841185, 30.737279110671782 ] ] ] } },
{ "type": "Feature", "properties": { "北京时间": "2026-05-12 21:00" }, "geometry": { "type": "Polygon", "coordinates": [ [ [ 113.935983152841189, 30.591267434472666 ], [ 113.935983152841189, 30.606731948431342 ], [ 113.918016847158796, 30.606731948431342 ], [ 113.918016847158796, 30.591267434472666 ], [ 113.935983152841189, 30.591267434472666 ] ] ] } },
{ "type": "Feature", "properties": { "北京时间": "2026-05-12 21:00" }, "geometry": { "type": "Polygon", "coordinates": [ [ [ 113.766983152841192, 30.518261615199098 ], [ 113.766983152841192, 30.533737768571442 ], [ 113.749016847158799, 30.533737768571442 ], [ 113.749016847158799, 30.518261615199098 ], [ 113.766983152841192, 30.518261615199098 ] ] ] } },
{ "type": "Feature", "properties": { "北京时间": "2026-05-12 21:00" }, "geometry": { "type": "Polygon", "coordinates": [ [ [ 113.778983152841192, 30.462257159613728 ], [ 113.778983152841192, 30.477742224824279 ], [ 113.7610168471588, 30.477742224824279 ], [ 113.7610168471588, 30.462257159613728 ], [ 113.778983152841192, 30.462257159613728 ] ] ] } },
{ "type": "Feature", "properties": { "北京时间": "2026-05-12 21:00" }, "geometry": { "type": "Polygon", "coordinates": [ [ [ 113.795983152841202, 30.622269909469047 ], [ 113.795983152841202, 30.637729473068163 ], [ 113.77801684715881, 30.637729473068163 ], [ 113.77801684715881, 30.622269909469047 ], [ 113.795983152841202, 30.622269909469047 ] ] ] } },
{ "type": "Feature", "properties": { "北京时间": "2026-05-12 21:00" }, "geometry": { "type": "Polygon", "coordinates": [ [ [ 113.8579831528412, 30.59726791332756 ], [ 113.8579831528412, 30.612731469505391 ], [ 113.840016847158807, 30.612731469505391 ], [ 113.840016847158807, 30.59726791332756 ], [ 113.8579831528412, 30.59726791332756 ] ] ] } },
{ "type": "Feature", "properties": { "北京时间": "2026-05-12 21:00" }, "geometry": { "type": "Polygon", "coordinates": [ [ [ 113.875983152841201, 30.582266716349324 ], [ 113.875983152841201, 30.597732666661283 ], [ 113.858016847158808, 30.597732666661283 ], [ 113.858016847158808, 30.582266716349324 ], [ 113.875983152841201, 30.582266716349324 ] ] ] } },
{ "type": "Feature", "properties": { "北京时间": "2026-05-12 21:00" }, "geometry": { "type": "Polygon", "coordinates": [ [ [ 113.928983152841184, 30.580266556792282 ], [ 113.928983152841184, 30.595732826242045 ], [ 113.911016847158805, 30.595732826242045 ], [ 113.911016847158805, 30.580266556792282 ], [ 113.928983152841184, 30.580266556792282 ] ] ] } },
{ "type": "Feature", "properties": { "北京时间": "2026-05-12 21:00" }, "geometry": { "type": "Polygon", "coordinates": [ [ [ 113.7209831528412, 30.456256682668258 ], [ 113.7209831528412, 30.471742701841393 ], [ 113.703016847158807, 30.471742701841393 ], [ 113.703016847158807, 30.456256682668258 ], [ 113.7209831528412, 30.456256682668258 ] ] ] } },
{ "type": "Feature", "properties": { "北京时间": "2026-05-12 21:00" }, "geometry": { "type": "Polygon", "coordinates": [ [ [ 113.660983152841197, 30.419253743381333 ], [ 113.660983152841197, 30.434745641570771 ], [ 113.643016847158805, 30.434745641570771 ], [ 113.643016847158805, 30.419253743381333 ], [ 113.660983152841197, 30.419253743381333 ] ] ] } },
{ "type": "Feature", "properties": { "北京时间": "2026-05-12 21:00" }, "geometry": { "type": "Polygon", "coordinates": [ [ [ 113.810983152841189, 30.568265599647905 ], [ 113.810983152841189, 30.583733783528686 ], [ 113.79301684715881, 30.583733783528686 ], [ 113.79301684715881, 30.568265599647905 ], [ 113.810983152841189, 30.568265599647905 ] ] ] } },
{ "type": "Feature", "properties": { "北京时间": "2026-05-12 20:00" }, "geometry": { "type": "Polygon", "coordinates": [ [ [ 113.72498315284119, 30.529262491272245 ], [ 113.72498315284119, 30.54473689236746 ], [ 113.707016847158798, 30.54473689236746 ], [ 113.707016847158798, 30.529262491272245 ], [ 113.72498315284119, 30.529262491272245 ] ] ] } },
{ "type": "Feature", "properties": { "北京时间": "2026-05-12 20:00" }, "geometry": { "type": "Polygon", "coordinates": [ [ [ 113.755983152841196, 30.45225636475179 ], [ 113.755983152841196, 30.467743019805646 ], [ 113.738016847158789, 30.467743019805646 ], [ 113.738016847158789, 30.45225636475179 ], [ 113.755983152841196, 30.45225636475179 ] ] ] } },
{ "type": "Feature", "properties": { "北京时间": "2026-05-12 20:00" }, "geometry": { "type": "Polygon", "coordinates": [ [ [ 113.696983152841199, 30.642271507442004 ], [ 113.696983152841199, 30.657727874858963 ], [ 113.679016847158792, 30.657727874858963 ], [ 113.679016847158792, 30.642271507442004 ], [ 113.696983152841199, 30.642271507442004 ] ] ] } },
{ "type": "Feature", "properties": { "北京时间": "2026-05-12 20:00" }, "geometry": { "type": "Polygon", "coordinates": [ [ [ 113.805983152841193, 30.652272306781679 ], [ 113.805983152841193, 30.667727075401285 ], [ 113.788016847158787, 30.667727075401285 ], [ 113.788016847158787, 30.652272306781679 ], [ 113.805983152841193, 30.652272306781679 ] ] ] } },
{ "type": "Feature", "properties": { "北京时间": "2026-05-12 20:00" }, "geometry": { "type": "Polygon", "coordinates": [ [ [ 113.691983152841203, 30.392251600535193 ], [ 113.691983152841203, 30.407747784740433 ], [ 113.674016847158811, 30.407747784740433 ], [ 113.674016847158811, 30.392251600535193 ], [ 113.691983152841203, 30.392251600535193 ] ] ] } },
{ "type": "Feature", "properties": { "北京时间": "2026-05-12 20:00" }, "geometry": { "type": "Polygon", "coordinates": [ [ [ 113.811983152841179, 30.492259545614761 ], [ 113.811983152841179, 30.507739838465366 ], [ 113.794016847158787, 30.507739838465366 ], [ 113.794016847158787, 30.492259545614761 ], [ 113.811983152841179, 30.492259545614761 ] ] ] } },
{ "type": "Feature", "properties": { "北京时间": "2026-05-12 19:00" }, "geometry": { "type": "Polygon", "coordinates": [ [ [ 113.656983152841178, 30.59526775369984 ], [ 113.656983152841178, 30.610731629156795 ], [ 113.639016847158786, 30.610731629156795 ], [ 113.639016847158786, 30.59526775369984 ], [ 113.656983152841178, 30.59526775369984 ] ] ] } },
{ "type": "Feature", "properties": { "北京时间": "2026-05-12 19:00" }, "geometry": { "type": "Polygon", "coordinates": [ [ [ 113.814983152841194, 30.574266078177676 ], [ 113.814983152841194, 30.589733304927758 ], [ 113.797016847158801, 30.589733304927758 ], [ 113.797016847158801, 30.574266078177676 ], [ 113.814983152841194, 30.574266078177676 ] ] ] } },
{ "type": "Feature", "properties": { "北京时间": "2026-05-12 19:00" }, "geometry": { "type": "Polygon", "coordinates": [ [ [ 113.650983152841178, 30.445255808488799 ], [ 113.650983152841178, 30.460743576152282 ], [ 113.633016847158785, 30.460743576152282 ], [ 113.633016847158785, 30.445255808488799 ], [ 113.650983152841178, 30.445255808488799 ] ] ] } },
{ "type": "Feature", "properties": { "北京时间": "2026-05-12 18:00" }, "geometry": { "type": "Polygon", "coordinates": [ [ [ 113.641983152841178, 30.541263447313721 ], [ 113.641983152841178, 30.556735936183369 ], [ 113.624016847158799, 30.556735936183369 ], [ 113.624016847158799, 30.541263447313721 ], [ 113.641983152841178, 30.541263447313721 ] ] ] } },
{ "type": "Feature", "properties": { "北京时间": "2026-05-12 18:00" }, "geometry": { "type": "Polygon", "coordinates": [ [ [ 113.83598315284118, 30.500260182240176 ], [ 113.83598315284118, 30.515739201744644 ], [ 113.818016847158802, 30.515739201744644 ], [ 113.818016847158802, 30.500260182240176 ], [ 113.83598315284118, 30.500260182240176 ] ] ] } },
{ "type": "Feature", "properties": { "北京时间": "2026-05-12 17:00" }, "geometry": { "type": "Polygon", "coordinates": [ [ [ 113.652983152841202, 30.484258909140276 ], [ 113.652983152841202, 30.499740475035217 ], [ 113.635016847158809, 30.499740475035217 ], [ 113.635016847158809, 30.484258909140276 ], [ 113.652983152841202, 30.484258909140276 ] ] ] } },
{ "type": "Feature", "properties": { "北京时间": "2026-05-12 16:00" }, "geometry": { "type": "Polygon", "coordinates": [ [ [ 113.673983152841188, 30.427254378629115 ], [ 113.673983152841188, 30.442745006227224 ], [ 113.656016847158796, 30.442745006227224 ], [ 113.656016847158796, 30.427254378629115 ], [ 113.673983152841188, 30.427254378629115 ] ] ] } },
{ "type": "Feature", "properties": { "北京时间": "2026-05-11 06:00" }, "geometry": { "type": "Polygon", "coordinates": [ [ [ 113.70198315284118, 30.432254775735682 ], [ 113.70198315284118, 30.447744609060845 ], [ 113.684016847158787, 30.447744609060845 ], [ 113.684016847158787, 30.432254775735682 ], [ 113.70198315284118, 30.432254775735682 ] ] ] } },
{ "type": "Feature", "properties": { "北京时间": "2026-05-11 05:00" }, "geometry": { "type": "Polygon", "coordinates": [ [ [ 113.737983152841181, 30.607268711607507 ], [ 113.737983152841181, 30.622730671107099 ], [ 113.720016847158789, 30.622730671107099 ], [ 113.720016847158789, 30.607268711607507 ], [ 113.737983152841181, 30.607268711607507 ] ] ] } },
{ "type": "Feature", "properties": { "北京时间": "2026-05-11 04:00" }, "geometry": { "type": "Polygon", "coordinates": [ [ [ 113.788983152841197, 30.779282478868211 ], [ 113.788983152841197, 30.794716901822593 ], [ 113.771016847158805, 30.794716901822593 ], [ 113.771016847158805, 30.779282478868211 ], [ 113.788983152841197, 30.779282478868211 ] ] ] } },
{ "type": "Feature", "properties": { "北京时间": "2026-05-11 03:00" }, "geometry": { "type": "Polygon", "coordinates": [ [ [ 113.867983152841177, 30.935295025609236 ], [ 113.867983152841177, 30.950704353265326 ], [ 113.850016847158784, 30.950704353265326 ], [ 113.850016847158784, 30.935295025609236 ], [ 113.867983152841177, 30.935295025609236 ] ] ] } },
{ "type": "Feature", "properties": { "北京时间": "2026-05-11 02:00" }, "geometry": { "type": "Polygon", "coordinates": [ [ [ 113.960983152841195, 31.07230609133719 ], [ 113.960983152841195, 31.087693285957538 ], [ 113.943016847158802, 31.087693285957538 ], [ 113.943016847158802, 31.07230609133719 ], [ 113.960983152841195, 31.07230609133719 ] ] ] } },
{ "type": "Feature", "properties": { "北京时间": "2026-05-11 01:00" }, "geometry": { "type": "Polygon", "coordinates": [ [ [ 114.080983152841185, 31.216317769889578 ], [ 114.080983152841185, 31.231681605759931 ], [ 114.063016847158792, 31.231681605759931 ], [ 114.063016847158792, 31.216317769889578 ], [ 114.080983152841185, 31.216317769889578 ] ] ] } },
{ "type": "Feature", "properties": { "北京时间": "2026-05-11 00:00" }, "geometry": { "type": "Polygon", "coordinates": [ [ [ 114.253983152841187, 31.405333171627564 ], [ 114.253983152841187, 31.420666201886533 ], [ 114.236016847158794, 31.420666201886533 ], [ 114.236016847158794, 31.405333171627564 ], [ 114.253983152841187, 31.405333171627564 ] ] ] } }
]
}
