{
"type": "FeatureCollection",
"name": "天仙南路",
"crs": { "type": "name", "properties": { "name": "urn:ogc:def:crs:OGC:1.3:CRS84" } },
"features": [
{ "type": "Feature", "properties": { "北京时间": "2026-05-12 01:00" }, "geometry": { "type": "Polygon", "coordinates": [ [ [ 113.95498315284118, 30.892291561505822 ], [ 113.95498315284118, 30.907707817867532 ], [ 113.937016847158787, 30.907707817867532 ], [ 113.937016847158787, 30.892291561505822 ], [ 113.95498315284118, 30.892291561505822 ] ] ] } },
{ "type": "Feature", "properties": { "北京时间": "2026-05-12 00:00" }, "geometry": { "type": "Polygon", "coordinates": [ [ [ 113.919983152841183, 30.765281355675139 ], [ 113.919983152841183, 30.780718025179539 ], [ 113.902016847158805, 30.780718025179539 ], [ 113.902016847158805, 30.765281355675139 ], [ 113.919983152841183, 30.765281355675139 ] ] ] } },
{ "type": "Feature", "properties": { "北京时间": "2026-05-12 00:00" }, "geometry": { "type": "Polygon", "coordinates": [ [ [ 113.858983152841176, 30.733278790107541 ], [ 113.858983152841176, 30.748720591122314 ], [ 113.841016847158784, 30.748720591122314 ], [ 113.841016847158784, 30.733278790107541 ], [ 113.858983152841176, 30.733278790107541 ] ] ] } },
{ "type": "Feature", "properties": { "北京时间": "2026-05-12 00:00" }, "geometry": { "type": "Polygon", "coordinates": [ [ [ 113.874983152841182, 30.734278870245074 ], [ 113.874983152841182, 30.749720510973052 ], [ 113.857016847158803, 30.749720510973052 ], [ 113.857016847158803, 30.734278870245074 ], [ 113.874983152841182, 30.734278870245074 ] ] ] } },
{ "type": "Feature", "properties": { "北京时间": "2026-05-12 00:00" }, "geometry": { "type": "Polygon", "coordinates": [ [ [ 113.928983152841184, 30.800284164521834 ], [ 113.928983152841184, 30.815715215923397 ], [ 113.911016847158805, 30.815715215923397 ], [ 113.911016847158805, 30.800284164521834 ], [ 113.928983152841184, 30.800284164521834 ] ] ] } },
{ "type": "Feature", "properties": { "北京时间": "2026-05-12 00:00" }, "geometry": { "type": "Polygon", "coordinates": [ [ [ 113.947983152841175, 30.804284485716256 ], [ 113.947983152841175, 30.819714894682253 ], [ 113.930016847158797, 30.819714894682253 ], [ 113.930016847158797, 30.804284485716256 ], [ 113.947983152841175, 30.804284485716256 ] ] ] } },
{ "type": "Feature", "properties": { "北京时间": "2026-05-12 00:00" }, "geometry": { "type": "Polygon", "coordinates": [ [ [ 113.876983152841191, 30.797283923650699 ], [ 113.876983152841191, 30.812715456829597 ], [ 113.859016847158799, 30.812715456829597 ], [ 113.859016847158799, 30.797283923650699 ], [ 113.876983152841191, 30.797283923650699 ] ] ] } },
{ "type": "Feature", "properties": { "北京时间": "2026-05-12 00:00" }, "geometry": { "type": "Polygon", "coordinates": [ [ [ 113.920983152841188, 30.756280633865838 ], [ 113.920983152841188, 30.771718747094287 ], [ 113.90301684715881, 30.771718747094287 ], [ 113.90301684715881, 30.756280633865838 ], [ 113.920983152841188, 30.756280633865838 ] ] ] } },
{ "type": "Feature", "properties": { "北京时间": "2026-05-12 00:00" }, "geometry": { "type": "Polygon", "coordinates": [ [ [ 113.958983152841199, 30.813285208541203 ], [ 113.958983152841199, 30.828714171752175 ], [ 113.941016847158807, 30.828714171752175 ], [ 113.941016847158807, 30.813285208541203 ], [ 113.958983152841199, 30.813285208541203 ] ] ] } },
{ "type": "Feature", "properties": { "北京时间": "2026-05-12 00:00" }, "geometry": { "type": "Polygon", "coordinates": [ [ [ 113.874983152841182, 30.816285449525161 ], [ 113.874983152841182, 30.831713930733198 ], [ 113.857016847158803, 30.831713930733198 ], [ 113.857016847158803, 30.816285449525161 ], [ 113.874983152841182, 30.816285449525161 ] ] ] } },
{ "type": "Feature", "properties": { "北京时间": "2026-05-12 00:00" }, "geometry": { "type": "Polygon", "coordinates": [ [ [ 113.870983152841177, 30.753280393305072 ], [ 113.870983152841177, 30.768718987690221 ], [ 113.853016847158784, 30.768718987690221 ], [ 113.853016847158784, 30.753280393305072 ], [ 113.870983152841177, 30.753280393305072 ] ] ] } },
{ "type": "Feature", "properties": { "北京时间": "2026-05-12 00:00" }, "geometry": { "type": "Polygon", "coordinates": [ [ [ 113.920983152841188, 30.825286172603953 ], [ 113.920983152841188, 30.840713207549385 ], [ 113.90301684715881, 30.840713207549385 ], [ 113.90301684715881, 30.825286172603953 ], [ 113.920983152841188, 30.825286172603953 ] ] ] } },
{ "type": "Feature", "properties": { "北京时间": "2026-05-12 00:00" }, "geometry": { "type": "Polygon", "coordinates": [ [ [ 113.879983152841191, 30.762281115050879 ], [ 113.879983152841191, 30.777718265838956 ], [ 113.862016847158799, 30.777718265838956 ], [ 113.862016847158799, 30.762281115050879 ], [ 113.879983152841191, 30.762281115050879 ] ] ] } },
{ "type": "Feature", "properties": { "北京时间": "2026-05-12 00:00" }, "geometry": { "type": "Polygon", "coordinates": [ [ [ 113.920983152841188, 30.764281275464707 ], [ 113.920983152841188, 30.779718105401699 ], [ 113.90301684715881, 30.779718105401699 ], [ 113.90301684715881, 30.764281275464707 ], [ 113.920983152841188, 30.764281275464707 ] ] ] } },
{ "type": "Feature", "properties": { "北京时间": "2026-05-12 00:00" }, "geometry": { "type": "Polygon", "coordinates": [ [ [ 113.901983152841197, 30.852288342982362 ], [ 113.901983152841197, 30.867711036856246 ], [ 113.88401684715879, 30.867711036856246 ], [ 113.88401684715879, 30.852288342982362 ], [ 113.901983152841197, 30.852288342982362 ] ] ] } },
{ "type": "Feature", "properties": { "北京时间": "2026-05-12 00:00" }, "geometry": { "type": "Polygon", "coordinates": [ [ [ 113.904983152841183, 30.768281596320573 ], [ 113.904983152841183, 30.783717784498979 ], [ 113.88701684715879, 30.783717784498979 ], [ 113.88701684715879, 30.768281596320573 ], [ 113.904983152841183, 30.768281596320573 ] ] ] } },
{ "type": "Feature", "properties": { "北京时间": "2026-05-12 00:00" }, "geometry": { "type": "Polygon", "coordinates": [ [ [ 113.878983152841187, 30.852288342982362 ], [ 113.878983152841187, 30.867711036856246 ], [ 113.861016847158794, 30.867711036856246 ], [ 113.861016847158794, 30.852288342982362 ], [ 113.878983152841187, 30.852288342982362 ] ] ] } },
{ "type": "Feature", "properties": { "北京时间": "2026-05-12 00:00" }, "geometry": { "type": "Polygon", "coordinates": [ [ [ 113.914983152841202, 30.787283120899716 ], [ 113.914983152841202, 30.802716259697487 ], [ 113.89701684715881, 30.802716259697487 ], [ 113.89701684715881, 30.787283120899716 ], [ 113.914983152841202, 30.787283120899716 ] ] ] } },
{ "type": "Feature", "properties": { "北京时间": "2026-05-12 00:00" }, "geometry": { "type": "Polygon", "coordinates": [ [ [ 113.912983152841193, 30.894291722530635 ], [ 113.912983152841193, 30.909707656819482 ], [ 113.8950168471588, 30.909707656819482 ], [ 113.8950168471588, 30.894291722530635 ], [ 113.912983152841193, 30.894291722530635 ] ] ] } },
{ "type": "Feature", "properties": { "北京时间": "2026-05-12 00:00" }, "geometry": { "type": "Polygon", "coordinates": [ [ [ 113.95398315284119, 30.799284084229107 ], [ 113.95398315284119, 30.814715296227821 ], [ 113.936016847158797, 30.814715296227821 ], [ 113.936016847158797, 30.799284084229107 ], [ 113.95398315284119, 30.799284084229107 ] ] ] } },
{ "type": "Feature", "properties": { "北京时间": "2026-05-12 00:00" }, "geometry": { "type": "Polygon", "coordinates": [ [ [ 113.94898315284118, 30.786283040637549 ], [ 113.94898315284118, 30.801716339971357 ], [ 113.931016847158787, 30.801716339971357 ], [ 113.931016847158787, 30.786283040637549 ], [ 113.94898315284118, 30.786283040637549 ] ] ] } },
{ "type": "Feature", "properties": { "北京时间": "2026-05-11 23:00" }, "geometry": { "type": "Polygon", "coordinates": [ [ [ 113.884983152841201, 30.766281435887937 ], [ 113.884983152841201, 30.781717944955048 ], [ 113.867016847158808, 30.781717944955048 ], [ 113.867016847158808, 30.766281435887937 ], [ 113.884983152841201, 30.766281435887937 ] ] ] } },
{ "type": "Feature", "properties": { "北京时间": "2026-05-11 23:00" }, "geometry": { "type": "Polygon", "coordinates": [ [ [ 113.901983152841197, 30.652272306781679 ], [ 113.901983152841197, 30.667727075401285 ], [ 113.88401684715879, 30.667727075401285 ], [ 113.88401684715879, 30.652272306781679 ], [ 113.901983152841197, 30.652272306781679 ] ] ] } },
{ "type": "Feature", "properties": { "北京时间": "2026-05-11 23:00" }, "geometry": { "type": "Polygon", "coordinates": [ [ [ 113.798983152841203, 30.752280313122846 ], [ 113.798983152841203, 30.767719067884151 ], [ 113.78101684715881, 30.767719067884151 ], [ 113.78101684715881, 30.752280313122846 ], [ 113.798983152841203, 30.752280313122846 ] ] ] } },
{ "type": "Feature", "properties": { "北京时间": "2026-05-11 23:00" }, "geometry": { "type": "Polygon", "coordinates": [ [ [ 113.83798315284119, 30.806284646327558 ], [ 113.83798315284119, 30.821714734047561 ], [ 113.820016847158797, 30.821714734047561 ], [ 113.820016847158797, 30.806284646327558 ], [ 113.83798315284119, 30.806284646327558 ] ] ] } },
{ "type": "Feature", "properties": { "北京时间": "2026-05-11 23:00" }, "geometry": { "type": "Polygon", "coordinates": [ [ [ 113.803983152841198, 30.826286252957775 ], [ 113.803983152841198, 30.841713127183869 ], [ 113.786016847158791, 30.841713127183869 ], [ 113.786016847158791, 30.826286252957775 ], [ 113.803983152841198, 30.826286252957775 ] ] ] } },
{ "type": "Feature", "properties": { "北京时间": "2026-05-11 23:00" }, "geometry": { "type": "Polygon", "coordinates": [ [ [ 113.794983152841198, 30.711277027677042 ], [ 113.794983152841198, 30.726722353811201 ], [ 113.777016847158791, 30.726722353811201 ], [ 113.777016847158791, 30.711277027677042 ], [ 113.794983152841198, 30.711277027677042 ] ] ] } },
{ "type": "Feature", "properties": { "北京时间": "2026-05-11 23:00" }, "geometry": { "type": "Polygon", "coordinates": [ [ [ 113.890983152841201, 30.707276707357462 ], [ 113.890983152841201, 30.722722674177778 ], [ 113.873016847158794, 30.722722674177778 ], [ 113.873016847158794, 30.707276707357462 ], [ 113.890983152841201, 30.707276707357462 ] ] ] } },
{ "type": "Feature", "properties": { "北京时间": "2026-05-11 23:00" }, "geometry": { "type": "Polygon", "coordinates": [ [ [ 113.887983152841187, 30.90729276942092 ], [ 113.887983152841187, 30.922706609778277 ], [ 113.870016847158794, 30.922706609778277 ], [ 113.870016847158794, 30.90729276942092 ], [ 113.887983152841187, 30.90729276942092 ] ] ] } },
{ "type": "Feature", "properties": { "北京时间": "2026-05-11 23:00" }, "geometry": { "type": "Polygon", "coordinates": [ [ [ 113.874983152841182, 30.622269909469047 ], [ 113.874983152841182, 30.637729473068163 ], [ 113.857016847158803, 30.637729473068163 ], [ 113.857016847158803, 30.622269909469047 ], [ 113.874983152841182, 30.622269909469047 ] ] ] } },
{ "type": "Feature", "properties": { "北京时间": "2026-05-11 23:00" }, "geometry": { "type": "Polygon", "coordinates": [ [ [ 113.764983152841211, 30.578266397244647 ], [ 113.764983152841211, 30.593732985813368 ], [ 113.747016847158804, 30.593732985813368 ], [ 113.747016847158804, 30.578266397244647 ], [ 113.764983152841211, 30.578266397244647 ] ] ] } },
{ "type": "Feature", "properties": { "北京时间": "2026-05-11 23:00" }, "geometry": { "type": "Polygon", "coordinates": [ [ [ 113.868983152841196, 30.681274626197975 ], [ 113.868983152841196, 30.696724755643196 ], [ 113.851016847158803, 30.696724755643196 ], [ 113.851016847158803, 30.681274626197975 ], [ 113.868983152841196, 30.681274626197975 ] ] ] } },
{ "type": "Feature", "properties": { "北京时间": "2026-05-11 23:00" }, "geometry": { "type": "Polygon", "coordinates": [ [ [ 113.799983152841179, 30.630270548545205 ], [ 113.799983152841179, 30.645728833897486 ], [ 113.782016847158786, 30.645728833897486 ], [ 113.782016847158786, 30.630270548545205 ], [ 113.799983152841179, 30.630270548545205 ] ] ] } },
{ "type": "Feature", "properties": { "北京时间": "2026-05-11 23:00" }, "geometry": { "type": "Polygon", "coordinates": [ [ [ 113.848983152841186, 30.643271587365376 ], [ 113.848983152841186, 30.658727794923784 ], [ 113.831016847158793, 30.658727794923784 ], [ 113.831016847158793, 30.643271587365376 ], [ 113.848983152841186, 30.643271587365376 ] ] ] } },
{ "type": "Feature", "properties": { "北京时间": "2026-05-11 23:00" }, "geometry": { "type": "Polygon", "coordinates": [ [ [ 113.943983152841184, 30.678274386166564 ], [ 113.943983152841184, 30.693724995709943 ], [ 113.926016847158792, 30.693724995709943 ], [ 113.926016847158792, 30.678274386166564 ], [ 113.943983152841184, 30.678274386166564 ] ] ] } },
{ "type": "Feature", "properties": { "北京时间": "2026-05-11 23:00" }, "geometry": { "type": "Polygon", "coordinates": [ [ [ 113.901983152841197, 30.631270628440308 ], [ 113.901983152841197, 30.646728753990548 ], [ 113.88401684715879, 30.646728753990548 ], [ 113.88401684715879, 30.631270628440308 ], [ 113.901983152841197, 30.631270628440308 ] ] ] } },
{ "type": "Feature", "properties": { "北京时间": "2026-05-11 23:00" }, "geometry": { "type": "Polygon", "coordinates": [ [ [ 113.789983152841188, 30.611269030985437 ], [ 113.789983152841188, 30.62673035168185 ], [ 113.772016847158795, 30.62673035168185 ], [ 113.772016847158795, 30.611269030985437 ], [ 113.789983152841188, 30.611269030985437 ] ] ] } },
{ "type": "Feature", "properties": { "北京时间": "2026-05-11 23:00" }, "geometry": { "type": "Polygon", "coordinates": [ [ [ 113.784983152841178, 30.575266157940884 ], [ 113.784983152841178, 30.59073322515269 ], [ 113.7670168471588, 30.59073322515269 ], [ 113.7670168471588, 30.575266157940884 ], [ 113.784983152841178, 30.575266157940884 ] ] ] } },
{ "type": "Feature", "properties": { "北京时间": "2026-05-11 22:00" }, "geometry": { "type": "Polygon", "coordinates": [ [ [ 113.733983152841191, 30.808284806948279 ], [ 113.733983152841191, 30.823714573403496 ], [ 113.716016847158798, 30.823714573403496 ], [ 113.716016847158798, 30.808284806948279 ], [ 113.733983152841191, 30.808284806948279 ] ] ] } },
{ "type": "Feature", "properties": { "北京时间": "2026-05-11 22:00" }, "geometry": { "type": "Polygon", "coordinates": [ [ [ 113.909983152841178, 30.616269430260836 ], [ 113.909983152841178, 30.631729952347314 ], [ 113.892016847158786, 30.631729952347314 ], [ 113.892016847158786, 30.616269430260836 ], [ 113.909983152841178, 30.616269430260836 ] ] ] } },
{ "type": "Feature", "properties": { "北京时间": "2026-05-11 22:00" }, "geometry": { "type": "Polygon", "coordinates": [ [ [ 113.717983152841185, 30.501260261828968 ], [ 113.717983152841185, 30.516739122143953 ], [ 113.700016847158807, 30.516739122143953 ], [ 113.700016847158807, 30.501260261828968 ], [ 113.717983152841185, 30.501260261828968 ] ] ] } },
{ "type": "Feature", "properties": { "北京时间": "2026-05-11 22:00" }, "geometry": { "type": "Polygon", "coordinates": [ [ [ 113.682983152841189, 30.428254458045721 ], [ 113.682983152841189, 30.443744926798676 ], [ 113.665016847158796, 30.443744926798676 ], [ 113.665016847158796, 30.428254458045721 ], [ 113.682983152841189, 30.428254458045721 ] ] ] } },
{ "type": "Feature", "properties": { "北京时间": "2026-05-11 22:00" }, "geometry": { "type": "Polygon", "coordinates": [ [ [ 113.763983152841178, 30.757280714057472 ], [ 113.763983152841178, 30.772718666890942 ], [ 113.746016847158785, 30.772718666890942 ], [ 113.746016847158785, 30.757280714057472 ], [ 113.763983152841178, 30.757280714057472 ] ] ] } },
{ "type": "Feature", "properties": { "北京时间": "2026-05-11 22:00" }, "geometry": { "type": "Polygon", "coordinates": [ [ [ 113.900983152841178, 30.598267993144951 ], [ 113.900983152841178, 30.61373138967615 ], [ 113.883016847158785, 30.61373138967615 ], [ 113.883016847158785, 30.598267993144951 ], [ 113.900983152841178, 30.598267993144951 ] ] ] } },
{ "type": "Feature", "properties": { "北京时间": "2026-05-11 22:00" }, "geometry": { "type": "Polygon", "coordinates": [ [ [ 113.786983152841202, 30.521261854099851 ], [ 113.786983152841202, 30.536737529634998 ], [ 113.769016847158809, 30.536737529634998 ], [ 113.769016847158809, 30.521261854099851 ], [ 113.786983152841202, 30.521261854099851 ] ] ] } },
{ "type": "Feature", "properties": { "北京时间": "2026-05-11 22:00" }, "geometry": { "type": "Polygon", "coordinates": [ [ [ 113.83798315284119, 30.71827758832687 ], [ 113.83798315284119, 30.733721793079116 ], [ 113.820016847158797, 30.733721793079116 ], [ 113.820016847158797, 30.71827758832687 ], [ 113.83798315284119, 30.71827758832687 ] ] ] } },
{ "type": "Feature", "properties": { "北京时间": "2026-05-11 22:00" }, "geometry": { "type": "Polygon", "coordinates": [ [ [ 113.890983152841201, 30.937295186835961 ], [ 113.890983152841201, 30.952704192015425 ], [ 113.873016847158794, 30.952704192015425 ], [ 113.873016847158794, 30.937295186835961 ], [ 113.890983152841201, 30.937295186835961 ] ] ] } },
{ "type": "Feature", "properties": { "北京时间": "2026-05-11 22:00" }, "geometry": { "type": "Polygon", "coordinates": [ [ [ 113.819983152841189, 30.574266078177676 ], [ 113.819983152841189, 30.589733304927758 ], [ 113.802016847158797, 30.589733304927758 ], [ 113.802016847158797, 30.574266078177676 ], [ 113.819983152841189, 30.574266078177676 ] ] ] } },
{ "type": "Feature", "properties": { "北京时间": "2026-05-11 22:00" }, "geometry": { "type": "Polygon", "coordinates": [ [ [ 113.94598315284118, 30.575266157940884 ], [ 113.94598315284118, 30.59073322515269 ], [ 113.928016847158787, 30.59073322515269 ], [ 113.928016847158787, 30.575266157940884 ], [ 113.94598315284118, 30.575266157940884 ] ] ] } },
{ "type": "Feature", "properties": { "北京时间": "2026-05-11 22:00" }, "geometry": { "type": "Polygon", "coordinates": [ [ [ 113.710983152841195, 30.632270708337792 ], [ 113.710983152841195, 30.647728674081272 ], [ 113.693016847158802, 30.647728674081272 ], [ 113.693016847158802, 30.632270708337792 ], [ 113.710983152841195, 30.632270708337792 ] ] ] } },
{ "type": "Feature", "properties": { "北京时间": "2026-05-11 22:00" }, "geometry": { "type": "Polygon", "coordinates": [ [ [ 113.811983152841179, 30.473258034234302 ], [ 113.811983152841179, 30.488741350072402 ], [ 113.794016847158787, 30.488741350072402 ], [ 113.794016847158787, 30.473258034234302 ], [ 113.811983152841179, 30.473258034234302 ] ] ] } },
{ "type": "Feature", "properties": { "北京时间": "2026-05-11 22:00" }, "geometry": { "type": "Polygon", "coordinates": [ [ [ 113.7299831528412, 30.696275826672771 ], [ 113.7299831528412, 30.711723554991849 ], [ 113.712016847158793, 30.711723554991849 ], [ 113.712016847158793, 30.696275826672771 ], [ 113.7299831528412, 30.696275826672771 ] ] ] } },
{ "type": "Feature", "properties": { "北京时间": "2026-05-11 22:00" }, "geometry": { "type": "Polygon", "coordinates": [ [ [ 113.713983152841195, 30.466257477624556 ], [ 113.713983152841195, 30.481741906765695 ], [ 113.696016847158802, 30.481741906765695 ], [ 113.696016847158802, 30.466257477624556 ], [ 113.713983152841195, 30.466257477624556 ] ] ] } },
{ "type": "Feature", "properties": { "北京时间": "2026-05-11 22:00" }, "geometry": { "type": "Polygon", "coordinates": [ [ [ 113.885983152841192, 30.523262013378808 ], [ 113.885983152841192, 30.53873737033225 ], [ 113.868016847158799, 30.53873737033225 ], [ 113.868016847158799, 30.523262013378808 ], [ 113.885983152841192, 30.523262013378808 ] ] ] } },
{ "type": "Feature", "properties": { "北京时间": "2026-05-11 22:00" }, "geometry": { "type": "Polygon", "coordinates": [ [ [ 113.685983152841189, 30.413253267044617 ], [ 113.685983152841189, 30.428746117979344 ], [ 113.668016847158796, 30.428746117979344 ], [ 113.668016847158796, 30.413253267044617 ], [ 113.685983152841189, 30.413253267044617 ] ] ] } },
{ "type": "Feature", "properties": { "北京时间": "2026-05-11 22:00" }, "geometry": { "type": "Polygon", "coordinates": [ [ [ 113.844983152841181, 30.613269190688531 ], [ 113.844983152841181, 30.628730191955096 ], [ 113.827016847158788, 30.628730191955096 ], [ 113.827016847158788, 30.613269190688531 ], [ 113.844983152841181, 30.613269190688531 ] ] ] } },
{ "type": "Feature", "properties": { "北京时间": "2026-05-11 22:00" }, "geometry": { "type": "Polygon", "coordinates": [ [ [ 113.914983152841202, 30.600268152786814 ], [ 113.914983152841202, 30.615731230010628 ], [ 113.89701684715881, 30.615731230010628 ], [ 113.89701684715881, 30.600268152786814 ], [ 113.914983152841202, 30.600268152786814 ] ] ] } },
{ "type": "Feature", "properties": { "北京时间": "2026-05-11 21:00" }, "geometry": { "type": "Polygon", "coordinates": [ [ [ 113.670983152841202, 30.646271827149615 ], [ 113.670983152841202, 30.661727555104139 ], [ 113.653016847158796, 30.661727555104139 ], [ 113.653016847158796, 30.646271827149615 ], [ 113.670983152841202, 30.646271827149615 ] ] ] } },
{ "type": "Feature", "properties": { "北京时间": "2026-05-11 21:00" }, "geometry": { "type": "Polygon", "coordinates": [ [ [ 113.672983152841184, 30.790283361700322 ], [ 113.672983152841184, 30.805716018861794 ], [ 113.655016847158805, 30.805716018861794 ], [ 113.655016847158805, 30.790283361700322 ], [ 113.672983152841184, 30.790283361700322 ] ] ] } },
{ "type": "Feature", "properties": { "北京时间": "2026-05-11 21:00" }, "geometry": { "type": "Polygon", "coordinates": [ [ [ 113.768983152841201, 30.464257318614425 ], [ 113.768983152841201, 30.479742065799709 ], [ 113.751016847158809, 30.479742065799709 ], [ 113.751016847158809, 30.464257318614425 ], [ 113.768983152841201, 30.464257318614425 ] ] ] } },
{ "type": "Feature", "properties": { "北京时间": "2026-05-11 21:00" }, "geometry": { "type": "Polygon", "coordinates": [ [ [ 113.786983152841202, 30.518261615199098 ], [ 113.786983152841202, 30.533737768571442 ], [ 113.769016847158809, 30.533737768571442 ], [ 113.769016847158809, 30.518261615199098 ], [ 113.786983152841202, 30.518261615199098 ] ] ] } },
{ "type": "Feature", "properties": { "北京时间": "2026-05-11 21:00" }, "geometry": { "type": "Polygon", "coordinates": [ [ [ 113.925983152841198, 30.986299139823448 ], [ 113.925983152841198, 31.001700238461336 ], [ 113.908016847158805, 31.001700238461336 ], [ 113.908016847158805, 30.986299139823448 ], [ 113.925983152841198, 30.986299139823448 ] ] ] } },
{ "type": "Feature", "properties": { "北京时间": "2026-05-11 21:00" }, "geometry": { "type": "Polygon", "coordinates": [ [ [ 113.685983152841189, 30.711277027677042 ], [ 113.685983152841189, 30.726722353811201 ], [ 113.668016847158796, 30.726722353811201 ], [ 113.668016847158796, 30.711277027677042 ], [ 113.685983152841189, 30.711277027677042 ] ] ] } },
{ "type": "Feature", "properties": { "北京时间": "2026-05-11 21:00" }, "geometry": { "type": "Polygon", "coordinates": [ [ [ 113.628983152841187, 30.562265121202948 ], [ 113.628983152841187, 30.577734262044803 ], [ 113.611016847158794, 30.577734262044803 ], [ 113.611016847158794, 30.562265121202948 ], [ 113.628983152841187, 30.562265121202948 ] ] ] } },
{ "type": "Feature", "properties": { "北京时间": "2026-05-11 21:00" }, "geometry": { "type": "Polygon", "coordinates": [ [ [ 113.717983152841185, 30.399252155922671 ], [ 113.717983152841185, 30.414747229269025 ], [ 113.700016847158807, 30.414747229269025 ], [ 113.700016847158807, 30.399252155922671 ], [ 113.717983152841185, 30.399252155922671 ] ] ] } },
{ "type": "Feature", "properties": { "北京时间": "2026-05-11 21:00" }, "geometry": { "type": "Polygon", "coordinates": [ [ [ 113.783983152841188, 30.680274546185142 ], [ 113.783983152841188, 30.695724835667786 ], [ 113.766016847158795, 30.695724835667786 ], [ 113.766016847158795, 30.680274546185142 ], [ 113.783983152841188, 30.680274546185142 ] ] ] } },
{ "type": "Feature", "properties": { "北京时间": "2026-05-11 20:00" }, "geometry": { "type": "Polygon", "coordinates": [ [ [ 113.611983152841191, 30.672273906167266 ], [ 113.611983152841191, 30.687725475779892 ], [ 113.594016847158784, 30.687725475779892 ], [ 113.594016847158784, 30.672273906167266 ], [ 113.611983152841191, 30.672273906167266 ] ] ] } },
{ "type": "Feature", "properties": { "北京时间": "2026-05-11 20:00" }, "geometry": { "type": "Polygon", "coordinates": [ [ [ 113.623983152841191, 30.76928167654042 ], [ 113.623983152841191, 30.784717704267432 ], [ 113.606016847158799, 30.784717704267432 ], [ 113.606016847158799, 30.76928167654042 ], [ 113.623983152841191, 30.76928167654042 ] ] ] } },
{ "type": "Feature", "properties": { "北京时间": "2026-05-11 20:00" }, "geometry": { "type": "Polygon", "coordinates": [ [ [ 113.619983152841186, 30.601268232611265 ], [ 113.619983152841186, 30.616731150174328 ], [ 113.602016847158794, 30.616731150174328 ], [ 113.602016847158794, 30.601268232611265 ], [ 113.619983152841186, 30.601268232611265 ] ] ] } },
{ "type": "Feature", "properties": { "北京时间": "2026-05-11 20:00" }, "geometry": { "type": "Polygon", "coordinates": [ [ [ 113.72198315284119, 30.645271747219191 ], [ 113.72198315284119, 30.660727635046381 ], [ 113.704016847158798, 30.660727635046381 ], [ 113.704016847158798, 30.645271747219191 ], [ 113.72198315284119, 30.645271747219191 ] ] ] } },
{ "type": "Feature", "properties": { "北京时间": "2026-05-11 20:00" }, "geometry": { "type": "Polygon", "coordinates": [ [ [ 113.719983152841195, 30.426254299214886 ], [ 113.719983152841195, 30.441745085653427 ], [ 113.702016847158802, 30.441745085653427 ], [ 113.702016847158802, 30.426254299214886 ], [ 113.719983152841195, 30.426254299214886 ] ] ] } },
{ "type": "Feature", "properties": { "北京时间": "2026-05-11 20:00" }, "geometry": { "type": "Polygon", "coordinates": [ [ [ 113.550983152841198, 30.501260261828968 ], [ 113.550983152841198, 30.516739122143953 ], [ 113.533016847158805, 30.516739122143953 ], [ 113.533016847158805, 30.501260261828968 ], [ 113.550983152841198, 30.501260261828968 ] ] ] } },
{ "type": "Feature", "properties": { "北京时间": "2026-05-11 20:00" }, "geometry": { "type": "Polygon", "coordinates": [ [ [ 113.994983152841186, 31.056304796719203 ], [ 113.994983152841186, 31.071694580759281 ], [ 113.977016847158794, 31.071694580759281 ], [ 113.977016847158794, 31.056304796719203 ], [ 113.994983152841186, 31.056304796719203 ] ] ] } },
{ "type": "Feature", "properties": { "北京时间": "2026-05-11 19:00" }, "geometry": { "type": "Polygon", "coordinates": [ [ [ 113.5929831528412, 30.752280313122846 ], [ 113.5929831528412, 30.767719067884151 ], [ 113.575016847158807, 30.767719067884151 ], [ 113.575016847158807, 30.752280313122846 ], [ 113.5929831528412, 30.752280313122846 ] ] ] } },
{ "type": "Feature", "properties": { "北京时间": "2026-05-11 19:00" }, "geometry": { "type": "Polygon", "coordinates": [ [ [ 113.539983152841202, 30.633270788237617 ], [ 113.539983152841202, 30.648728594169633 ], [ 113.52201684715881, 30.648728594169633 ], [ 113.52201684715881, 30.633270788237617 ], [ 113.539983152841202, 30.633270788237617 ] ] ] } },
{ "type": "Feature", "properties": { "北京时间": "2026-05-11 19:00" }, "geometry": { "type": "Polygon", "coordinates": [ [ [ 113.566983152841203, 30.563265200937881 ], [ 113.566983152841203, 30.578734182298014 ], [ 113.549016847158825, 30.578734182298014 ], [ 113.549016847158825, 30.563265200937881 ], [ 113.566983152841203, 30.563265200937881 ] ] ] } },
{ "type": "Feature", "properties": { "北京时间": "2026-05-11 19:00" }, "geometry": { "type": "Polygon", "coordinates": [ [ [ 114.08798315284119, 31.146312086749226 ], [ 114.08798315284119, 31.161687289698069 ], [ 114.070016847158797, 31.161687289698069 ], [ 114.070016847158797, 31.146312086749226 ], [ 114.08798315284119, 31.146312086749226 ] ] ] } },
{ "type": "Feature", "properties": { "北京时间": "2026-05-11 19:00" }, "geometry": { "type": "Polygon", "coordinates": [ [ [ 113.475983152841181, 30.447255967409287 ], [ 113.475983152841181, 30.462743417207893 ], [ 113.458016847158802, 30.462743417207893 ], [ 113.458016847158802, 30.447255967409287 ], [ 113.475983152841181, 30.447255967409287 ] ] ] } },
{ "type": "Feature", "properties": { "北京时间": "2026-05-11 19:00" }, "geometry": { "type": "Polygon", "coordinates": [ [ [ 113.650983152841178, 30.610268951137417 ], [ 113.650983152841178, 30.62573043154168 ], [ 113.633016847158785, 30.62573043154168 ], [ 113.633016847158785, 30.610268951137417 ], [ 113.650983152841178, 30.610268951137417 ] ] ] } },
{ "type": "Feature", "properties": { "北京时间": "2026-05-11 18:00" }, "geometry": { "type": "Polygon", "coordinates": [ [ [ 113.58298315284118, 30.753280393305072 ], [ 113.58298315284118, 30.768718987690221 ], [ 113.565016847158802, 30.768718987690221 ], [ 113.565016847158802, 30.753280393305072 ], [ 113.58298315284118, 30.753280393305072 ] ] ] } },
{ "type": "Feature", "properties": { "北京时间": "2026-05-11 18:00" }, "geometry": { "type": "Polygon", "coordinates": [ [ [ 113.502983152841182, 30.535262969250557 ], [ 113.502983152841182, 30.550736414317829 ], [ 113.485016847158789, 30.550736414317829 ], [ 113.485016847158789, 30.535262969250557 ], [ 113.502983152841182, 30.535262969250557 ] ] ] } },
{ "type": "Feature", "properties": { "北京时间": "2026-05-11 18:00" }, "geometry": { "type": "Polygon", "coordinates": [ [ [ 114.199983152841185, 31.26232151076945 ], [ 114.199983152841185, 31.277677864357816 ], [ 114.182016847158792, 31.277677864357816 ], [ 114.182016847158792, 31.26232151076945 ], [ 114.199983152841185, 31.26232151076945 ] ] ] } },
{ "type": "Feature", "properties": { "北京时间": "2026-05-11 18:00" }, "geometry": { "type": "Polygon", "coordinates": [ [ [ 113.574983152841185, 30.577266317474372 ], [ 113.574983152841185, 30.592733065595489 ], [ 113.557016847158806, 30.592733065595489 ], [ 113.557016847158806, 30.577266317474372 ], [ 113.574983152841185, 30.577266317474372 ] ] ] } },
{ "type": "Feature", "properties": { "北京时间": "2026-05-11 18:00" }, "geometry": { "type": "Polygon", "coordinates": [ [ [ 113.474983152841205, 30.591267434472666 ], [ 113.474983152841205, 30.606731948431342 ], [ 113.457016847158798, 30.606731948431342 ], [ 113.457016847158798, 30.591267434472666 ], [ 113.474983152841205, 30.591267434472666 ] ] ] } },
{ "type": "Feature", "properties": { "北京时间": "2026-05-11 17:00" }, "geometry": { "type": "Polygon", "coordinates": [ [ [ 113.499983152841196, 30.544263686377118 ], [ 113.499983152841196, 30.559735697084328 ], [ 113.482016847158803, 30.559735697084328 ], [ 113.482016847158803, 30.544263686377118 ], [ 113.499983152841196, 30.544263686377118 ] ] ] } },
{ "type": "Feature", "properties": { "北京时间": "2026-05-11 17:00" }, "geometry": { "type": "Polygon", "coordinates": [ [ [ 114.311983152841179, 31.398332599703924 ], [ 114.311983152841179, 31.413666773888778 ], [ 114.294016847158787, 31.413666773888778 ], [ 114.294016847158787, 31.398332599703924 ], [ 114.311983152841179, 31.398332599703924 ] ] ] } },
{ "type": "Feature", "properties": { "北京时间": "2026-05-11 17:00" }, "geometry": { "type": "Polygon", "coordinates": [ [ [ 113.594983152841195, 30.774282077674926 ], [ 113.594983152841195, 30.789717303074394 ], [ 113.577016847158802, 30.789717303074394 ], [ 113.577016847158802, 30.774282077674926 ], [ 113.594983152841195, 30.774282077674926 ] ] ] } },
{ "type": "Feature", "properties": { "北京时间": "2026-05-11 16:00" }, "geometry": { "type": "Polygon", "coordinates": [ [ [ 114.415983152841193, 31.547344798204982 ], [ 114.415983152841193, 31.562654573722696 ], [ 114.398016847158786, 31.562654573722696 ], [ 114.398016847158786, 31.547344798204982 ], [ 114.415983152841193, 31.547344798204982 ] ] ] } },
{ "type": "Feature", "properties": { "北京时间": "2026-05-11 16:00" }, "geometry": { "type": "Polygon", "coordinates": [ [ [ 113.631983152841201, 30.817285529857848 ], [ 113.631983152841201, 30.832713850388842 ], [ 113.614016847158794, 30.832713850388842 ], [ 113.614016847158794, 30.817285529857848 ], [ 113.631983152841201, 30.817285529857848 ] ] ] } },
{ "type": "Feature", "properties": { "北京时间": "2026-05-11 15:00" }, "geometry": { "type": "Polygon", "coordinates": [ [ [ 113.700983152841175, 30.891291480996934 ], [ 113.700983152841175, 30.906707898388042 ], [ 113.683016847158797, 30.906707898388042 ], [ 113.683016847158797, 30.891291480996934 ], [ 113.700983152841175, 30.891291480996934 ] ] ] } },
{ "type": "Feature", "properties": { "北京时间": "2026-05-11 15:00" }, "geometry": { "type": "Polygon", "coordinates": [ [ [ 114.503983152841187, 31.705357790089106 ], [ 114.503983152841187, 31.720641580091524 ], [ 114.486016847158794, 31.720641580091524 ], [ 114.486016847158794, 31.705357790089106 ], [ 114.503983152841187, 31.705357790089106 ] ] ] } },
{ "type": "Feature", "properties": { "北京时间": "2026-05-11 14:00" }, "geometry": { "type": "Polygon", "coordinates": [ [ [ 113.807983152841189, 30.999300189520817 ], [ 113.807983152841189, 31.014699188613932 ], [ 113.79001684715881, 31.014699188613932 ], [ 113.79001684715881, 30.999300189520817 ], [ 113.807983152841189, 30.999300189520817 ] ] ] } },
{ "type": "Feature", "properties": { "北京时间": "2026-05-11 13:00" }, "geometry": { "type": "Polygon", "coordinates": [ [ [ 113.919983152841183, 31.120309978791084 ], [ 113.919983152841183, 31.135689397953474 ], [ 113.902016847158805, 31.135689397953474 ], [ 113.902016847158805, 31.120309978791084 ], [ 113.919983152841183, 31.120309978791084 ] ] ] } },
{ "type": "Feature", "properties": { "北京时间": "2026-05-11 12:00" }, "geometry": { "type": "Polygon", "coordinates": [ [ [ 114.020983152841197, 31.265321754911842 ], [ 114.020983152841197, 31.280677620181425 ], [ 114.003016847158804, 31.280677620181425 ], [ 114.003016847158804, 31.265321754911842 ], [ 114.020983152841197, 31.265321754911842 ] ] ] } },
{ "type": "Feature", "properties": { "北京时间": "2026-05-11 11:00" }, "geometry": { "type": "Polygon", "coordinates": [ [ [ 114.1169831528412, 31.430335215146222 ], [ 114.1169831528412, 31.44566415808746 ], [ 114.099016847158808, 31.44566415808746 ], [ 114.099016847158808, 31.430335215146222 ], [ 114.1169831528412, 31.430335215146222 ] ] ] } },
{ "type": "Feature", "properties": { "北京时间": "2026-05-11 11:00" }, "geometry": { "type": "Polygon", "coordinates": [ [ [ 113.458983152841185, 30.673273986161266 ], [ 113.458983152841185, 30.688725395774124 ], [ 113.441016847158807, 30.688725395774124 ], [ 113.441016847158807, 30.673273986161266 ], [ 113.458983152841185, 30.673273986161266 ] ] ] } },
{ "type": "Feature", "properties": { "北京时间": "2026-05-11 10:00" }, "geometry": { "type": "Polygon", "coordinates": [ [ [ 113.580983152841185, 30.782282719612382 ], [ 113.580983152841185, 30.7977166610433 ], [ 113.563016847158792, 30.7977166610433 ], [ 113.563016847158792, 30.782282719612382 ], [ 113.580983152841185, 30.782282719612382 ] ] ] } },
{ "type": "Feature", "properties": { "北京时间": "2026-05-11 10:00" }, "geometry": { "type": "Polygon", "coordinates": [ [ [ 114.20198315284118, 31.599349067592239 ], [ 114.20198315284118, 31.614650303758335 ], [ 114.184016847158787, 31.614650303758335 ], [ 114.184016847158787, 31.599349067592239 ], [ 114.20198315284118, 31.599349067592239 ] ] ] } },
{ "type": "Feature", "properties": { "北京时间": "2026-05-11 09:00" }, "geometry": { "type": "Polygon", "coordinates": [ [ [ 113.705983152841213, 30.929294541985371 ], [ 113.705983152841213, 30.944704836958724 ], [ 113.688016847158806, 30.944704836958724 ], [ 113.688016847158806, 30.929294541985371 ], [ 113.705983152841213, 30.929294541985371 ] ] ] } },
{ "type": "Feature", "properties": { "北京时间": "2026-05-11 09:00" }, "geometry": { "type": "Polygon", "coordinates": [ [ [ 114.283983152841188, 31.762362491306089 ], [ 114.283983152841188, 31.777636878248966 ], [ 114.266016847158795, 31.777636878248966 ], [ 114.266016847158795, 31.762362491306089 ], [ 114.283983152841188, 31.762362491306089 ] ] ] } },
{ "type": "Feature", "properties": { "北京时间": "2026-05-11 08:00" }, "geometry": { "type": "Polygon", "coordinates": [ [ [ 113.813983152841189, 31.101308439361652 ], [ 113.813983152841189, 31.11669093760046 ], [ 113.79601684715881, 31.11669093760046 ], [ 113.79601684715881, 31.101308439361652 ], [ 113.813983152841189, 31.101308439361652 ] ] ] } },
{ "type": "Feature", "properties": { "北京时间": "2026-05-11 07:00" }, "geometry": { "type": "Polygon", "coordinates": [ [ [ 113.905983152841202, 31.283323220208278 ], [ 113.905983152841202, 31.298676154681129 ], [ 113.888016847158809, 31.298676154681129 ], [ 113.888016847158809, 31.283323220208278 ], [ 113.905983152841202, 31.283323220208278 ] ] ] } },
{ "type": "Feature", "properties": { "北京时间": "2026-05-11 05:00" }, "geometry": { "type": "Polygon", "coordinates": [ [ [ 113.4709831528412, 30.702276307010944 ], [ 113.4709831528412, 30.717723074583098 ], [ 113.453016847158807, 30.717723074583098 ], [ 113.453016847158807, 30.702276307010944 ], [ 113.4709831528412, 30.702276307010944 ] ] ] } },
{ "type": "Feature", "properties": { "北京时间": "2026-05-11 04:00" }, "geometry": { "type": "Polygon", "coordinates": [ [ [ 114.205983152841185, 31.826367778874683 ], [ 114.205983152841185, 31.841631589980963 ], [ 114.188016847158792, 31.841631589980963 ], [ 114.188016847158792, 31.826367778874683 ], [ 114.205983152841185, 31.826367778874683 ] ] ] } },
{ "type": "Feature", "properties": { "北京时间": "2026-05-11 04:00" }, "geometry": { "type": "Polygon", "coordinates": [ [ [ 113.575983152841189, 30.850288182154848 ], [ 113.575983152841189, 30.865711197707054 ], [ 113.558016847158797, 30.865711197707054 ], [ 113.558016847158797, 30.850288182154848 ], [ 113.575983152841189, 30.850288182154848 ] ] ] } },
{ "type": "Feature", "properties": { "北京时间": "2026-05-11 03:00" }, "geometry": { "type": "Polygon", "coordinates": [ [ [ 113.652983152841202, 31.030302694245059 ], [ 113.652983152841202, 31.04569668353248 ], [ 113.635016847158809, 31.04569668353248 ], [ 113.635016847158809, 31.030302694245059 ], [ 113.652983152841202, 31.030302694245059 ] ] ] } },
{ "type": "Feature", "properties": { "北京时间": "2026-05-11 02:00" }, "geometry": { "type": "Polygon", "coordinates": [ [ [ 113.70998315284119, 31.223318338834503 ], [ 113.70998315284119, 31.238681036735436 ], [ 113.692016847158783, 31.238681036735436 ], [ 113.692016847158783, 31.223318338834503 ], [ 113.70998315284119, 31.223318338834503 ] ] ] } },
{ "type": "Feature", "properties": { "北京时间": "2026-05-11 01:00" }, "geometry": { "type": "Polygon", "coordinates": [ [ [ 113.758983152841196, 31.414333907126128 ], [ 113.758983152841196, 31.42966546628697 ], [ 113.741016847158804, 31.42966546628697 ], [ 113.741016847158804, 31.414333907126128 ], [ 113.758983152841196, 31.414333907126128 ] ] ] } },
{ "type": "Feature", "properties": { "北京时间": "2026-05-10 06:00" }, "geometry": { "type": "Polygon", "coordinates": [ [ [ 113.425983152841184, 31.33632753909205 ], [ 113.425983152841184, 31.351671835198495 ], [ 113.408016847158791, 31.351671835198495 ], [ 113.408016847158791, 31.33632753909205 ], [ 113.425983152841184, 31.33632753909205 ] ] ] } }
]
}
