{
"type": "FeatureCollection",
"name": "天仙南路",
"crs": { "type": "name", "properties": { "name": "urn:ogc:def:crs:OGC:1.3:CRS84" } },
"features": [
{ "type": "Feature", "properties": { "北京时间": "2026-05-16 06:00" }, "geometry": { "type": "Polygon", "coordinates": [ [ [ 113.95498315284118, 30.892291561505822 ], [ 113.95498315284118, 30.907707817867532 ], [ 113.937016847158787, 30.907707817867532 ], [ 113.937016847158787, 30.892291561505822 ], [ 113.95498315284118, 30.892291561505822 ] ] ] } },
{ "type": "Feature", "properties": { "北京时间": "2026-05-16 05:00" }, "geometry": { "type": "Polygon", "coordinates": [ [ [ 114.068983152841199, 30.934294944999376 ], [ 114.068983152841199, 30.949704433886755 ], [ 114.051016847158806, 30.949704433886755 ], [ 114.051016847158806, 30.934294944999376 ], [ 114.068983152841199, 30.934294944999376 ] ] ] } },
{ "type": "Feature", "properties": { "北京时间": "2026-05-16 05:00" }, "geometry": { "type": "Polygon", "coordinates": [ [ [ 113.991983152841186, 30.797283923650699 ], [ 113.991983152841186, 30.812715456829597 ], [ 113.974016847158794, 30.812715456829597 ], [ 113.974016847158794, 30.797283923650699 ], [ 113.991983152841186, 30.797283923650699 ] ] ] } },
{ "type": "Feature", "properties": { "北京时间": "2026-05-16 05:00" }, "geometry": { "type": "Polygon", "coordinates": [ [ [ 114.036983152841202, 30.90729276942092 ], [ 114.036983152841202, 30.922706609778277 ], [ 114.019016847158795, 30.922706609778277 ], [ 114.019016847158795, 30.90729276942092 ], [ 114.036983152841202, 30.90729276942092 ] ] ] } },
{ "type": "Feature", "properties": { "北京时间": "2026-05-16 05:00" }, "geometry": { "type": "Polygon", "coordinates": [ [ [ 114.018983152841187, 30.915293413858322 ], [ 114.018983152841187, 30.930705965248041 ], [ 114.001016847158809, 30.930705965248041 ], [ 114.001016847158809, 30.915293413858322 ], [ 114.018983152841187, 30.915293413858322 ] ] ] } },
{ "type": "Feature", "properties": { "北京时间": "2026-05-16 05:00" }, "geometry": { "type": "Polygon", "coordinates": [ [ [ 113.960983152841195, 30.885290997992922 ], [ 113.960983152841195, 30.900708381461754 ], [ 113.943016847158802, 30.900708381461754 ], [ 113.943016847158802, 30.885290997992922 ], [ 113.960983152841195, 30.885290997992922 ] ] ] } },
{ "type": "Feature", "properties": { "北京时间": "2026-05-16 05:00" }, "geometry": { "type": "Polygon", "coordinates": [ [ [ 114.127983152841196, 30.775282157908876 ], [ 114.127983152841196, 30.790717222828729 ], [ 114.110016847158803, 30.790717222828729 ], [ 114.110016847158803, 30.775282157908876 ], [ 114.127983152841196, 30.775282157908876 ] ] ] } },
{ "type": "Feature", "properties": { "北京时间": "2026-05-16 05:00" }, "geometry": { "type": "Polygon", "coordinates": [ [ [ 114.093983152841176, 30.869289710395616 ], [ 114.093983152841176, 30.884709669245115 ], [ 114.076016847158797, 30.884709669245115 ], [ 114.076016847158797, 30.869289710395616 ], [ 114.093983152841176, 30.869289710395616 ] ] ] } },
{ "type": "Feature", "properties": { "北京时间": "2026-05-16 05:00" }, "geometry": { "type": "Polygon", "coordinates": [ [ [ 114.013983152841178, 30.887291158984866 ], [ 114.013983152841178, 30.902708220446581 ], [ 113.996016847158785, 30.902708220446581 ], [ 113.996016847158785, 30.887291158984866 ], [ 114.013983152841178, 30.887291158984866 ] ] ] } },
{ "type": "Feature", "properties": { "北京时间": "2026-05-16 05:00" }, "geometry": { "type": "Polygon", "coordinates": [ [ [ 114.062983152841198, 30.886291078487726 ], [ 114.062983152841198, 30.901708300955345 ], [ 114.045016847158806, 30.901708300955345 ], [ 114.045016847158806, 30.886291078487726 ], [ 114.062983152841198, 30.886291078487726 ] ] ] } },
{ "type": "Feature", "properties": { "北京时间": "2026-05-16 05:00" }, "geometry": { "type": "Polygon", "coordinates": [ [ [ 114.120983152841177, 30.878290434595108 ], [ 114.120983152841177, 30.893708944940936 ], [ 114.103016847158784, 30.893708944940936 ], [ 114.103016847158784, 30.878290434595108 ], [ 114.120983152841177, 30.878290434595108 ] ] ] } },
{ "type": "Feature", "properties": { "北京时间": "2026-05-16 05:00" }, "geometry": { "type": "Polygon", "coordinates": [ [ [ 113.921983152841193, 30.836287056625402 ], [ 113.921983152841193, 30.851712323399624 ], [ 113.9040168471588, 30.851712323399624 ], [ 113.9040168471588, 30.836287056625402 ], [ 113.921983152841193, 30.836287056625402 ] ] ] } },
{ "type": "Feature", "properties": { "北京时间": "2026-05-16 05:00" }, "geometry": { "type": "Polygon", "coordinates": [ [ [ 113.764983152841211, 30.805284566020731 ], [ 113.764983152841211, 30.820714814366074 ], [ 113.747016847158804, 30.820714814366074 ], [ 113.747016847158804, 30.805284566020731 ], [ 113.764983152841211, 30.805284566020731 ] ] ] } },
{ "type": "Feature", "properties": { "北京时间": "2026-05-16 05:00" }, "geometry": { "type": "Polygon", "coordinates": [ [ [ 114.182983152841203, 30.819285690530272 ], [ 114.182983152841203, 30.834713689693075 ], [ 114.165016847158796, 30.834713689693075 ], [ 114.165016847158796, 30.819285690530272 ], [ 114.182983152841203, 30.819285690530272 ] ] ] } },
{ "type": "Feature", "properties": { "北京时间": "2026-05-16 05:00" }, "geometry": { "type": "Polygon", "coordinates": [ [ [ 114.114983152841177, 30.881290676037235 ], [ 114.114983152841177, 30.896708703463958 ], [ 114.097016847158784, 30.896708703463958 ], [ 114.097016847158784, 30.881290676037235 ], [ 114.114983152841177, 30.881290676037235 ] ] ] } },
{ "type": "Feature", "properties": { "北京时间": "2026-05-16 05:00" }, "geometry": { "type": "Polygon", "coordinates": [ [ [ 114.075983152841189, 30.932294783786734 ], [ 114.075983152841189, 30.947704595122588 ], [ 114.058016847158783, 30.947704595122588 ], [ 114.058016847158783, 30.932294783786734 ], [ 114.075983152841189, 30.932294783786734 ] ] ] } },
{ "type": "Feature", "properties": { "北京时间": "2026-05-16 05:00" }, "geometry": { "type": "Polygon", "coordinates": [ [ [ 114.022983152841178, 30.911293091620841 ], [ 114.022983152841178, 30.926706287531939 ], [ 114.005016847158785, 30.926706287531939 ], [ 114.005016847158785, 30.911293091620841 ], [ 114.022983152841178, 30.911293091620841 ] ] ] } },
{ "type": "Feature", "properties": { "北京时间": "2026-05-16 05:00" }, "geometry": { "type": "Polygon", "coordinates": [ [ [ 114.063983152841189, 30.841287458547338 ], [ 114.063983152841189, 30.856711921419411 ], [ 114.04601684715881, 30.856711921419411 ], [ 114.04601684715881, 30.841287458547338 ], [ 114.063983152841189, 30.841287458547338 ] ] ] } },
{ "type": "Feature", "properties": { "北京时间": "2026-05-16 05:00" }, "geometry": { "type": "Polygon", "coordinates": [ [ [ 114.029983152841183, 30.919293736133383 ], [ 114.029983152841183, 30.934705642926605 ], [ 114.012016847158804, 30.934705642926605 ], [ 114.012016847158804, 30.919293736133383 ], [ 114.029983152841183, 30.919293736133383 ] ] ] } },
{ "type": "Feature", "properties": { "北京时间": "2026-05-16 05:00" }, "geometry": { "type": "Polygon", "coordinates": [ [ [ 114.072983152841175, 30.934294944999376 ], [ 114.072983152841175, 30.949704433886755 ], [ 114.055016847158782, 30.949704433886755 ], [ 114.055016847158782, 30.934294944999376 ], [ 114.072983152841175, 30.934294944999376 ] ] ] } },
{ "type": "Feature", "properties": { "北京时间": "2026-05-16 05:00" }, "geometry": { "type": "Polygon", "coordinates": [ [ [ 114.064983152841194, 30.993299704995838 ], [ 114.064983152841194, 31.008699673208138 ], [ 114.047016847158787, 31.008699673208138 ], [ 114.047016847158787, 30.993299704995838 ], [ 114.064983152841194, 30.993299704995838 ] ] ] } },
{ "type": "Feature", "properties": { "北京时间": "2026-05-16 04:00" }, "geometry": { "type": "Polygon", "coordinates": [ [ [ 114.118983152841196, 30.919293736133383 ], [ 114.118983152841196, 30.934705642926605 ], [ 114.101016847158803, 30.934705642926605 ], [ 114.101016847158803, 30.919293736133383 ], [ 114.118983152841196, 30.919293736133383 ] ] ] } },
{ "type": "Feature", "properties": { "北京时间": "2026-05-16 04:00" }, "geometry": { "type": "Polygon", "coordinates": [ [ [ 114.194983152841189, 31.09030754849967 ], [ 114.194983152841189, 31.105691828588533 ], [ 114.177016847158797, 31.105691828588533 ], [ 114.177016847158797, 31.09030754849967 ], [ 114.194983152841189, 31.09030754849967 ] ] ] } },
{ "type": "Feature", "properties": { "北京时间": "2026-05-16 04:00" }, "geometry": { "type": "Polygon", "coordinates": [ [ [ 113.632983152841177, 30.698275986776082 ], [ 113.632983152841177, 30.713723394865003 ], [ 113.615016847158799, 30.713723394865003 ], [ 113.615016847158799, 30.698275986776082 ], [ 113.632983152841177, 30.698275986776082 ] ] ] } },
{ "type": "Feature", "properties": { "北京时间": "2026-05-16 04:00" }, "geometry": { "type": "Polygon", "coordinates": [ [ [ 114.164983152841202, 30.784282880120266 ], [ 114.164983152841202, 30.799716500512034 ], [ 114.14701684715881, 30.799716500512034 ], [ 114.14701684715881, 30.784282880120266 ], [ 114.164983152841202, 30.784282880120266 ] ] ] } },
{ "type": "Feature", "properties": { "北京时间": "2026-05-16 04:00" }, "geometry": { "type": "Polygon", "coordinates": [ [ [ 113.8669831528412, 30.755280553676567 ], [ 113.8669831528412, 30.770718827295283 ], [ 113.849016847158808, 30.770718827295283 ], [ 113.849016847158808, 30.755280553676567 ], [ 113.8669831528412, 30.755280553676567 ] ] ] } },
{ "type": "Feature", "properties": { "北京时间": "2026-05-16 04:00" }, "geometry": { "type": "Polygon", "coordinates": [ [ [ 114.186983152841194, 30.968297687050875 ], [ 114.186983152841194, 30.98370169144183 ], [ 114.169016847158801, 30.98370169144183 ], [ 114.169016847158801, 30.968297687050875 ], [ 114.186983152841194, 30.968297687050875 ] ] ] } },
{ "type": "Feature", "properties": { "北京时间": "2026-05-16 04:00" }, "geometry": { "type": "Polygon", "coordinates": [ [ [ 114.129983152841177, 30.999300189520817 ], [ 114.129983152841177, 31.014699188613932 ], [ 114.112016847158785, 31.014699188613932 ], [ 114.112016847158785, 30.999300189520817 ], [ 114.129983152841177, 30.999300189520817 ] ] ] } },
{ "type": "Feature", "properties": { "北京时间": "2026-05-16 04:00" }, "geometry": { "type": "Polygon", "coordinates": [ [ [ 114.080983152841185, 30.91629349442357 ], [ 114.080983152841185, 30.93170588467121 ], [ 114.063016847158792, 30.93170588467121 ], [ 114.063016847158792, 30.91629349442357 ], [ 114.080983152841185, 30.91629349442357 ] ] ] } },
{ "type": "Feature", "properties": { "北京时间": "2026-05-16 04:00" }, "geometry": { "type": "Polygon", "coordinates": [ [ [ 114.082983152841209, 30.880290595554179 ], [ 114.082983152841209, 30.895708783958622 ], [ 114.065016847158802, 30.895708783958622 ], [ 114.065016847158802, 30.880290595554179 ], [ 114.082983152841209, 30.880290595554179 ] ] ] } },
{ "type": "Feature", "properties": { "北京时间": "2026-05-16 04:00" }, "geometry": { "type": "Polygon", "coordinates": [ [ [ 114.135983152841192, 30.925294219616401 ], [ 114.135983152841192, 30.94070515937403 ], [ 114.118016847158799, 30.94070515937403 ], [ 114.118016847158799, 30.925294219616401 ], [ 114.135983152841192, 30.925294219616401 ] ] ] } },
{ "type": "Feature", "properties": { "北京时间": "2026-05-16 04:00" }, "geometry": { "type": "Polygon", "coordinates": [ [ [ 114.167983152841217, 30.969297767740521 ], [ 114.167983152841217, 30.98470161074064 ], [ 114.15001684715881, 30.98470161074064 ], [ 114.15001684715881, 30.969297767740521 ], [ 114.167983152841217, 30.969297767740521 ] ] ] } },
{ "type": "Feature", "properties": { "北京时间": "2026-05-16 04:00" }, "geometry": { "type": "Polygon", "coordinates": [ [ [ 114.08598315284118, 30.932294783786734 ], [ 114.08598315284118, 30.947704595122588 ], [ 114.068016847158802, 30.947704595122588 ], [ 114.068016847158802, 30.932294783786734 ], [ 114.08598315284118, 30.932294783786734 ] ] ] } },
{ "type": "Feature", "properties": { "北京时间": "2026-05-16 04:00" }, "geometry": { "type": "Polygon", "coordinates": [ [ [ 113.944983152841203, 30.854288503819255 ], [ 113.944983152841203, 30.869710875996034 ], [ 113.927016847158811, 30.869710875996034 ], [ 113.927016847158811, 30.854288503819255 ], [ 113.944983152841203, 30.854288503819255 ] ] ] } },
{ "type": "Feature", "properties": { "北京时间": "2026-05-16 03:00" }, "geometry": { "type": "Polygon", "coordinates": [ [ [ 113.523983152841183, 30.569265679396977 ], [ 113.523983152841183, 30.584733703767753 ], [ 113.506016847158804, 30.584733703767753 ], [ 113.506016847158804, 30.569265679396977 ], [ 113.523983152841183, 30.569265679396977 ] ] ] } },
{ "type": "Feature", "properties": { "北京时间": "2026-05-16 03:00" }, "geometry": { "type": "Polygon", "coordinates": [ [ [ 113.928983152841184, 30.797283923650699 ], [ 113.928983152841184, 30.812715456829597 ], [ 113.911016847158805, 30.812715456829597 ], [ 113.911016847158805, 30.797283923650699 ], [ 113.928983152841184, 30.797283923650699 ] ] ] } },
{ "type": "Feature", "properties": { "北京时间": "2026-05-16 03:00" }, "geometry": { "type": "Polygon", "coordinates": [ [ [ 114.159983152841178, 30.877290354119115 ], [ 114.159983152841178, 30.892709025428566 ], [ 114.142016847158786, 30.892709025428566 ], [ 114.142016847158786, 30.877290354119115 ], [ 114.159983152841178, 30.877290354119115 ] ] ] } },
{ "type": "Feature", "properties": { "北京时间": "2026-05-16 03:00" }, "geometry": { "type": "Polygon", "coordinates": [ [ [ 114.160983152841197, 30.984298978366734 ], [ 114.160983152841197, 30.999700399941148 ], [ 114.14301684715879, 30.999700399941148 ], [ 114.14301684715879, 30.984298978366734 ], [ 114.160983152841197, 30.984298978366734 ] ] ] } },
{ "type": "Feature", "properties": { "北京时间": "2026-05-16 03:00" }, "geometry": { "type": "Polygon", "coordinates": [ [ [ 114.154983152841197, 30.938295267452855 ], [ 114.154983152841197, 30.953704111386966 ], [ 114.137016847158804, 30.953704111386966 ], [ 114.137016847158804, 30.938295267452855 ], [ 114.154983152841197, 30.938295267452855 ] ] ] } },
{ "type": "Feature", "properties": { "北京时间": "2026-05-16 03:00" }, "geometry": { "type": "Polygon", "coordinates": [ [ [ 113.771983152841187, 30.666273426252733 ], [ 113.771983152841187, 30.681725955765156 ], [ 113.754016847158795, 30.681725955765156 ], [ 113.754016847158795, 30.666273426252733 ], [ 113.771983152841187, 30.666273426252733 ] ] ] } },
{ "type": "Feature", "properties": { "北京时间": "2026-05-16 03:00" }, "geometry": { "type": "Polygon", "coordinates": [ [ [ 114.132983152841192, 30.910293011067342 ], [ 114.132983152841192, 30.925706368097046 ], [ 114.115016847158799, 30.925706368097046 ], [ 114.115016847158799, 30.910293011067342 ], [ 114.132983152841192, 30.910293011067342 ] ] ] } },
{ "type": "Feature", "properties": { "北京时间": "2026-05-16 02:00" }, "geometry": { "type": "Polygon", "coordinates": [ [ [ 113.909983152841178, 30.715277348034263 ], [ 113.909983152841178, 30.730722033406991 ], [ 113.892016847158786, 30.730722033406991 ], [ 113.892016847158786, 30.715277348034263 ], [ 113.909983152841178, 30.715277348034263 ] ] ] } },
{ "type": "Feature", "properties": { "北京时间": "2026-05-16 02:00" }, "geometry": { "type": "Polygon", "coordinates": [ [ [ 114.129983152841177, 31.008300916466617 ], [ 114.129983152841177, 31.023698461564344 ], [ 114.112016847158785, 31.023698461564344 ], [ 114.112016847158785, 31.008300916466617 ], [ 114.129983152841177, 31.008300916466617 ] ] ] } },
{ "type": "Feature", "properties": { "北京时间": "2026-05-16 02:00" }, "geometry": { "type": "Polygon", "coordinates": [ [ [ 113.61898315284121, 30.574266078177676 ], [ 113.61898315284121, 30.589733304927758 ], [ 113.601016847158803, 30.589733304927758 ], [ 113.601016847158803, 30.574266078177676 ], [ 113.61898315284121, 30.574266078177676 ] ] ] } },
{ "type": "Feature", "properties": { "北京时间": "2026-05-16 01:00" }, "geometry": { "type": "Polygon", "coordinates": [ [ [ 113.867983152841177, 30.610268951137417 ], [ 113.867983152841177, 30.62573043154168 ], [ 113.850016847158784, 30.62573043154168 ], [ 113.850016847158784, 30.610268951137417 ], [ 113.867983152841177, 30.610268951137417 ] ] ] } },
{ "type": "Feature", "properties": { "北京时间": "2026-05-16 01:00" }, "geometry": { "type": "Polygon", "coordinates": [ [ [ 114.050983152841184, 30.980298655481452 ], [ 114.050983152841184, 30.995700722872613 ], [ 114.033016847158791, 30.995700722872613 ], [ 114.033016847158791, 30.980298655481452 ], [ 114.050983152841184, 30.980298655481452 ] ] ] } },
{ "type": "Feature", "properties": { "北京时间": "2026-05-16 01:00" }, "geometry": { "type": "Polygon", "coordinates": [ [ [ 113.45198315284118, 30.46925771615744 ], [ 113.45198315284118, 30.484741668197 ], [ 113.434016847158787, 30.484741668197 ], [ 113.434016847158787, 30.46925771615744 ], [ 113.45198315284118, 30.46925771615744 ] ] ] } },
{ "type": "Feature", "properties": { "北京时间": "2026-05-16 00:00" }, "geometry": { "type": "Polygon", "coordinates": [ [ [ 113.83598315284118, 30.500260182240176 ], [ 113.83598315284118, 30.515739201744644 ], [ 113.818016847158802, 30.515739201744644 ], [ 113.818016847158802, 30.500260182240176 ], [ 113.83598315284118, 30.500260182240176 ] ] ] } },
{ "type": "Feature", "properties": { "北京时间": "2026-05-16 00:00" }, "geometry": { "type": "Polygon", "coordinates": [ [ [ 113.94298315284118, 30.913293252734896 ], [ 113.94298315284118, 30.92870612639469 ], [ 113.925016847158801, 30.92870612639469 ], [ 113.925016847158801, 30.913293252734896 ], [ 113.94298315284118, 30.913293252734896 ] ] ] } },
{ "type": "Feature", "properties": { "北京时间": "2026-05-15 23:00" }, "geometry": { "type": "Polygon", "coordinates": [ [ [ 113.810983152841189, 30.832286735130168 ], [ 113.810983152841189, 30.847712644941517 ], [ 113.79301684715881, 30.847712644941517 ], [ 113.79301684715881, 30.832286735130168 ], [ 113.810983152841189, 30.832286735130168 ] ] ] } },
{ "type": "Feature", "properties": { "北京时间": "2026-05-15 22:00" }, "geometry": { "type": "Polygon", "coordinates": [ [ [ 113.634983152841187, 30.738279190818723 ], [ 113.634983152841187, 30.753720190352468 ], [ 113.617016847158794, 30.753720190352468 ], [ 113.617016847158794, 30.738279190818723 ], [ 113.634983152841187, 30.738279190818723 ] ] ] } },
{ "type": "Feature", "properties": { "北京时间": "2026-05-15 21:00" }, "geometry": { "type": "Polygon", "coordinates": [ [ [ 113.466983152841181, 30.639271267686016 ], [ 113.466983152841181, 30.654728114650371 ], [ 113.449016847158802, 30.654728114650371 ], [ 113.449016847158802, 30.639271267686016 ], [ 113.466983152841181, 30.639271267686016 ] ] ] } },
{ "type": "Feature", "properties": { "北京时间": "2026-05-15 10:00" }, "geometry": { "type": "Polygon", "coordinates": [ [ [ 114.406983152841192, 31.690356554183793 ], [ 114.406983152841192, 31.705642816161863 ], [ 114.3890168471588, 31.705642816161863 ], [ 114.3890168471588, 31.690356554183793 ], [ 114.406983152841192, 31.690356554183793 ] ] ] } },
{ "type": "Feature", "properties": { "北京时间": "2026-05-15 09:00" }, "geometry": { "type": "Polygon", "coordinates": [ [ [ 114.398983152841183, 31.580347506892892 ], [ 114.398983152841183, 31.595651864668305 ], [ 114.38101684715879, 31.595651864668305 ], [ 114.38101684715879, 31.580347506892892 ], [ 114.398983152841183, 31.580347506892892 ] ] ] } },
{ "type": "Feature", "properties": { "北京时间": "2026-05-15 08:00" }, "geometry": { "type": "Polygon", "coordinates": [ [ [ 114.410983152841183, 31.460337669295043 ], [ 114.410983152841183, 31.475661703602771 ], [ 114.39301684715879, 31.475661703602771 ], [ 114.39301684715879, 31.460337669295043 ], [ 114.410983152841183, 31.460337669295043 ] ] ] } },
{ "type": "Feature", "properties": { "北京时间": "2026-05-15 07:00" }, "geometry": { "type": "Polygon", "coordinates": [ [ [ 114.440983152841184, 31.317325990057768 ], [ 114.440983152841184, 31.332673384447208 ], [ 114.423016847158806, 31.332673384447208 ], [ 114.423016847158806, 31.317325990057768 ], [ 114.440983152841184, 31.317325990057768 ] ] ] } }
]
}
