{
"type": "FeatureCollection",
"name": "东城",
"crs": { "type": "name", "properties": { "name": "urn:ogc:def:crs:OGC:1.3:CRS84" } },
"features": [
{ "type": "Feature", "properties": { "北京时间": "2026-05-11 23:00" }, "geometry": { "type": "Polygon", "coordinates": [ [ [ 113.950983152841175, 30.899292125133776 ], [ 113.950983152841175, 30.914707254158273 ], [ 113.933016847158797, 30.914707254158273 ], [ 113.933016847158797, 30.899292125133776 ], [ 113.950983152841175, 30.899292125133776 ] ] ] } },
{ "type": "Feature", "properties": { "北京时间": "2026-05-11 22:00" }, "geometry": { "type": "Polygon", "coordinates": [ [ [ 113.937983152841184, 30.808284806948279 ], [ 113.937983152841184, 30.823714573403496 ], [ 113.920016847158792, 30.823714573403496 ], [ 113.920016847158792, 30.808284806948279 ], [ 113.937983152841184, 30.808284806948279 ] ] ] } },
{ "type": "Feature", "properties": { "北京时间": "2026-05-11 22:00" }, "geometry": { "type": "Polygon", "coordinates": [ [ [ 113.879983152841191, 30.754280473489644 ], [ 113.879983152841191, 30.769718907493925 ], [ 113.862016847158799, 30.769718907493925 ], [ 113.862016847158799, 30.754280473489644 ], [ 113.879983152841191, 30.754280473489644 ] ] ] } },
{ "type": "Feature", "properties": { "北京时间": "2026-05-11 22:00" }, "geometry": { "type": "Polygon", "coordinates": [ [ [ 113.913983152841197, 30.848288021336728 ], [ 113.913983152841197, 30.863711358548457 ], [ 113.896016847158805, 30.863711358548457 ], [ 113.896016847158805, 30.848288021336728 ], [ 113.913983152841197, 30.848288021336728 ] ] ] } },
{ "type": "Feature", "properties": { "北京时间": "2026-05-11 22:00" }, "geometry": { "type": "Polygon", "coordinates": [ [ [ 113.933983152841179, 30.790283361700322 ], [ 113.933983152841179, 30.805716018861794 ], [ 113.916016847158801, 30.805716018861794 ], [ 113.916016847158801, 30.790283361700322 ], [ 113.933983152841179, 30.790283361700322 ] ] ] } },
{ "type": "Feature", "properties": { "北京时间": "2026-05-11 22:00" }, "geometry": { "type": "Polygon", "coordinates": [ [ [ 113.941983152841203, 30.795283763081699 ], [ 113.941983152841203, 30.81071561742198 ], [ 113.924016847158811, 30.81071561742198 ], [ 113.924016847158811, 30.795283763081699 ], [ 113.941983152841203, 30.795283763081699 ] ] ] } },
{ "type": "Feature", "properties": { "北京时间": "2026-05-11 22:00" }, "geometry": { "type": "Polygon", "coordinates": [ [ [ 113.881983152841187, 30.886291078487726 ], [ 113.881983152841187, 30.901708300955345 ], [ 113.864016847158794, 30.901708300955345 ], [ 113.864016847158794, 30.886291078487726 ], [ 113.881983152841187, 30.886291078487726 ] ] ] } },
{ "type": "Feature", "properties": { "北京时间": "2026-05-11 22:00" }, "geometry": { "type": "Polygon", "coordinates": [ [ [ 113.94598315284118, 30.799284084229107 ], [ 113.94598315284118, 30.814715296227821 ], [ 113.928016847158787, 30.814715296227821 ], [ 113.928016847158787, 30.799284084229107 ], [ 113.94598315284118, 30.799284084229107 ] ] ] } },
{ "type": "Feature", "properties": { "北京时间": "2026-05-11 22:00" }, "geometry": { "type": "Polygon", "coordinates": [ [ [ 113.956983152841175, 30.933294864391883 ], [ 113.956983152841175, 30.948704514505835 ], [ 113.939016847158783, 30.948704514505835 ], [ 113.939016847158783, 30.933294864391883 ], [ 113.956983152841175, 30.933294864391883 ] ] ] } },
{ "type": "Feature", "properties": { "北京时间": "2026-05-11 22:00" }, "geometry": { "type": "Polygon", "coordinates": [ [ [ 113.889983152841182, 30.829286494033393 ], [ 113.889983152841182, 30.844712886073264 ], [ 113.87201684715879, 30.844712886073264 ], [ 113.87201684715879, 30.829286494033393 ], [ 113.889983152841182, 30.829286494033393 ] ] ] } },
{ "type": "Feature", "properties": { "北京时间": "2026-05-11 22:00" }, "geometry": { "type": "Polygon", "coordinates": [ [ [ 113.896983152841187, 30.807284726636745 ], [ 113.896983152841187, 30.822714653726695 ], [ 113.879016847158795, 30.822714653726695 ], [ 113.879016847158795, 30.807284726636745 ], [ 113.896983152841187, 30.807284726636745 ] ] ] } },
{ "type": "Feature", "properties": { "北京时间": "2026-05-11 22:00" }, "geometry": { "type": "Polygon", "coordinates": [ [ [ 113.862983152841196, 30.814285288866831 ], [ 113.862983152841196, 30.829714091414864 ], [ 113.845016847158803, 30.829714091414864 ], [ 113.845016847158803, 30.814285288866831 ], [ 113.862983152841196, 30.814285288866831 ] ] ] } },
{ "type": "Feature", "properties": { "北京时间": "2026-05-11 22:00" }, "geometry": { "type": "Polygon", "coordinates": [ [ [ 113.871983152841182, 30.768281596320573 ], [ 113.871983152841182, 30.783717784498979 ], [ 113.854016847158803, 30.783717784498979 ], [ 113.854016847158803, 30.768281596320573 ], [ 113.871983152841182, 30.768281596320573 ] ] ] } },
{ "type": "Feature", "properties": { "北京时间": "2026-05-11 22:00" }, "geometry": { "type": "Polygon", "coordinates": [ [ [ 113.879983152841191, 30.844287699728696 ], [ 113.879983152841191, 30.859711680203102 ], [ 113.862016847158799, 30.859711680203102 ], [ 113.862016847158799, 30.844287699728696 ], [ 113.879983152841191, 30.844287699728696 ] ] ] } },
{ "type": "Feature", "properties": { "北京时间": "2026-05-11 22:00" }, "geometry": { "type": "Polygon", "coordinates": [ [ [ 113.947983152841175, 30.786283040637549 ], [ 113.947983152841175, 30.801716339971357 ], [ 113.930016847158797, 30.801716339971357 ], [ 113.930016847158797, 30.786283040637549 ], [ 113.947983152841175, 30.786283040637549 ] ] ] } },
{ "type": "Feature", "properties": { "北京时间": "2026-05-11 22:00" }, "geometry": { "type": "Polygon", "coordinates": [ [ [ 113.905983152841202, 30.781282639361979 ], [ 113.905983152841202, 30.796716741305413 ], [ 113.888016847158809, 30.796716741305413 ], [ 113.888016847158809, 30.781282639361979 ], [ 113.905983152841202, 30.781282639361979 ] ] ] } },
{ "type": "Feature", "properties": { "北京时间": "2026-05-11 22:00" }, "geometry": { "type": "Polygon", "coordinates": [ [ [ 113.836983152841199, 30.733278790107541 ], [ 113.836983152841199, 30.748720591122314 ], [ 113.819016847158807, 30.748720591122314 ], [ 113.819016847158807, 30.733278790107541 ], [ 113.836983152841199, 30.733278790107541 ] ] ] } },
{ "type": "Feature", "properties": { "北京时间": "2026-05-11 22:00" }, "geometry": { "type": "Polygon", "coordinates": [ [ [ 113.894983152841178, 30.738279190818723 ], [ 113.894983152841178, 30.753720190352468 ], [ 113.877016847158799, 30.753720190352468 ], [ 113.877016847158799, 30.738279190818723 ], [ 113.894983152841178, 30.738279190818723 ] ] ] } },
{ "type": "Feature", "properties": { "北京时间": "2026-05-11 22:00" }, "geometry": { "type": "Polygon", "coordinates": [ [ [ 113.894983152841178, 30.761281034847489 ], [ 113.894983152841178, 30.776718346054043 ], [ 113.877016847158799, 30.776718346054043 ], [ 113.877016847158799, 30.761281034847489 ], [ 113.894983152841178, 30.761281034847489 ] ] ] } },
{ "type": "Feature", "properties": { "北京时间": "2026-05-11 22:00" }, "geometry": { "type": "Polygon", "coordinates": [ [ [ 113.921983152841193, 30.789283281431111 ], [ 113.921983152841193, 30.804716099142713 ], [ 113.9040168471588, 30.804716099142713 ], [ 113.9040168471588, 30.789283281431111 ], [ 113.921983152841193, 30.789283281431111 ] ] ] } },
{ "type": "Feature", "properties": { "北京时间": "2026-05-11 22:00" }, "geometry": { "type": "Polygon", "coordinates": [ [ [ 113.895983152841183, 30.773281997443313 ], [ 113.895983152841183, 30.788717383317692 ], [ 113.87801684715879, 30.788717383317692 ], [ 113.87801684715879, 30.773281997443313 ], [ 113.895983152841183, 30.773281997443313 ] ] ] } },
{ "type": "Feature", "properties": { "北京时间": "2026-05-11 21:00" }, "geometry": { "type": "Polygon", "coordinates": [ [ [ 113.825983152841189, 30.612269110835804 ], [ 113.825983152841189, 30.627730271819647 ], [ 113.808016847158797, 30.627730271819647 ], [ 113.808016847158797, 30.612269110835804 ], [ 113.825983152841189, 30.612269110835804 ] ] ] } },
{ "type": "Feature", "properties": { "北京时间": "2026-05-11 21:00" }, "geometry": { "type": "Polygon", "coordinates": [ [ [ 113.83598315284118, 30.644271667291111 ], [ 113.83598315284118, 30.659727714986264 ], [ 113.818016847158802, 30.659727714986264 ], [ 113.818016847158802, 30.644271667291111 ], [ 113.83598315284118, 30.644271667291111 ] ] ] } },
{ "type": "Feature", "properties": { "北京时间": "2026-05-11 21:00" }, "geometry": { "type": "Polygon", "coordinates": [ [ [ 113.824983152841185, 30.880290595554179 ], [ 113.824983152841185, 30.895708783958622 ], [ 113.807016847158806, 30.895708783958622 ], [ 113.807016847158806, 30.880290595554179 ], [ 113.824983152841185, 30.880290595554179 ] ] ] } },
{ "type": "Feature", "properties": { "北京时间": "2026-05-11 21:00" }, "geometry": { "type": "Polygon", "coordinates": [ [ [ 113.864983152841191, 30.806284646327558 ], [ 113.864983152841191, 30.821714734047561 ], [ 113.847016847158798, 30.821714734047561 ], [ 113.847016847158798, 30.806284646327558 ], [ 113.864983152841191, 30.806284646327558 ] ] ] } },
{ "type": "Feature", "properties": { "北京时间": "2026-05-11 21:00" }, "geometry": { "type": "Polygon", "coordinates": [ [ [ 113.791983152841183, 30.637271107860467 ], [ 113.791983152841183, 30.652728274499541 ], [ 113.774016847158791, 30.652728274499541 ], [ 113.774016847158791, 30.637271107860467 ], [ 113.791983152841183, 30.637271107860467 ] ] ] } },
{ "type": "Feature", "properties": { "北京时间": "2026-05-11 21:00" }, "geometry": { "type": "Polygon", "coordinates": [ [ [ 113.83798315284119, 30.766281435887937 ], [ 113.83798315284119, 30.781717944955048 ], [ 113.820016847158797, 30.781717944955048 ], [ 113.820016847158797, 30.766281435887937 ], [ 113.83798315284119, 30.766281435887937 ] ] ] } },
{ "type": "Feature", "properties": { "北京时间": "2026-05-11 21:00" }, "geometry": { "type": "Polygon", "coordinates": [ [ [ 113.72198315284119, 30.562265121202948 ], [ 113.72198315284119, 30.577734262044803 ], [ 113.704016847158798, 30.577734262044803 ], [ 113.704016847158798, 30.562265121202948 ], [ 113.72198315284119, 30.562265121202948 ] ] ] } },
{ "type": "Feature", "properties": { "北京时间": "2026-05-11 21:00" }, "geometry": { "type": "Polygon", "coordinates": [ [ [ 113.998983152841177, 30.990299462765019 ], [ 113.998983152841177, 31.005699915473585 ], [ 113.981016847158799, 31.005699915473585 ], [ 113.981016847158799, 30.990299462765019 ], [ 113.998983152841177, 30.990299462765019 ] ] ] } },
{ "type": "Feature", "properties": { "北京时间": "2026-05-11 21:00" }, "geometry": { "type": "Polygon", "coordinates": [ [ [ 113.856983152841181, 30.59726791332756 ], [ 113.856983152841181, 30.612731469505391 ], [ 113.839016847158788, 30.612731469505391 ], [ 113.839016847158788, 30.59726791332756 ], [ 113.856983152841181, 30.59726791332756 ] ] ] } },
{ "type": "Feature", "properties": { "北京时间": "2026-05-11 21:00" }, "geometry": { "type": "Polygon", "coordinates": [ [ [ 113.776983152841183, 30.739279270968012 ], [ 113.776983152841183, 30.754720110191442 ], [ 113.759016847158804, 30.754720110191442 ], [ 113.759016847158804, 30.739279270968012 ], [ 113.776983152841183, 30.739279270968012 ] ] ] } },
{ "type": "Feature", "properties": { "北京时间": "2026-05-11 21:00" }, "geometry": { "type": "Polygon", "coordinates": [ [ [ 113.946983152841185, 30.67727430616079 ], [ 113.946983152841185, 30.692725075727477 ], [ 113.929016847158792, 30.692725075727477 ], [ 113.929016847158792, 30.67727430616079 ], [ 113.946983152841185, 30.67727430616079 ] ] ] } },
{ "type": "Feature", "properties": { "北京时间": "2026-05-11 21:00" }, "geometry": { "type": "Polygon", "coordinates": [ [ [ 113.913983152841197, 30.699276066831271 ], [ 113.913983152841197, 30.714723314798054 ], [ 113.896016847158805, 30.714723314798054 ], [ 113.896016847158805, 30.699276066831271 ], [ 113.913983152841197, 30.699276066831271 ] ] ] } },
{ "type": "Feature", "properties": { "北京时间": "2026-05-11 21:00" }, "geometry": { "type": "Polygon", "coordinates": [ [ [ 113.829983152841194, 30.712277107762809 ], [ 113.829983152841194, 30.727722273713667 ], [ 113.812016847158802, 30.727722273713667 ], [ 113.812016847158802, 30.712277107762809 ], [ 113.829983152841194, 30.712277107762809 ] ] ] } },
{ "type": "Feature", "properties": { "北京时间": "2026-05-11 21:00" }, "geometry": { "type": "Polygon", "coordinates": [ [ [ 113.825983152841189, 30.615269350401046 ], [ 113.825983152841189, 30.630730032218924 ], [ 113.808016847158797, 30.630730032218924 ], [ 113.808016847158797, 30.615269350401046 ], [ 113.825983152841189, 30.615269350401046 ] ] ] } },
{ "type": "Feature", "properties": { "北京时间": "2026-05-11 21:00" }, "geometry": { "type": "Polygon", "coordinates": [ [ [ 113.855983152841191, 30.664273266300047 ], [ 113.855983152841191, 30.679726115741413 ], [ 113.838016847158784, 30.679726115741413 ], [ 113.838016847158784, 30.664273266300047 ], [ 113.855983152841191, 30.664273266300047 ] ] ] } },
{ "type": "Feature", "properties": { "北京时间": "2026-05-11 21:00" }, "geometry": { "type": "Polygon", "coordinates": [ [ [ 113.802983152841179, 30.794283682800717 ], [ 113.802983152841179, 30.80971569771464 ], [ 113.785016847158786, 30.80971569771464 ], [ 113.785016847158786, 30.794283682800717 ], [ 113.802983152841179, 30.794283682800717 ] ] ] } },
{ "type": "Feature", "properties": { "北京时间": "2026-05-11 21:00" }, "geometry": { "type": "Polygon", "coordinates": [ [ [ 113.929983152841189, 30.699276066831271 ], [ 113.929983152841189, 30.714723314798054 ], [ 113.912016847158796, 30.714723314798054 ], [ 113.912016847158796, 30.699276066831271 ], [ 113.929983152841189, 30.699276066831271 ] ] ] } },
{ "type": "Feature", "properties": { "北京时间": "2026-05-11 21:00" }, "geometry": { "type": "Polygon", "coordinates": [ [ [ 113.878983152841187, 30.671273826175625 ], [ 113.878983152841187, 30.686725555783312 ], [ 113.861016847158794, 30.686725555783312 ], [ 113.861016847158794, 30.671273826175625 ], [ 113.878983152841187, 30.671273826175625 ] ] ] } },
{ "type": "Feature", "properties": { "北京时间": "2026-05-11 21:00" }, "geometry": { "type": "Polygon", "coordinates": [ [ [ 113.918983152841179, 30.695275746624638 ], [ 113.918983152841179, 30.710723635051725 ], [ 113.901016847158786, 30.710723635051725 ], [ 113.901016847158786, 30.695275746624638 ], [ 113.918983152841179, 30.695275746624638 ] ] ] } },
{ "type": "Feature", "properties": { "北京时间": "2026-05-11 21:00" }, "geometry": { "type": "Polygon", "coordinates": [ [ [ 113.927983152841193, 30.685274946272809 ], [ 113.927983152841193, 30.700724435521252 ], [ 113.910016847158801, 30.700724435521252 ], [ 113.910016847158801, 30.685274946272809 ], [ 113.927983152841193, 30.685274946272809 ] ] ] } },
{ "type": "Feature", "properties": { "北京时间": "2026-05-11 20:00" }, "geometry": { "type": "Polygon", "coordinates": [ [ [ 113.726983152841186, 30.755280553676567 ], [ 113.726983152841186, 30.770718827295283 ], [ 113.709016847158793, 30.770718827295283 ], [ 113.709016847158793, 30.755280553676567 ], [ 113.726983152841186, 30.755280553676567 ] ] ] } },
{ "type": "Feature", "properties": { "北京时间": "2026-05-11 20:00" }, "geometry": { "type": "Polygon", "coordinates": [ [ [ 113.779983152841197, 30.882290756522625 ], [ 113.779983152841197, 30.897708622966913 ], [ 113.762016847158804, 30.897708622966913 ], [ 113.762016847158804, 30.882290756522625 ], [ 113.779983152841197, 30.882290756522625 ] ] ] } },
{ "type": "Feature", "properties": { "北京时间": "2026-05-11 20:00" }, "geometry": { "type": "Polygon", "coordinates": [ [ [ 113.883983152841182, 30.574266078177676 ], [ 113.883983152841182, 30.589733304927758 ], [ 113.866016847158804, 30.589733304927758 ], [ 113.866016847158804, 30.574266078177676 ], [ 113.883983152841182, 30.574266078177676 ] ] ] } },
{ "type": "Feature", "properties": { "北京时间": "2026-05-11 20:00" }, "geometry": { "type": "Polygon", "coordinates": [ [ [ 113.795983152841202, 30.54326360668696 ], [ 113.795983152841202, 30.558735776786367 ], [ 113.77801684715881, 30.558735776786367 ], [ 113.77801684715881, 30.54326360668696 ], [ 113.795983152841202, 30.54326360668696 ] ] ] } },
{ "type": "Feature", "properties": { "北京时间": "2026-05-11 20:00" }, "geometry": { "type": "Polygon", "coordinates": [ [ [ 113.740983152841196, 30.4552566031856 ], [ 113.740983152841196, 30.470742781336 ], [ 113.723016847158803, 30.470742781336 ], [ 113.723016847158803, 30.4552566031856 ], [ 113.740983152841196, 30.4552566031856 ] ] ] } },
{ "type": "Feature", "properties": { "北京时间": "2026-05-11 20:00" }, "geometry": { "type": "Polygon", "coordinates": [ [ [ 113.805983152841193, 30.768281596320573 ], [ 113.805983152841193, 30.783717784498979 ], [ 113.788016847158787, 30.783717784498979 ], [ 113.788016847158787, 30.768281596320573 ], [ 113.805983152841193, 30.768281596320573 ] ] ] } },
{ "type": "Feature", "properties": { "北京时间": "2026-05-11 20:00" }, "geometry": { "type": "Polygon", "coordinates": [ [ [ 113.794983152841198, 30.708276787433835 ], [ 113.794983152841198, 30.723722594089672 ], [ 113.777016847158791, 30.723722594089672 ], [ 113.777016847158791, 30.708276787433835 ], [ 113.794983152841198, 30.708276787433835 ] ] ] } },
{ "type": "Feature", "properties": { "北京时间": "2026-05-11 20:00" }, "geometry": { "type": "Polygon", "coordinates": [ [ [ 113.901983152841197, 30.603268392267264 ], [ 113.901983152841197, 30.618730990494669 ], [ 113.88401684715879, 30.618730990494669 ], [ 113.88401684715879, 30.603268392267264 ], [ 113.901983152841197, 30.603268392267264 ] ] ] } },
{ "type": "Feature", "properties": { "北京时间": "2026-05-11 20:00" }, "geometry": { "type": "Polygon", "coordinates": [ [ [ 113.756983152841187, 30.621269829595121 ], [ 113.756983152841187, 30.636729552953916 ], [ 113.739016847158808, 30.636729552953916 ], [ 113.739016847158808, 30.621269829595121 ], [ 113.756983152841187, 30.621269829595121 ] ] ] } },
{ "type": "Feature", "properties": { "北京时间": "2026-05-11 20:00" }, "geometry": { "type": "Polygon", "coordinates": [ [ [ 113.710983152841195, 30.502260341420119 ], [ 113.710983152841195, 30.517739042540899 ], [ 113.693016847158802, 30.517739042540899 ], [ 113.693016847158802, 30.502260341420119 ], [ 113.710983152841195, 30.502260341420119 ] ] ] } },
{ "type": "Feature", "properties": { "北京时间": "2026-05-11 20:00" }, "geometry": { "type": "Polygon", "coordinates": [ [ [ 114.071983152841213, 31.067305686704604 ], [ 114.071983152841213, 31.082693690647528 ], [ 114.054016847158806, 31.082693690647528 ], [ 114.054016847158806, 31.067305686704604 ], [ 114.071983152841213, 31.067305686704604 ] ] ] } },
{ "type": "Feature", "properties": { "北京时间": "2026-05-11 20:00" }, "geometry": { "type": "Polygon", "coordinates": [ [ [ 113.69598315284118, 30.674274066157615 ], [ 113.69598315284118, 30.689725315765983 ], [ 113.678016847158787, 30.689725315765983 ], [ 113.678016847158787, 30.674274066157615 ], [ 113.69598315284118, 30.674274066157615 ] ] ] } },
{ "type": "Feature", "properties": { "北京时间": "2026-05-11 20:00" }, "geometry": { "type": "Polygon", "coordinates": [ [ [ 113.920983152841188, 30.579266477017288 ], [ 113.920983152841188, 30.594732906028877 ], [ 113.90301684715881, 30.594732906028877 ], [ 113.90301684715881, 30.579266477017288 ], [ 113.920983152841188, 30.579266477017288 ] ] ] } },
{ "type": "Feature", "properties": { "北京时间": "2026-05-11 20:00" }, "geometry": { "type": "Polygon", "coordinates": [ [ [ 113.768983152841201, 30.517261535570224 ], [ 113.768983152841201, 30.532737848212211 ], [ 113.751016847158809, 30.532737848212211 ], [ 113.751016847158809, 30.517261535570224 ], [ 113.768983152841201, 30.517261535570224 ] ] ] } },
{ "type": "Feature", "properties": { "北京时间": "2026-05-11 20:00" }, "geometry": { "type": "Polygon", "coordinates": [ [ [ 113.829983152841194, 30.552264323983223 ], [ 113.829983152841194, 30.567735059383221 ], [ 113.812016847158802, 30.567735059383221 ], [ 113.812016847158802, 30.552264323983223 ], [ 113.829983152841194, 30.552264323983223 ] ] ] } },
{ "type": "Feature", "properties": { "北京时间": "2026-05-11 20:00" }, "geometry": { "type": "Polygon", "coordinates": [ [ [ 113.787983152841178, 30.472257954711552 ], [ 113.787983152841178, 30.487741429607087 ], [ 113.7700168471588, 30.487741429607087 ], [ 113.7700168471588, 30.472257954711552 ], [ 113.787983152841178, 30.472257954711552 ] ] ] } },
{ "type": "Feature", "properties": { "北京时间": "2026-05-11 20:00" }, "geometry": { "type": "Polygon", "coordinates": [ [ [ 113.94598315284118, 30.575266157940884 ], [ 113.94598315284118, 30.59073322515269 ], [ 113.928016847158787, 30.59073322515269 ], [ 113.928016847158787, 30.575266157940884 ], [ 113.94598315284118, 30.575266157940884 ] ] ] } },
{ "type": "Feature", "properties": { "北京时间": "2026-05-11 20:00" }, "geometry": { "type": "Polygon", "coordinates": [ [ [ 113.918983152841179, 30.603268392267264 ], [ 113.918983152841179, 30.618730990494669 ], [ 113.901016847158786, 30.618730990494669 ], [ 113.901016847158786, 30.603268392267264 ], [ 113.918983152841179, 30.603268392267264 ] ] ] } },
{ "type": "Feature", "properties": { "北京时间": "2026-05-11 19:00" }, "geometry": { "type": "Polygon", "coordinates": [ [ [ 113.737983152841181, 30.727278309331762 ], [ 113.737983152841181, 30.742721071968539 ], [ 113.720016847158789, 30.742721071968539 ], [ 113.720016847158789, 30.727278309331762 ], [ 113.737983152841181, 30.727278309331762 ] ] ] } },
{ "type": "Feature", "properties": { "北京时间": "2026-05-11 19:00" }, "geometry": { "type": "Polygon", "coordinates": [ [ [ 113.651983152841197, 30.723277988861614 ], [ 113.651983152841197, 30.73872139248564 ], [ 113.634016847158804, 30.73872139248564 ], [ 113.634016847158804, 30.723277988861614 ], [ 113.651983152841197, 30.723277988861614 ] ] ] } },
{ "type": "Feature", "properties": { "北京时间": "2026-05-11 19:00" }, "geometry": { "type": "Polygon", "coordinates": [ [ [ 113.692983152841194, 30.392251600535193 ], [ 113.692983152841194, 30.407747784740433 ], [ 113.675016847158801, 30.407747784740433 ], [ 113.675016847158801, 30.392251600535193 ], [ 113.692983152841194, 30.392251600535193 ] ] ] } },
{ "type": "Feature", "properties": { "北京时间": "2026-05-11 19:00" }, "geometry": { "type": "Polygon", "coordinates": [ [ [ 113.749983152841182, 30.893291642017058 ], [ 113.749983152841182, 30.908707737344685 ], [ 113.732016847158789, 30.908707737344685 ], [ 113.732016847158789, 30.893291642017058 ], [ 113.749983152841182, 30.893291642017058 ] ] ] } },
{ "type": "Feature", "properties": { "北京时间": "2026-05-11 19:00" }, "geometry": { "type": "Polygon", "coordinates": [ [ [ 113.753983152841215, 30.660272946422925 ], [ 113.753983152841215, 30.675726435665698 ], [ 113.736016847158808, 30.675726435665698 ], [ 113.736016847158808, 30.660272946422925 ], [ 113.753983152841215, 30.660272946422925 ] ] ] } },
{ "type": "Feature", "properties": { "北京时间": "2026-05-11 19:00" }, "geometry": { "type": "Polygon", "coordinates": [ [ [ 113.61898315284121, 30.619269669854347 ], [ 113.61898315284121, 30.634729712718336 ], [ 113.601016847158803, 30.634729712718336 ], [ 113.601016847158803, 30.619269669854347 ], [ 113.61898315284121, 30.619269669854347 ] ] ] } },
{ "type": "Feature", "properties": { "北京时间": "2026-05-11 19:00" }, "geometry": { "type": "Polygon", "coordinates": [ [ [ 113.680983152841179, 30.53626304892185 ], [ 113.680983152841179, 30.551736334634633 ], [ 113.663016847158801, 30.551736334634633 ], [ 113.663016847158801, 30.53626304892185 ], [ 113.680983152841179, 30.53626304892185 ] ] ] } },
{ "type": "Feature", "properties": { "北京时间": "2026-05-11 19:00" }, "geometry": { "type": "Polygon", "coordinates": [ [ [ 114.166983152841198, 31.162313384741228 ], [ 114.166983152841198, 31.177685991523383 ], [ 114.149016847158805, 31.177685991523383 ], [ 114.149016847158805, 31.162313384741228 ], [ 114.166983152841198, 31.162313384741228 ] ] ] } },
{ "type": "Feature", "properties": { "北京时间": "2026-05-11 19:00" }, "geometry": { "type": "Polygon", "coordinates": [ [ [ 113.775983152841192, 30.436255093463402 ], [ 113.775983152841192, 30.451744291285287 ], [ 113.7580168471588, 30.451744291285287 ], [ 113.7580168471588, 30.436255093463402 ], [ 113.775983152841192, 30.436255093463402 ] ] ] } },
{ "type": "Feature", "properties": { "北京时间": "2026-05-11 19:00" }, "geometry": { "type": "Polygon", "coordinates": [ [ [ 113.725983152841181, 30.421253902179128 ], [ 113.725983152841181, 30.436745482749043 ], [ 113.708016847158802, 30.436745482749043 ], [ 113.708016847158802, 30.421253902179128 ], [ 113.725983152841181, 30.421253902179128 ] ] ] } },
{ "type": "Feature", "properties": { "北京时间": "2026-05-11 19:00" }, "geometry": { "type": "Polygon", "coordinates": [ [ [ 113.882983152841177, 30.508260819016499 ], [ 113.882983152841177, 30.523738564873057 ], [ 113.865016847158799, 30.523738564873057 ], [ 113.865016847158799, 30.508260819016499 ], [ 113.882983152841177, 30.508260819016499 ] ] ] } },
{ "type": "Feature", "properties": { "北京时间": "2026-05-11 18:00" }, "geometry": { "type": "Polygon", "coordinates": [ [ [ 113.743983152841182, 30.915293413858322 ], [ 113.743983152841182, 30.930705965248041 ], [ 113.726016847158789, 30.930705965248041 ], [ 113.726016847158789, 30.915293413858322 ], [ 113.743983152841182, 30.915293413858322 ] ] ] } },
{ "type": "Feature", "properties": { "北京时间": "2026-05-11 18:00" }, "geometry": { "type": "Polygon", "coordinates": [ [ [ 113.581983152841204, 30.693275586535449 ], [ 113.581983152841204, 30.70872379516446 ], [ 113.564016847158811, 30.70872379516446 ], [ 113.564016847158811, 30.693275586535449 ], [ 113.581983152841204, 30.693275586535449 ] ] ] } },
{ "type": "Feature", "properties": { "北京时间": "2026-05-11 18:00" }, "geometry": { "type": "Polygon", "coordinates": [ [ [ 113.546983152841193, 30.571265838902182 ], [ 113.546983152841193, 30.586733544238815 ], [ 113.5290168471588, 30.586733544238815 ], [ 113.5290168471588, 30.571265838902182 ], [ 113.546983152841193, 30.571265838902182 ] ] ] } },
{ "type": "Feature", "properties": { "北京时间": "2026-05-11 18:00" }, "geometry": { "type": "Polygon", "coordinates": [ [ [ 113.662983152841193, 30.685274946272809 ], [ 113.662983152841193, 30.700724435521252 ], [ 113.6450168471588, 30.700724435521252 ], [ 113.6450168471588, 30.685274946272809 ], [ 113.662983152841193, 30.685274946272809 ] ] ] } },
{ "type": "Feature", "properties": { "北京时间": "2026-05-11 18:00" }, "geometry": { "type": "Polygon", "coordinates": [ [ [ 113.702983152841199, 30.621269829595121 ], [ 113.702983152841199, 30.636729552953916 ], [ 113.685016847158806, 30.636729552953916 ], [ 113.685016847158806, 30.621269829595121 ], [ 113.702983152841199, 30.621269829595121 ] ] ] } },
{ "type": "Feature", "properties": { "北京时间": "2026-05-11 17:00" }, "geometry": { "type": "Polygon", "coordinates": [ [ [ 114.384983152841187, 31.414333907126128 ], [ 114.384983152841187, 31.42966546628697 ], [ 114.367016847158808, 31.42966546628697 ], [ 114.367016847158808, 31.414333907126128 ], [ 114.384983152841187, 31.414333907126128 ] ] ] } },
{ "type": "Feature", "properties": { "北京时间": "2026-05-11 17:00" }, "geometry": { "type": "Polygon", "coordinates": [ [ [ 113.480983152841176, 30.527262331965012 ], [ 113.480983152841176, 30.542737051698488 ], [ 113.463016847158798, 30.542737051698488 ], [ 113.463016847158798, 30.527262331965012 ], [ 113.480983152841176, 30.527262331965012 ] ] ] } },
{ "type": "Feature", "properties": { "北京时间": "2026-05-11 17:00" }, "geometry": { "type": "Polygon", "coordinates": [ [ [ 113.58798315284119, 30.645271747219191 ], [ 113.58798315284119, 30.660727635046381 ], [ 113.570016847158797, 30.660727635046381 ], [ 113.570016847158797, 30.645271747219191 ], [ 113.58798315284119, 30.645271747219191 ] ] ] } },
{ "type": "Feature", "properties": { "北京时间": "2026-05-11 17:00" }, "geometry": { "type": "Polygon", "coordinates": [ [ [ 113.525983152841178, 30.658272786498483 ], [ 113.525983152841178, 30.673726595613704 ], [ 113.5080168471588, 30.673726595613704 ], [ 113.5080168471588, 30.658272786498483 ], [ 113.525983152841178, 30.658272786498483 ] ] ] } },
{ "type": "Feature", "properties": { "北京时间": "2026-05-11 17:00" }, "geometry": { "type": "Polygon", "coordinates": [ [ [ 113.640983152841201, 30.589267274873201 ], [ 113.640983152841201, 30.604732108054474 ], [ 113.623016847158809, 30.604732108054474 ], [ 113.623016847158809, 30.589267274873201 ], [ 113.640983152841201, 30.589267274873201 ] ] ] } },
{ "type": "Feature", "properties": { "北京时间": "2026-05-11 17:00" }, "geometry": { "type": "Polygon", "coordinates": [ [ [ 113.762983152841215, 30.949296154393537 ], [ 113.762983152841215, 30.964703224318928 ], [ 113.745016847158823, 30.964703224318928 ], [ 113.745016847158823, 30.949296154393537 ], [ 113.762983152841215, 30.949296154393537 ] ] ] } },
{ "type": "Feature", "properties": { "北京时间": "2026-05-11 16:00" }, "geometry": { "type": "Polygon", "coordinates": [ [ [ 114.484983152841195, 31.559345782888595 ], [ 114.484983152841195, 31.574653588905726 ], [ 114.467016847158803, 31.574653588905726 ], [ 114.467016847158803, 31.559345782888595 ], [ 114.484983152841195, 31.559345782888595 ] ] ] } },
{ "type": "Feature", "properties": { "北京时间": "2026-05-11 16:00" }, "geometry": { "type": "Polygon", "coordinates": [ [ [ 113.514983152841182, 30.606268631768913 ], [ 113.514983152841182, 30.621730750957521 ], [ 113.497016847158804, 30.621730750957521 ], [ 113.497016847158804, 30.606268631768913 ], [ 113.514983152841182, 30.606268631768913 ] ] ] } },
{ "type": "Feature", "properties": { "北京时间": "2026-05-11 16:00" }, "geometry": { "type": "Polygon", "coordinates": [ [ [ 113.483983152841205, 30.619269669854347 ], [ 113.483983152841205, 30.634729712718336 ], [ 113.466016847158812, 30.634729712718336 ], [ 113.466016847158812, 30.619269669854347 ], [ 113.483983152841205, 30.619269669854347 ] ] ] } },
{ "type": "Feature", "properties": { "北京时间": "2026-05-11 16:00" }, "geometry": { "type": "Polygon", "coordinates": [ [ [ 113.815983152841184, 31.004300593356138 ], [ 113.815983152841184, 31.019698784720948 ], [ 113.798016847158806, 31.019698784720948 ], [ 113.798016847158806, 31.004300593356138 ], [ 113.815983152841184, 31.004300593356138 ] ] ] } },
{ "type": "Feature", "properties": { "北京时间": "2026-05-11 16:00" }, "geometry": { "type": "Polygon", "coordinates": [ [ [ 113.569983152841189, 30.563265200937881 ], [ 113.569983152841189, 30.578734182298014 ], [ 113.552016847158797, 30.578734182298014 ], [ 113.552016847158797, 30.563265200937881 ], [ 113.569983152841189, 30.563265200937881 ] ] ] } },
{ "type": "Feature", "properties": { "北京时间": "2026-05-11 15:00" }, "geometry": { "type": "Polygon", "coordinates": [ [ [ 113.492983152841177, 30.539263287949911 ], [ 113.492983152841177, 30.554736095570956 ], [ 113.475016847158784, 30.554736095570956 ], [ 113.475016847158784, 30.539263287949911 ], [ 113.492983152841177, 30.539263287949911 ] ] ] } },
{ "type": "Feature", "properties": { "北京时间": "2026-05-11 15:00" }, "geometry": { "type": "Polygon", "coordinates": [ [ [ 113.903983152841192, 31.082306900778146 ], [ 113.903983152841192, 31.097692476401807 ], [ 113.886016847158785, 31.097692476401807 ], [ 113.886016847158785, 31.082306900778146 ], [ 113.903983152841192, 31.082306900778146 ] ] ] } },
{ "type": "Feature", "properties": { "北京时间": "2026-05-11 15:00" }, "geometry": { "type": "Polygon", "coordinates": [ [ [ 114.57398315284118, 31.713358449452802 ], [ 114.57398315284118, 31.728640920639869 ], [ 114.556016847158787, 31.728640920639869 ], [ 114.556016847158787, 31.713358449452802 ], [ 114.57398315284118, 31.713358449452802 ] ] ] } },
{ "type": "Feature", "properties": { "北京时间": "2026-05-11 15:00" }, "geometry": { "type": "Polygon", "coordinates": [ [ [ 113.44598315284118, 30.564265280675173 ], [ 113.44598315284118, 30.579734102548855 ], [ 113.428016847158787, 30.579734102548855 ], [ 113.428016847158787, 30.564265280675173 ], [ 113.44598315284118, 30.564265280675173 ] ] ] } },
{ "type": "Feature", "properties": { "北京时间": "2026-05-11 15:00" }, "geometry": { "type": "Polygon", "coordinates": [ [ [ 113.45498315284118, 30.593267594081539 ], [ 113.45498315284118, 30.608731788798782 ], [ 113.437016847158787, 30.608731788798782 ], [ 113.437016847158787, 30.593267594081539 ], [ 113.45498315284118, 30.593267594081539 ] ] ] } },
{ "type": "Feature", "properties": { "北京时间": "2026-05-11 14:00" }, "geometry": { "type": "Polygon", "coordinates": [ [ [ 114.013983152841178, 31.18131492688536 ], [ 114.013983152841178, 31.196684449162568 ], [ 113.996016847158785, 31.196684449162568 ], [ 113.996016847158785, 31.18131492688536 ], [ 114.013983152841178, 31.18131492688536 ] ] ] } },
{ "type": "Feature", "properties": { "北京时间": "2026-05-11 13:00" }, "geometry": { "type": "Polygon", "coordinates": [ [ [ 113.447983152841175, 30.633270788237617 ], [ 113.447983152841175, 30.648728594169633 ], [ 113.430016847158782, 30.648728594169633 ], [ 113.430016847158782, 30.633270788237617 ], [ 113.447983152841175, 30.633270788237617 ] ] ] } },
{ "type": "Feature", "properties": { "北京时间": "2026-05-11 13:00" }, "geometry": { "type": "Polygon", "coordinates": [ [ [ 114.13098315284121, 31.311325501064385 ], [ 114.13098315284121, 31.326673873508362 ], [ 114.113016847158818, 31.326673873508362 ], [ 114.113016847158818, 31.311325501064385 ], [ 114.13098315284121, 31.311325501064385 ] ] ] } },
{ "type": "Feature", "properties": { "北京时间": "2026-05-11 12:00" }, "geometry": { "type": "Polygon", "coordinates": [ [ [ 113.487983152841196, 30.691275426455675 ], [ 113.487983152841196, 30.706723955267773 ], [ 113.470016847158789, 30.706723955267773 ], [ 113.470016847158789, 30.691275426455675 ], [ 113.487983152841196, 30.691275426455675 ] ] ] } },
{ "type": "Feature", "properties": { "北京时间": "2026-05-11 12:00" }, "geometry": { "type": "Polygon", "coordinates": [ [ [ 114.238983152841186, 31.460337669295043 ], [ 114.238983152841186, 31.475661703602771 ], [ 114.221016847158793, 31.475661703602771 ], [ 114.221016847158793, 31.460337669295043 ], [ 114.238983152841186, 31.460337669295043 ] ] ] } },
{ "type": "Feature", "properties": { "北京时间": "2026-05-11 11:00" }, "geometry": { "type": "Polygon", "coordinates": [ [ [ 114.332983152841194, 31.624351122425971 ], [ 114.332983152841194, 31.639648248647902 ], [ 114.315016847158802, 31.639648248647902 ], [ 114.315016847158802, 31.624351122425971 ], [ 114.332983152841194, 31.624351122425971 ] ] ] } },
{ "type": "Feature", "properties": { "北京时间": "2026-05-11 11:00" }, "geometry": { "type": "Polygon", "coordinates": [ [ [ 113.572983152841189, 30.771281836987171 ], [ 113.572983152841189, 30.786717543797266 ], [ 113.555016847158782, 30.786717543797266 ], [ 113.555016847158782, 30.771281836987171 ], [ 113.572983152841189, 30.771281836987171 ] ] ] } },
{ "type": "Feature", "properties": { "北京时间": "2026-05-11 10:00" }, "geometry": { "type": "Polygon", "coordinates": [ [ [ 113.686983152841179, 30.886291078487726 ], [ 113.686983152841179, 30.901708300955345 ], [ 113.669016847158787, 30.901708300955345 ], [ 113.669016847158787, 30.886291078487726 ], [ 113.686983152841179, 30.886291078487726 ] ] ] } },
{ "type": "Feature", "properties": { "北京时间": "2026-05-11 09:00" }, "geometry": { "type": "Polygon", "coordinates": [ [ [ 113.812983152841213, 31.034303017599456 ], [ 113.812983152841213, 31.049696360132053 ], [ 113.795016847158806, 31.049696360132053 ], [ 113.795016847158806, 31.034303017599456 ], [ 113.812983152841213, 31.034303017599456 ] ] ] } },
{ "type": "Feature", "properties": { "北京时间": "2026-05-11 08:00" }, "geometry": { "type": "Polygon", "coordinates": [ [ [ 113.918983152841179, 31.191315738879666 ], [ 113.918983152841179, 31.206683637054333 ], [ 113.901016847158786, 31.206683637054333 ], [ 113.901016847158786, 31.191315738879666 ], [ 113.918983152841179, 31.191315738879666 ] ] ] } },
{ "type": "Feature", "properties": { "北京时间": "2026-05-11 07:00" }, "geometry": { "type": "Polygon", "coordinates": [ [ [ 114.016983152841178, 31.368330149899155 ], [ 114.016983152841178, 31.383669224030839 ], [ 113.999016847158785, 31.383669224030839 ], [ 113.999016847158785, 31.368330149899155 ], [ 114.016983152841178, 31.368330149899155 ] ] ] } },
{ "type": "Feature", "properties": { "北京时间": "2026-05-11 06:00" }, "geometry": { "type": "Polygon", "coordinates": [ [ [ 114.111983152841177, 31.544344552086539 ], [ 114.111983152841177, 31.559654819874481 ], [ 114.094016847158784, 31.559654819874481 ], [ 114.094016847158784, 31.544344552086539 ], [ 114.111983152841177, 31.544344552086539 ] ] ] } },
{ "type": "Feature", "properties": { "北京时间": "2026-05-11 06:00" }, "geometry": { "type": "Polygon", "coordinates": [ [ [ 113.464983152841185, 30.675274146156323 ], [ 113.464983152841185, 30.690725235755497 ], [ 113.447016847158807, 30.690725235755497 ], [ 113.447016847158807, 30.675274146156323 ], [ 113.464983152841185, 30.675274146156323 ] ] ] } },
{ "type": "Feature", "properties": { "北京时间": "2026-05-11 05:00" }, "geometry": { "type": "Polygon", "coordinates": [ [ [ 114.202983152841185, 31.71935894407336 ], [ 114.202983152841185, 31.734640425953387 ], [ 114.185016847158792, 31.734640425953387 ], [ 114.185016847158792, 31.71935894407336 ], [ 114.202983152841185, 31.71935894407336 ] ] ] } },
{ "type": "Feature", "properties": { "北京时间": "2026-05-11 05:00" }, "geometry": { "type": "Polygon", "coordinates": [ [ [ 113.584983152841176, 30.797283923650699 ], [ 113.584983152841176, 30.812715456829597 ], [ 113.567016847158797, 30.812715456829597 ], [ 113.567016847158797, 30.797283923650699 ], [ 113.584983152841176, 30.797283923650699 ] ] ] } },
{ "type": "Feature", "properties": { "北京时间": "2026-05-11 04:00" }, "geometry": { "type": "Polygon", "coordinates": [ [ [ 113.681983152841198, 30.95229639633574 ], [ 113.681983152841198, 30.967702982342001 ], [ 113.664016847158791, 30.967702982342001 ], [ 113.664016847158791, 30.95229639633574 ], [ 113.681983152841198, 30.95229639633574 ] ] ] } },
{ "type": "Feature", "properties": { "北京时间": "2026-05-11 03:00" }, "geometry": { "type": "Polygon", "coordinates": [ [ [ 113.757983152841192, 31.132310951498081 ], [ 113.757983152841192, 31.147688425109227 ], [ 113.740016847158785, 31.147688425109227 ], [ 113.740016847158785, 31.132310951498081 ], [ 113.757983152841192, 31.132310951498081 ] ] ] } },
{ "type": "Feature", "properties": { "北京时间": "2026-05-11 02:00" }, "geometry": { "type": "Polygon", "coordinates": [ [ [ 113.821983152841185, 31.318326071564847 ], [ 113.821983152841185, 31.333673302928837 ], [ 113.804016847158806, 31.333673302928837 ], [ 113.804016847158806, 31.318326071564847 ], [ 113.821983152841185, 31.318326071564847 ] ] ] } },
{ "type": "Feature", "properties": { "北京时间": "2026-05-11 00:00" }, "geometry": { "type": "Polygon", "coordinates": [ [ [ 113.443983152841184, 30.908292849967374 ], [ 113.443983152841184, 30.923706529220212 ], [ 113.426016847158792, 30.923706529220212 ], [ 113.426016847158792, 30.908292849967374 ], [ 113.443983152841184, 30.908292849967374 ] ] ] } },
{ "type": "Feature", "properties": { "北京时间": "2026-05-10 23:00" }, "geometry": { "type": "Polygon", "coordinates": [ [ [ 113.535983152841197, 31.134311113648696 ], [ 113.535983152841197, 31.149688262935726 ], [ 113.51801684715879, 31.149688262935726 ], [ 113.51801684715879, 31.134311113648696 ], [ 113.535983152841197, 31.134311113648696 ] ] ] } },
{ "type": "Feature", "properties": { "北京时间": "2026-05-10 22:00" }, "geometry": { "type": "Polygon", "coordinates": [ [ [ 113.608983152841176, 31.364329823417403 ], [ 113.608983152841176, 31.37966955055763 ], [ 113.591016847158784, 31.37966955055763 ], [ 113.591016847158784, 31.364329823417403 ], [ 113.608983152841176, 31.364329823417403 ] ] ] } },
{ "type": "Feature", "properties": { "北京时间": "2026-05-10 06:00" }, "geometry": { "type": "Polygon", "coordinates": [ [ [ 113.473983152841186, 30.993299704995838 ], [ 113.473983152841186, 31.008699673208138 ], [ 113.456016847158793, 31.008699673208138 ], [ 113.456016847158793, 30.993299704995838 ], [ 113.473983152841186, 30.993299704995838 ] ] ] } },
{ "type": "Feature", "properties": { "北京时间": "2026-05-10 05:00" }, "geometry": { "type": "Polygon", "coordinates": [ [ [ 113.568983152841199, 31.249320453062392 ], [ 113.568983152841199, 31.264678922212308 ], [ 113.551016847158806, 31.264678922212308 ], [ 113.551016847158806, 31.249320453062392 ], [ 113.568983152841199, 31.249320453062392 ] ] ] } }
]
}
