{
"type": "FeatureCollection",
"name": "东城",
"crs": { "type": "name", "properties": { "name": "urn:ogc:def:crs:OGC:1.3:CRS84" } },
"features": [
{ "type": "Feature", "properties": { "北京时间": "2026-05-12 01:00" }, "geometry": { "type": "Polygon", "coordinates": [ [ [ 113.950983152841175, 30.899292125133776 ], [ 113.950983152841175, 30.914707254158273 ], [ 113.933016847158797, 30.914707254158273 ], [ 113.933016847158797, 30.899292125133776 ], [ 113.950983152841175, 30.899292125133776 ] ] ] } },
{ "type": "Feature", "properties": { "北京时间": "2026-05-12 00:00" }, "geometry": { "type": "Polygon", "coordinates": [ [ [ 113.875983152841201, 30.860288986386372 ], [ 113.875983152841201, 30.875710393359071 ], [ 113.858016847158808, 30.875710393359071 ], [ 113.858016847158808, 30.860288986386372 ], [ 113.875983152841201, 30.860288986386372 ] ] ] } },
{ "type": "Feature", "properties": { "北京时间": "2026-05-12 00:00" }, "geometry": { "type": "Polygon", "coordinates": [ [ [ 113.8669831528412, 30.759280874447779 ], [ 113.8669831528412, 30.7747185064772 ], [ 113.849016847158808, 30.7747185064772 ], [ 113.849016847158808, 30.759280874447779 ], [ 113.8669831528412, 30.759280874447779 ] ] ] } },
{ "type": "Feature", "properties": { "北京时间": "2026-05-12 00:00" }, "geometry": { "type": "Polygon", "coordinates": [ [ [ 113.915983152841179, 30.763281195256621 ], [ 113.915983152841179, 30.778718185621504 ], [ 113.898016847158786, 30.778718185621504 ], [ 113.898016847158786, 30.763281195256621 ], [ 113.915983152841179, 30.763281195256621 ] ] ] } },
{ "type": "Feature", "properties": { "北京时间": "2026-05-12 00:00" }, "geometry": { "type": "Polygon", "coordinates": [ [ [ 113.871983152841182, 30.823286011903324 ], [ 113.871983152841182, 30.838713368273343 ], [ 113.854016847158803, 30.838713368273343 ], [ 113.854016847158803, 30.823286011903324 ], [ 113.871983152841182, 30.823286011903324 ] ] ] } },
{ "type": "Feature", "properties": { "北京时间": "2026-05-12 00:00" }, "geometry": { "type": "Polygon", "coordinates": [ [ [ 113.916983152841198, 30.832286735130168 ], [ 113.916983152841198, 30.847712644941517 ], [ 113.899016847158805, 30.847712644941517 ], [ 113.899016847158805, 30.832286735130168 ], [ 113.916983152841198, 30.832286735130168 ] ] ] } },
{ "type": "Feature", "properties": { "北京时间": "2026-05-12 00:00" }, "geometry": { "type": "Polygon", "coordinates": [ [ [ 113.95498315284118, 30.820285770870012 ], [ 113.95498315284118, 30.835713609341667 ], [ 113.937016847158787, 30.835713609341667 ], [ 113.937016847158787, 30.820285770870012 ], [ 113.95498315284118, 30.820285770870012 ] ] ] } },
{ "type": "Feature", "properties": { "北京时间": "2026-05-12 00:00" }, "geometry": { "type": "Polygon", "coordinates": [ [ [ 113.94598315284118, 30.794283682800717 ], [ 113.94598315284118, 30.80971569771464 ], [ 113.928016847158787, 30.80971569771464 ], [ 113.928016847158787, 30.794283682800717 ], [ 113.94598315284118, 30.794283682800717 ] ] ] } },
{ "type": "Feature", "properties": { "北京时间": "2026-05-12 00:00" }, "geometry": { "type": "Polygon", "coordinates": [ [ [ 113.924983152841193, 30.808284806948279 ], [ 113.924983152841193, 30.823714573403496 ], [ 113.9070168471588, 30.823714573403496 ], [ 113.9070168471588, 30.808284806948279 ], [ 113.924983152841193, 30.808284806948279 ] ] ] } },
{ "type": "Feature", "properties": { "北京时间": "2026-05-12 00:00" }, "geometry": { "type": "Polygon", "coordinates": [ [ [ 113.908983152841188, 30.90129228619147 ], [ 113.908983152841188, 30.916707093077353 ], [ 113.891016847158809, 30.916707093077353 ], [ 113.891016847158809, 30.90129228619147 ], [ 113.908983152841188, 30.90129228619147 ] ] ] } },
{ "type": "Feature", "properties": { "北京时间": "2026-05-12 00:00" }, "geometry": { "type": "Polygon", "coordinates": [ [ [ 113.872983152841186, 30.804284485716256 ], [ 113.872983152841186, 30.819714894682253 ], [ 113.855016847158808, 30.819714894682253 ], [ 113.855016847158808, 30.804284485716256 ], [ 113.872983152841186, 30.804284485716256 ] ] ] } },
{ "type": "Feature", "properties": { "北京时间": "2026-05-12 00:00" }, "geometry": { "type": "Polygon", "coordinates": [ [ [ 113.876983152841191, 30.770281756762618 ], [ 113.876983152841191, 30.785717624033524 ], [ 113.859016847158799, 30.785717624033524 ], [ 113.859016847158799, 30.770281756762618 ], [ 113.876983152841191, 30.770281756762618 ] ] ] } },
{ "type": "Feature", "properties": { "北京时间": "2026-05-12 00:00" }, "geometry": { "type": "Polygon", "coordinates": [ [ [ 113.944983152841203, 30.812285128217919 ], [ 113.944983152841203, 30.827714252087141 ], [ 113.927016847158811, 30.827714252087141 ], [ 113.927016847158811, 30.812285128217919 ], [ 113.944983152841203, 30.812285128217919 ] ] ] } },
{ "type": "Feature", "properties": { "北京时间": "2026-05-12 00:00" }, "geometry": { "type": "Polygon", "coordinates": [ [ [ 113.898983152841183, 30.859288905952653 ], [ 113.898983152841183, 30.874710473804445 ], [ 113.88101684715879, 30.874710473804445 ], [ 113.88101684715879, 30.859288905952653 ], [ 113.898983152841183, 30.859288905952653 ] ] ] } },
{ "type": "Feature", "properties": { "北京时间": "2026-05-12 00:00" }, "geometry": { "type": "Polygon", "coordinates": [ [ [ 113.871983152841182, 30.741279431273657 ], [ 113.871983152841182, 30.756719949862344 ], [ 113.854016847158803, 30.756719949862344 ], [ 113.854016847158803, 30.741279431273657 ], [ 113.871983152841182, 30.741279431273657 ] ] ] } },
{ "type": "Feature", "properties": { "北京时间": "2026-05-12 00:00" }, "geometry": { "type": "Polygon", "coordinates": [ [ [ 113.910983152841197, 30.794283682800717 ], [ 113.910983152841197, 30.80971569771464 ], [ 113.893016847158805, 30.80971569771464 ], [ 113.893016847158805, 30.794283682800717 ], [ 113.910983152841197, 30.794283682800717 ] ] ] } },
{ "type": "Feature", "properties": { "北京时间": "2026-05-12 00:00" }, "geometry": { "type": "Polygon", "coordinates": [ [ [ 113.914983152841202, 30.771281836987171 ], [ 113.914983152841202, 30.786717543797266 ], [ 113.89701684715881, 30.786717543797266 ], [ 113.89701684715881, 30.771281836987171 ], [ 113.914983152841202, 30.771281836987171 ] ] ] } },
{ "type": "Feature", "properties": { "北京时间": "2026-05-12 00:00" }, "geometry": { "type": "Polygon", "coordinates": [ [ [ 113.8549831528412, 30.740279351119668 ], [ 113.8549831528412, 30.755720030028066 ], [ 113.837016847158807, 30.755720030028066 ], [ 113.837016847158807, 30.740279351119668 ], [ 113.8549831528412, 30.740279351119668 ] ] ] } },
{ "type": "Feature", "properties": { "北京时间": "2026-05-12 00:00" }, "geometry": { "type": "Polygon", "coordinates": [ [ [ 113.949983152841199, 30.807284726636745 ], [ 113.949983152841199, 30.822714653726695 ], [ 113.932016847158792, 30.822714653726695 ], [ 113.932016847158792, 30.807284726636745 ], [ 113.949983152841199, 30.807284726636745 ] ] ] } },
{ "type": "Feature", "properties": { "北京时间": "2026-05-12 00:00" }, "geometry": { "type": "Polygon", "coordinates": [ [ [ 113.901983152841197, 30.775282157908876 ], [ 113.901983152841197, 30.790717222828729 ], [ 113.88401684715879, 30.790717222828729 ], [ 113.88401684715879, 30.775282157908876 ], [ 113.901983152841197, 30.775282157908876 ] ] ] } },
{ "type": "Feature", "properties": { "北京时间": "2026-05-12 00:00" }, "geometry": { "type": "Polygon", "coordinates": [ [ [ 113.917983152841188, 30.771281836987171 ], [ 113.917983152841188, 30.786717543797266 ], [ 113.90001684715881, 30.786717543797266 ], [ 113.90001684715881, 30.771281836987171 ], [ 113.917983152841188, 30.771281836987171 ] ] ] } },
{ "type": "Feature", "properties": { "北京时间": "2026-05-11 23:00" }, "geometry": { "type": "Polygon", "coordinates": [ [ [ 113.881983152841187, 30.773281997443313 ], [ 113.881983152841187, 30.788717383317692 ], [ 113.864016847158794, 30.788717383317692 ], [ 113.864016847158794, 30.773281997443313 ], [ 113.881983152841187, 30.773281997443313 ] ] ] } },
{ "type": "Feature", "properties": { "北京时间": "2026-05-11 23:00" }, "geometry": { "type": "Polygon", "coordinates": [ [ [ 113.782983152841183, 30.581266636569616 ], [ 113.782983152841183, 30.596732746452833 ], [ 113.76501684715879, 30.596732746452833 ], [ 113.76501684715879, 30.581266636569616 ], [ 113.782983152841183, 30.581266636569616 ] ] ] } },
{ "type": "Feature", "properties": { "北京时间": "2026-05-11 23:00" }, "geometry": { "type": "Polygon", "coordinates": [ [ [ 113.93998315284118, 30.685274946272809 ], [ 113.93998315284118, 30.700724435521252 ], [ 113.922016847158801, 30.700724435521252 ], [ 113.922016847158801, 30.685274946272809 ], [ 113.93998315284118, 30.685274946272809 ] ] ] } },
{ "type": "Feature", "properties": { "北京时间": "2026-05-11 23:00" }, "geometry": { "type": "Polygon", "coordinates": [ [ [ 113.795983152841202, 30.758280794251448 ], [ 113.795983152841202, 30.773718586685245 ], [ 113.77801684715881, 30.773718586685245 ], [ 113.77801684715881, 30.758280794251448 ], [ 113.795983152841202, 30.758280794251448 ] ] ] } },
{ "type": "Feature", "properties": { "北京时间": "2026-05-11 23:00" }, "geometry": { "type": "Polygon", "coordinates": [ [ [ 113.800983152841184, 30.834286895873088 ], [ 113.800983152841184, 30.849712484175267 ], [ 113.783016847158791, 30.849712484175267 ], [ 113.783016847158791, 30.834286895873088 ], [ 113.800983152841184, 30.834286895873088 ] ] ] } },
{ "type": "Feature", "properties": { "北京时间": "2026-05-11 23:00" }, "geometry": { "type": "Polygon", "coordinates": [ [ [ 113.760983152841177, 30.584266875915802 ], [ 113.760983152841177, 30.599732507071121 ], [ 113.743016847158785, 30.599732507071121 ], [ 113.743016847158785, 30.584266875915802 ], [ 113.760983152841177, 30.584266875915802 ] ] ] } },
{ "type": "Feature", "properties": { "北京时间": "2026-05-11 23:00" }, "geometry": { "type": "Polygon", "coordinates": [ [ [ 113.872983152841186, 30.630270548545205 ], [ 113.872983152841186, 30.645728833897486 ], [ 113.855016847158808, 30.645728833897486 ], [ 113.855016847158808, 30.630270548545205 ], [ 113.872983152841186, 30.630270548545205 ] ] ] } },
{ "type": "Feature", "properties": { "北京时间": "2026-05-11 23:00" }, "geometry": { "type": "Polygon", "coordinates": [ [ [ 113.896983152841187, 30.658272786498483 ], [ 113.896983152841187, 30.673726595613704 ], [ 113.879016847158795, 30.673726595613704 ], [ 113.879016847158795, 30.658272786498483 ], [ 113.896983152841187, 30.658272786498483 ] ] ] } },
{ "type": "Feature", "properties": { "北京时间": "2026-05-11 23:00" }, "geometry": { "type": "Polygon", "coordinates": [ [ [ 113.886983152841196, 30.715277348034263 ], [ 113.886983152841196, 30.730722033406991 ], [ 113.869016847158804, 30.730722033406991 ], [ 113.869016847158804, 30.715277348034263 ], [ 113.886983152841196, 30.715277348034263 ] ] ] } },
{ "type": "Feature", "properties": { "北京时间": "2026-05-11 23:00" }, "geometry": { "type": "Polygon", "coordinates": [ [ [ 113.885983152841192, 30.915293413858322 ], [ 113.885983152841192, 30.930705965248041 ], [ 113.868016847158799, 30.930705965248041 ], [ 113.868016847158799, 30.915293413858322 ], [ 113.885983152841192, 30.915293413858322 ] ] ] } },
{ "type": "Feature", "properties": { "北京时间": "2026-05-11 23:00" }, "geometry": { "type": "Polygon", "coordinates": [ [ [ 113.791983152841183, 30.717277508226978 ], [ 113.791983152841183, 30.732721873190759 ], [ 113.774016847158791, 30.732721873190759 ], [ 113.774016847158791, 30.717277508226978 ], [ 113.791983152841183, 30.717277508226978 ] ] ] } },
{ "type": "Feature", "properties": { "北京时间": "2026-05-11 23:00" }, "geometry": { "type": "Polygon", "coordinates": [ [ [ 113.895983152841183, 30.637271107860467 ], [ 113.895983152841183, 30.652728274499541 ], [ 113.87801684715879, 30.652728274499541 ], [ 113.87801684715879, 30.637271107860467 ], [ 113.895983152841183, 30.637271107860467 ] ] ] } },
{ "type": "Feature", "properties": { "北京时间": "2026-05-11 23:00" }, "geometry": { "type": "Polygon", "coordinates": [ [ [ 113.846983152841176, 30.649272066955056 ], [ 113.846983152841176, 30.664727315263299 ], [ 113.829016847158798, 30.664727315263299 ], [ 113.829016847158798, 30.649272066955056 ], [ 113.846983152841176, 30.649272066955056 ] ] ] } },
{ "type": "Feature", "properties": { "北京时间": "2026-05-11 23:00" }, "geometry": { "type": "Polygon", "coordinates": [ [ [ 113.785983152841183, 30.617269510122988 ], [ 113.785983152841183, 30.632729872473341 ], [ 113.76801684715879, 30.632729872473341 ], [ 113.76801684715879, 30.617269510122988 ], [ 113.785983152841183, 30.617269510122988 ] ] ] } },
{ "type": "Feature", "properties": { "北京时间": "2026-05-11 23:00" }, "geometry": { "type": "Polygon", "coordinates": [ [ [ 113.929983152841189, 30.712277107762809 ], [ 113.929983152841189, 30.727722273713667 ], [ 113.912016847158796, 30.727722273713667 ], [ 113.912016847158796, 30.712277107762809 ], [ 113.929983152841189, 30.712277107762809 ] ] ] } },
{ "type": "Feature", "properties": { "北京时间": "2026-05-11 23:00" }, "geometry": { "type": "Polygon", "coordinates": [ [ [ 113.83498315284119, 30.813285208541203 ], [ 113.83498315284119, 30.828714171752175 ], [ 113.817016847158797, 30.828714171752175 ], [ 113.817016847158797, 30.813285208541203 ], [ 113.83498315284119, 30.813285208541203 ] ] ] } },
{ "type": "Feature", "properties": { "北京时间": "2026-05-11 23:00" }, "geometry": { "type": "Polygon", "coordinates": [ [ [ 113.798983152841203, 30.637271107860467 ], [ 113.798983152841203, 30.652728274499541 ], [ 113.78101684715881, 30.652728274499541 ], [ 113.78101684715881, 30.637271107860467 ], [ 113.798983152841203, 30.637271107860467 ] ] ] } },
{ "type": "Feature", "properties": { "北京时间": "2026-05-11 23:00" }, "geometry": { "type": "Polygon", "coordinates": [ [ [ 113.864983152841191, 30.688275186353657 ], [ 113.864983152841191, 30.703724195405115 ], [ 113.847016847158798, 30.703724195405115 ], [ 113.847016847158798, 30.688275186353657 ], [ 113.864983152841191, 30.688275186353657 ] ] ] } },
{ "type": "Feature", "properties": { "北京时间": "2026-05-11 22:00" }, "geometry": { "type": "Polygon", "coordinates": [ [ [ 113.940983152841198, 30.582266716349324 ], [ 113.940983152841198, 30.597732666661283 ], [ 113.923016847158792, 30.597732666661283 ], [ 113.923016847158792, 30.582266716349324 ], [ 113.940983152841198, 30.582266716349324 ] ] ] } },
{ "type": "Feature", "properties": { "北京时间": "2026-05-11 22:00" }, "geometry": { "type": "Polygon", "coordinates": [ [ [ 113.83598315284118, 30.725278149091981 ], [ 113.83598315284118, 30.740721232231792 ], [ 113.818016847158802, 30.740721232231792 ], [ 113.818016847158802, 30.725278149091981 ], [ 113.83598315284118, 30.725278149091981 ] ] ] } },
{ "type": "Feature", "properties": { "北京时间": "2026-05-11 22:00" }, "geometry": { "type": "Polygon", "coordinates": [ [ [ 113.810983152841189, 30.480258590959632 ], [ 113.810983152841189, 30.495740793263568 ], [ 113.79301684715881, 30.495740793263568 ], [ 113.79301684715881, 30.480258590959632 ], [ 113.810983152841189, 30.480258590959632 ] ] ] } },
{ "type": "Feature", "properties": { "北京时间": "2026-05-11 22:00" }, "geometry": { "type": "Polygon", "coordinates": [ [ [ 113.708983152841199, 30.472257954711552 ], [ 113.708983152841199, 30.487741429607087 ], [ 113.691016847158807, 30.487741429607087 ], [ 113.691016847158807, 30.472257954711552 ], [ 113.708983152841199, 30.472257954711552 ] ] ] } },
{ "type": "Feature", "properties": { "北京时间": "2026-05-11 22:00" }, "geometry": { "type": "Polygon", "coordinates": [ [ [ 113.716983152841209, 30.509260898624142 ], [ 113.716983152841209, 30.524738485253497 ], [ 113.699016847158802, 30.524738485253497 ], [ 113.699016847158802, 30.509260898624142 ], [ 113.716983152841209, 30.509260898624142 ] ] ] } },
{ "type": "Feature", "properties": { "北京时间": "2026-05-11 22:00" }, "geometry": { "type": "Polygon", "coordinates": [ [ [ 113.682983152841189, 30.419253743381333 ], [ 113.682983152841189, 30.434745641570771 ], [ 113.665016847158796, 30.434745641570771 ], [ 113.665016847158796, 30.419253743381333 ], [ 113.682983152841189, 30.419253743381333 ] ] ] } },
{ "type": "Feature", "properties": { "北京时间": "2026-05-11 22:00" }, "geometry": { "type": "Polygon", "coordinates": [ [ [ 113.816983152841203, 30.581266636569616 ], [ 113.816983152841203, 30.596732746452833 ], [ 113.799016847158811, 30.596732746452833 ], [ 113.799016847158811, 30.581266636569616 ], [ 113.816983152841203, 30.581266636569616 ] ] ] } },
{ "type": "Feature", "properties": { "北京时间": "2026-05-11 22:00" }, "geometry": { "type": "Polygon", "coordinates": [ [ [ 113.896983152841187, 30.606268631768913 ], [ 113.896983152841187, 30.621730750957521 ], [ 113.879016847158795, 30.621730750957521 ], [ 113.879016847158795, 30.606268631768913 ], [ 113.896983152841187, 30.606268631768913 ] ] ] } },
{ "type": "Feature", "properties": { "北京时间": "2026-05-11 22:00" }, "geometry": { "type": "Polygon", "coordinates": [ [ [ 113.726983152841186, 30.703276387075547 ], [ 113.726983152841186, 30.718722994506741 ], [ 113.709016847158793, 30.718722994506741 ], [ 113.709016847158793, 30.703276387075547 ], [ 113.726983152841186, 30.703276387075547 ] ] ] } },
{ "type": "Feature", "properties": { "北京时间": "2026-05-11 22:00" }, "geometry": { "type": "Polygon", "coordinates": [ [ [ 113.889983152841182, 30.945295831836795 ], [ 113.889983152841182, 30.960703546921962 ], [ 113.87201684715879, 30.960703546921962 ], [ 113.87201684715879, 30.945295831836795 ], [ 113.889983152841182, 30.945295831836795 ] ] ] } },
{ "type": "Feature", "properties": { "北京时间": "2026-05-11 22:00" }, "geometry": { "type": "Polygon", "coordinates": [ [ [ 113.878983152841187, 30.528262411617444 ], [ 113.878983152841187, 30.543736972034143 ], [ 113.861016847158794, 30.543736972034143 ], [ 113.861016847158794, 30.528262411617444 ], [ 113.878983152841187, 30.528262411617444 ] ] ] } },
{ "type": "Feature", "properties": { "北京时间": "2026-05-11 22:00" }, "geometry": { "type": "Polygon", "coordinates": [ [ [ 113.678983152841184, 30.435255014027938 ], [ 113.678983152841184, 30.450744370732718 ], [ 113.661016847158791, 30.450744370732718 ], [ 113.661016847158791, 30.435255014027938 ], [ 113.678983152841184, 30.435255014027938 ] ] ] } },
{ "type": "Feature", "properties": { "北京时间": "2026-05-11 22:00" }, "geometry": { "type": "Polygon", "coordinates": [ [ [ 113.708983152841199, 30.638271187772059 ], [ 113.708983152841199, 30.653728194576122 ], [ 113.691016847158807, 30.653728194576122 ], [ 113.691016847158807, 30.638271187772059 ], [ 113.708983152841199, 30.638271187772059 ] ] ] } },
{ "type": "Feature", "properties": { "北京时间": "2026-05-11 22:00" }, "geometry": { "type": "Polygon", "coordinates": [ [ [ 113.784983152841178, 30.527262331965012 ], [ 113.784983152841178, 30.542737051698488 ], [ 113.7670168471588, 30.542737051698488 ], [ 113.7670168471588, 30.527262331965012 ], [ 113.784983152841178, 30.527262331965012 ] ] ] } },
{ "type": "Feature", "properties": { "北京时间": "2026-05-11 22:00" }, "geometry": { "type": "Polygon", "coordinates": [ [ [ 113.760983152841177, 30.764281275464707 ], [ 113.760983152841177, 30.779718105401699 ], [ 113.743016847158785, 30.779718105401699 ], [ 113.743016847158785, 30.764281275464707 ], [ 113.760983152841177, 30.764281275464707 ] ] ] } },
{ "type": "Feature", "properties": { "北京时间": "2026-05-11 22:00" }, "geometry": { "type": "Polygon", "coordinates": [ [ [ 113.906983152841178, 30.623269989345321 ], [ 113.906983152841178, 30.638729393180071 ], [ 113.889016847158786, 30.638729393180071 ], [ 113.889016847158786, 30.623269989345321 ], [ 113.906983152841178, 30.623269989345321 ] ] ] } },
{ "type": "Feature", "properties": { "北京时间": "2026-05-11 22:00" }, "geometry": { "type": "Polygon", "coordinates": [ [ [ 113.839983152841185, 30.621269829595121 ], [ 113.839983152841185, 30.636729552953916 ], [ 113.822016847158793, 30.636729552953916 ], [ 113.822016847158793, 30.621269829595121 ], [ 113.839983152841185, 30.621269829595121 ] ] ] } },
{ "type": "Feature", "properties": { "北京时间": "2026-05-11 22:00" }, "geometry": { "type": "Polygon", "coordinates": [ [ [ 113.910983152841197, 30.607268711607507 ], [ 113.910983152841197, 30.622730671107099 ], [ 113.893016847158805, 30.622730671107099 ], [ 113.893016847158805, 30.607268711607507 ], [ 113.910983152841197, 30.607268711607507 ] ] ] } },
{ "type": "Feature", "properties": { "北京时间": "2026-05-11 22:00" }, "geometry": { "type": "Polygon", "coordinates": [ [ [ 113.893983152841201, 30.555264563124396 ], [ 113.893983152841201, 30.570734820206429 ], [ 113.876016847158809, 30.570734820206429 ], [ 113.876016847158809, 30.555264563124396 ], [ 113.893983152841201, 30.555264563124396 ] ] ] } },
{ "type": "Feature", "properties": { "北京时间": "2026-05-11 22:00" }, "geometry": { "type": "Polygon", "coordinates": [ [ [ 113.730983152841191, 30.817285529857848 ], [ 113.730983152841191, 30.832713850388842 ], [ 113.713016847158798, 30.832713850388842 ], [ 113.713016847158798, 30.817285529857848 ], [ 113.730983152841191, 30.817285529857848 ] ] ] } },
{ "type": "Feature", "properties": { "北京时间": "2026-05-11 21:00" }, "geometry": { "type": "Polygon", "coordinates": [ [ [ 113.669983152841183, 30.800284164521834 ], [ 113.669983152841183, 30.815715215923397 ], [ 113.652016847158805, 30.815715215923397 ], [ 113.652016847158805, 30.800284164521834 ], [ 113.669983152841183, 30.800284164521834 ] ] ] } },
{ "type": "Feature", "properties": { "北京时间": "2026-05-11 21:00" }, "geometry": { "type": "Polygon", "coordinates": [ [ [ 113.683983152841193, 30.71827758832687 ], [ 113.683983152841193, 30.733721793079116 ], [ 113.666016847158801, 30.733721793079116 ], [ 113.666016847158801, 30.71827758832687 ], [ 113.683983152841193, 30.71827758832687 ] ] ] } },
{ "type": "Feature", "properties": { "北京时间": "2026-05-11 21:00" }, "geometry": { "type": "Polygon", "coordinates": [ [ [ 113.667983152841188, 30.652272306781679 ], [ 113.667983152841188, 30.667727075401285 ], [ 113.650016847158795, 30.667727075401285 ], [ 113.650016847158795, 30.652272306781679 ], [ 113.667983152841188, 30.652272306781679 ] ] ] } },
{ "type": "Feature", "properties": { "北京时间": "2026-05-11 21:00" }, "geometry": { "type": "Polygon", "coordinates": [ [ [ 113.780983152841188, 30.687275106324346 ], [ 113.780983152841188, 30.702724275446169 ], [ 113.763016847158795, 30.702724275446169 ], [ 113.763016847158795, 30.687275106324346 ], [ 113.780983152841188, 30.687275106324346 ] ] ] } },
{ "type": "Feature", "properties": { "北京时间": "2026-05-11 21:00" }, "geometry": { "type": "Polygon", "coordinates": [ [ [ 113.765983152841187, 30.470257795673117 ], [ 113.765983152841187, 30.485741588669391 ], [ 113.748016847158809, 30.485741588669391 ], [ 113.748016847158809, 30.470257795673117 ], [ 113.765983152841187, 30.470257795673117 ] ] ] } },
{ "type": "Feature", "properties": { "北京时间": "2026-05-11 21:00" }, "geometry": { "type": "Polygon", "coordinates": [ [ [ 113.625983152841187, 30.568265599647905 ], [ 113.625983152841187, 30.583733783528686 ], [ 113.608016847158794, 30.583733783528686 ], [ 113.608016847158794, 30.568265599647905 ], [ 113.625983152841187, 30.568265599647905 ] ] ] } },
{ "type": "Feature", "properties": { "北京时间": "2026-05-11 21:00" }, "geometry": { "type": "Polygon", "coordinates": [ [ [ 113.926983152841188, 30.993299704995838 ], [ 113.926983152841188, 31.008699673208138 ], [ 113.909016847158796, 31.008699673208138 ], [ 113.909016847158796, 30.993299704995838 ], [ 113.926983152841188, 30.993299704995838 ] ] ] } },
{ "type": "Feature", "properties": { "北京时间": "2026-05-11 21:00" }, "geometry": { "type": "Polygon", "coordinates": [ [ [ 113.781983152841192, 30.526262252314918 ], [ 113.781983152841192, 30.54173713136046 ], [ 113.7640168471588, 30.54173713136046 ], [ 113.7640168471588, 30.526262252314918 ], [ 113.781983152841192, 30.526262252314918 ] ] ] } },
{ "type": "Feature", "properties": { "北京时间": "2026-05-11 21:00" }, "geometry": { "type": "Polygon", "coordinates": [ [ [ 113.716983152841209, 30.405252632061146 ], [ 113.716983152841209, 30.420746753058648 ], [ 113.699016847158802, 30.420746753058648 ], [ 113.699016847158802, 30.405252632061146 ], [ 113.716983152841209, 30.405252632061146 ] ] ] } },
{ "type": "Feature", "properties": { "北京时间": "2026-05-11 20:00" }, "geometry": { "type": "Polygon", "coordinates": [ [ [ 113.622983152841201, 30.780282559113914 ], [ 113.622983152841201, 30.795716821565179 ], [ 113.605016847158794, 30.795716821565179 ], [ 113.605016847158794, 30.780282559113914 ], [ 113.622983152841201, 30.780282559113914 ] ] ] } },
{ "type": "Feature", "properties": { "北京时间": "2026-05-11 20:00" }, "geometry": { "type": "Polygon", "coordinates": [ [ [ 113.609983152841195, 30.679274466174675 ], [ 113.609983152841195, 30.694724915690042 ], [ 113.592016847158803, 30.694724915690042 ], [ 113.592016847158803, 30.679274466174675 ], [ 113.609983152841195, 30.679274466174675 ] ] ] } },
{ "type": "Feature", "properties": { "北京时间": "2026-05-11 20:00" }, "geometry": { "type": "Polygon", "coordinates": [ [ [ 113.995983152841177, 31.064305443953184 ], [ 113.995983152841177, 31.079693933433393 ], [ 113.978016847158798, 31.079693933433393 ], [ 113.978016847158798, 31.064305443953184 ], [ 113.995983152841177, 31.064305443953184 ] ] ] } },
{ "type": "Feature", "properties": { "北京时间": "2026-05-11 20:00" }, "geometry": { "type": "Polygon", "coordinates": [ [ [ 113.548983152841203, 30.507260739411208 ], [ 113.548983152841203, 30.522738644490264 ], [ 113.53101684715881, 30.522738644490264 ], [ 113.53101684715881, 30.507260739411208 ], [ 113.548983152841203, 30.507260739411208 ] ] ] } },
{ "type": "Feature", "properties": { "北京时间": "2026-05-11 20:00" }, "geometry": { "type": "Polygon", "coordinates": [ [ [ 113.6169831528412, 30.606268631768913 ], [ 113.6169831528412, 30.621730750957521 ], [ 113.599016847158808, 30.621730750957521 ], [ 113.599016847158808, 30.606268631768913 ], [ 113.6169831528412, 30.606268631768913 ] ] ] } },
{ "type": "Feature", "properties": { "北京时间": "2026-05-11 20:00" }, "geometry": { "type": "Polygon", "coordinates": [ [ [ 113.714983152841214, 30.434254934594833 ], [ 113.714983152841214, 30.449744450177796 ], [ 113.697016847158807, 30.449744450177796 ], [ 113.697016847158807, 30.434254934594833 ], [ 113.714983152841214, 30.434254934594833 ] ] ] } },
{ "type": "Feature", "properties": { "北京时间": "2026-05-11 20:00" }, "geometry": { "type": "Polygon", "coordinates": [ [ [ 113.71898315284119, 30.653272386728599 ], [ 113.71898315284119, 30.668726995442583 ], [ 113.701016847158797, 30.668726995442583 ], [ 113.701016847158797, 30.653272386728599 ], [ 113.71898315284119, 30.653272386728599 ] ] ] } },
{ "type": "Feature", "properties": { "北京时间": "2026-05-11 19:00" }, "geometry": { "type": "Polygon", "coordinates": [ [ [ 113.536983152841202, 30.641271427520998 ], [ 113.536983152841202, 30.656727954791791 ], [ 113.519016847158809, 30.656727954791791 ], [ 113.519016847158809, 30.641271427520998 ], [ 113.536983152841202, 30.641271427520998 ] ] ] } },
{ "type": "Feature", "properties": { "北京时间": "2026-05-11 19:00" }, "geometry": { "type": "Polygon", "coordinates": [ [ [ 113.5929831528412, 30.764281275464707 ], [ 113.5929831528412, 30.779718105401699 ], [ 113.575016847158807, 30.779718105401699 ], [ 113.575016847158807, 30.764281275464707 ], [ 113.5929831528412, 30.764281275464707 ] ] ] } },
{ "type": "Feature", "properties": { "北京时间": "2026-05-11 19:00" }, "geometry": { "type": "Polygon", "coordinates": [ [ [ 114.089983152841185, 31.155312816795959 ], [ 114.089983152841185, 31.170686559548553 ], [ 114.072016847158793, 31.170686559548553 ], [ 114.072016847158793, 31.155312816795959 ], [ 114.089983152841185, 31.155312816795959 ] ] ] } },
{ "type": "Feature", "properties": { "北京时间": "2026-05-11 19:00" }, "geometry": { "type": "Polygon", "coordinates": [ [ [ 113.472983152841195, 30.45325644422736 ], [ 113.472983152841195, 30.468742940318112 ], [ 113.455016847158802, 30.468742940318112 ], [ 113.455016847158802, 30.45325644422736 ], [ 113.472983152841195, 30.45325644422736 ] ] ] } },
{ "type": "Feature", "properties": { "北京时间": "2026-05-11 19:00" }, "geometry": { "type": "Polygon", "coordinates": [ [ [ 113.563983152841189, 30.568265599647905 ], [ 113.563983152841189, 30.583733783528686 ], [ 113.546016847158796, 30.583733783528686 ], [ 113.546016847158796, 30.568265599647905 ], [ 113.563983152841189, 30.568265599647905 ] ] ] } },
{ "type": "Feature", "properties": { "北京时间": "2026-05-11 19:00" }, "geometry": { "type": "Polygon", "coordinates": [ [ [ 113.647983152841178, 30.618269589987491 ], [ 113.647983152841178, 30.633729792597023 ], [ 113.630016847158785, 30.633729792597023 ], [ 113.630016847158785, 30.618269589987491 ], [ 113.647983152841178, 30.618269589987491 ] ] ] } },
{ "type": "Feature", "properties": { "北京时间": "2026-05-11 18:00" }, "geometry": { "type": "Polygon", "coordinates": [ [ [ 113.572983152841189, 30.584266875915802 ], [ 113.572983152841189, 30.599732507071121 ], [ 113.555016847158782, 30.599732507071121 ], [ 113.555016847158782, 30.584266875915802 ], [ 113.572983152841189, 30.584266875915802 ] ] ] } },
{ "type": "Feature", "properties": { "北京时间": "2026-05-11 18:00" }, "geometry": { "type": "Polygon", "coordinates": [ [ [ 113.583983152841199, 30.765281355675139 ], [ 113.583983152841199, 30.780718025179539 ], [ 113.566016847158792, 30.780718025179539 ], [ 113.566016847158792, 30.765281355675139 ], [ 113.583983152841199, 30.765281355675139 ] ] ] } },
{ "type": "Feature", "properties": { "北京时间": "2026-05-11 18:00" }, "geometry": { "type": "Polygon", "coordinates": [ [ [ 113.47198315284119, 30.601268232611265 ], [ 113.47198315284119, 30.616731150174328 ], [ 113.454016847158798, 30.616731150174328 ], [ 113.454016847158798, 30.601268232611265 ], [ 113.47198315284119, 30.601268232611265 ] ] ] } },
{ "type": "Feature", "properties": { "北京时间": "2026-05-11 18:00" }, "geometry": { "type": "Polygon", "coordinates": [ [ [ 114.20198315284118, 31.271322243259782 ], [ 114.20198315284118, 31.286677131765504 ], [ 114.184016847158787, 31.286677131765504 ], [ 114.184016847158787, 31.271322243259782 ], [ 114.20198315284118, 31.271322243259782 ] ] ] } },
{ "type": "Feature", "properties": { "北京时间": "2026-05-11 18:00" }, "geometry": { "type": "Polygon", "coordinates": [ [ [ 113.499983152841196, 30.540263367630626 ], [ 113.499983152841196, 30.555736015878345 ], [ 113.482016847158803, 30.555736015878345 ], [ 113.482016847158803, 30.540263367630626 ], [ 113.499983152841196, 30.540263367630626 ] ] ] } },
{ "type": "Feature", "properties": { "北京时间": "2026-05-11 17:00" }, "geometry": { "type": "Polygon", "coordinates": [ [ [ 113.59698315284119, 30.785282960377732 ], [ 113.59698315284119, 30.800716420242868 ], [ 113.579016847158798, 30.800716420242868 ], [ 113.579016847158798, 30.785282960377732 ], [ 113.59698315284119, 30.785282960377732 ] ] ] } },
{ "type": "Feature", "properties": { "北京时间": "2026-05-11 17:00" }, "geometry": { "type": "Polygon", "coordinates": [ [ [ 113.496983152841196, 30.551264244274218 ], [ 113.496983152841196, 30.566735139104114 ], [ 113.479016847158803, 30.566735139104114 ], [ 113.479016847158803, 30.551264244274218 ], [ 113.496983152841196, 30.551264244274218 ] ] ] } },
{ "type": "Feature", "properties": { "北京时间": "2026-05-11 17:00" }, "geometry": { "type": "Polygon", "coordinates": [ [ [ 114.316983152841189, 31.408333416772741 ], [ 114.316983152841189, 31.423665956707705 ], [ 114.299016847158811, 31.423665956707705 ], [ 114.299016847158811, 31.408333416772741 ], [ 114.316983152841189, 31.408333416772741 ] ] ] } },
{ "type": "Feature", "properties": { "北京时间": "2026-05-11 16:00" }, "geometry": { "type": "Polygon", "coordinates": [ [ [ 113.634983152841187, 30.827286333313971 ], [ 113.634983152841187, 30.842713046816026 ], [ 113.617016847158794, 30.842713046816026 ], [ 113.617016847158794, 30.827286333313971 ], [ 113.634983152841187, 30.827286333313971 ] ] ] } },
{ "type": "Feature", "properties": { "北京时间": "2026-05-11 16:00" }, "geometry": { "type": "Polygon", "coordinates": [ [ [ 114.420983152841188, 31.558345700818805 ], [ 114.420983152841188, 31.573653670986626 ], [ 114.40301684715881, 31.573653670986626 ], [ 114.40301684715881, 31.558345700818805 ], [ 114.420983152841188, 31.558345700818805 ] ] ] } },
{ "type": "Feature", "properties": { "北京时间": "2026-05-11 15:00" }, "geometry": { "type": "Polygon", "coordinates": [ [ [ 113.70498315284118, 30.902292366723842 ], [ 113.70498315284118, 30.917707012533374 ], [ 113.687016847158787, 30.917707012533374 ], [ 113.687016847158787, 30.902292366723842 ], [ 113.70498315284118, 30.902292366723842 ] ] ] } },
{ "type": "Feature", "properties": { "北京时间": "2026-05-11 15:00" }, "geometry": { "type": "Polygon", "coordinates": [ [ [ 114.509983152841201, 31.7163586967526 ], [ 114.509983152841201, 31.731640673307098 ], [ 114.492016847158808, 31.731640673307098 ], [ 114.492016847158808, 31.7163586967526 ], [ 114.509983152841201, 31.7163586967526 ] ] ] } },
{ "type": "Feature", "properties": { "北京时间": "2026-05-11 14:00" }, "geometry": { "type": "Polygon", "coordinates": [ [ [ 113.813983152841189, 31.011301158824118 ], [ 113.813983152841189, 31.026698219172278 ], [ 113.79601684715881, 31.026698219172278 ], [ 113.79601684715881, 31.011301158824118 ], [ 113.813983152841189, 31.011301158824118 ] ] ] } },
{ "type": "Feature", "properties": { "北京时间": "2026-05-11 13:00" }, "geometry": { "type": "Polygon", "coordinates": [ [ [ 113.926983152841188, 31.132310951498081 ], [ 113.926983152841188, 31.147688425109227 ], [ 113.909016847158796, 31.147688425109227 ], [ 113.909016847158796, 31.132310951498081 ], [ 113.926983152841188, 31.132310951498081 ] ] ] } },
{ "type": "Feature", "properties": { "北京时间": "2026-05-11 12:00" }, "geometry": { "type": "Polygon", "coordinates": [ [ [ 114.029983152841183, 31.278322813105479 ], [ 114.029983152841183, 31.293676561840538 ], [ 114.012016847158804, 31.293676561840538 ], [ 114.012016847158804, 31.278322813105479 ], [ 114.029983152841183, 31.278322813105479 ] ] ] } },
{ "type": "Feature", "properties": { "北京时间": "2026-05-11 11:00" }, "geometry": { "type": "Polygon", "coordinates": [ [ [ 113.458983152841185, 30.679274466174675 ], [ 113.458983152841185, 30.694724915690042 ], [ 113.441016847158807, 30.694724915690042 ], [ 113.441016847158807, 30.679274466174675 ], [ 113.458983152841185, 30.679274466174675 ] ] ] } },
{ "type": "Feature", "properties": { "北京时间": "2026-05-11 11:00" }, "geometry": { "type": "Polygon", "coordinates": [ [ [ 114.126983152841191, 31.442336196553601 ], [ 114.126983152841191, 31.457663176545655 ], [ 114.109016847158799, 31.457663176545655 ], [ 114.109016847158799, 31.442336196553601 ], [ 114.126983152841191, 31.442336196553601 ] ] ] } },
{ "type": "Feature", "properties": { "北京时间": "2026-05-11 10:00" }, "geometry": { "type": "Polygon", "coordinates": [ [ [ 114.211983152841199, 31.611350053730643 ], [ 114.211983152841199, 31.62664931748705 ], [ 114.194016847158807, 31.62664931748705 ], [ 114.194016847158807, 31.611350053730643 ], [ 114.211983152841199, 31.611350053730643 ] ] ] } },
{ "type": "Feature", "properties": { "北京时间": "2026-05-11 10:00" }, "geometry": { "type": "Polygon", "coordinates": [ [ [ 113.580983152841185, 30.787283120899716 ], [ 113.580983152841185, 30.802716259697487 ], [ 113.563016847158792, 30.802716259697487 ], [ 113.563016847158792, 30.787283120899716 ], [ 113.580983152841185, 30.787283120899716 ] ] ] } },
{ "type": "Feature", "properties": { "北京时间": "2026-05-11 09:00" }, "geometry": { "type": "Polygon", "coordinates": [ [ [ 113.705983152841213, 30.933294864391883 ], [ 113.705983152841213, 30.948704514505835 ], [ 113.688016847158806, 30.948704514505835 ], [ 113.688016847158806, 30.933294864391883 ], [ 113.705983152841213, 30.933294864391883 ] ] ] } },
{ "type": "Feature", "properties": { "北京时间": "2026-05-11 08:00" }, "geometry": { "type": "Polygon", "coordinates": [ [ [ 113.812983152841213, 31.10430868237323 ], [ 113.812983152841213, 31.119690694554524 ], [ 113.795016847158806, 31.119690694554524 ], [ 113.795016847158806, 31.10430868237323 ], [ 113.812983152841213, 31.10430868237323 ] ] ] } },
{ "type": "Feature", "properties": { "北京时间": "2026-05-11 07:00" }, "geometry": { "type": "Polygon", "coordinates": [ [ [ 113.904983152841183, 31.286323464498025 ], [ 113.904983152841183, 31.301675910357424 ], [ 113.88701684715879, 31.301675910357424 ], [ 113.88701684715879, 31.286323464498025 ], [ 113.904983152841183, 31.286323464498025 ] ] ] } },
{ "type": "Feature", "properties": { "北京时间": "2026-05-11 05:00" }, "geometry": { "type": "Polygon", "coordinates": [ [ [ 113.47198315284119, 30.709276867512546 ], [ 113.47198315284119, 30.724722513999204 ], [ 113.454016847158798, 30.724722513999204 ], [ 113.454016847158798, 30.709276867512546 ], [ 113.47198315284119, 30.709276867512546 ] ] ] } },
{ "type": "Feature", "properties": { "北京时间": "2026-05-11 04:00" }, "geometry": { "type": "Polygon", "coordinates": [ [ [ 114.204983152841194, 31.828367944264699 ], [ 114.204983152841194, 31.843631424569143 ], [ 114.187016847158802, 31.843631424569143 ], [ 114.187016847158802, 31.828367944264699 ], [ 114.204983152841194, 31.828367944264699 ] ] ] } },
{ "type": "Feature", "properties": { "北京时间": "2026-05-11 04:00" }, "geometry": { "type": "Polygon", "coordinates": [ [ [ 113.577983152841185, 30.857288745092252 ], [ 113.577983152841185, 30.872710634688126 ], [ 113.560016847158792, 30.872710634688126 ], [ 113.560016847158792, 30.857288745092252 ], [ 113.577983152841185, 30.857288745092252 ] ] ] } },
{ "type": "Feature", "properties": { "北京时间": "2026-05-11 03:00" }, "geometry": { "type": "Polygon", "coordinates": [ [ [ 113.653983152841178, 31.038303340991362 ], [ 113.653983152841178, 31.053696036694109 ], [ 113.636016847158785, 31.053696036694109 ], [ 113.636016847158785, 31.038303340991362 ], [ 113.653983152841178, 31.038303340991362 ] ] ] } },
{ "type": "Feature", "properties": { "北京时间": "2026-05-11 02:00" }, "geometry": { "type": "Polygon", "coordinates": [ [ [ 113.711983152841199, 31.231318989197675 ], [ 113.711983152841199, 31.246680386281348 ], [ 113.694016847158807, 31.246680386281348 ], [ 113.694016847158807, 31.231318989197675 ], [ 113.711983152841199, 31.231318989197675 ] ] ] } },
{ "type": "Feature", "properties": { "北京时间": "2026-05-11 01:00" }, "geometry": { "type": "Polygon", "coordinates": [ [ [ 113.760983152841177, 31.423334642813874 ], [ 113.760983152841177, 31.438664730498285 ], [ 113.743016847158785, 31.438664730498285 ], [ 113.743016847158785, 31.423334642813874 ], [ 113.760983152841177, 31.423334642813874 ] ] ] } },
{ "type": "Feature", "properties": { "北京时间": "2026-05-10 06:00" }, "geometry": { "type": "Polygon", "coordinates": [ [ [ 113.446983152841199, 31.343328110001611 ], [ 113.446983152841199, 31.358671264210003 ], [ 113.429016847158806, 31.358671264210003 ], [ 113.429016847158806, 31.343328110001611 ], [ 113.446983152841199, 31.343328110001611 ] ] ] } }
]
}
