{
"type": "FeatureCollection",
"name": "东城",
"crs": { "type": "name", "properties": { "name": "urn:ogc:def:crs:OGC:1.3:CRS84" } },
"features": [
{ "type": "Feature", "properties": { "北京时间": "2026-05-17 06:00" }, "geometry": { "type": "Polygon", "coordinates": [ [ [ 113.950983152841175, 30.899292125133776 ], [ 113.950983152841175, 30.914707254158273 ], [ 113.933016847158797, 30.914707254158273 ], [ 113.933016847158797, 30.899292125133776 ], [ 113.950983152841175, 30.899292125133776 ] ] ] } },
{ "type": "Feature", "properties": { "北京时间": "2026-05-17 05:00" }, "geometry": { "type": "Polygon", "coordinates": [ [ [ 113.997983152841201, 31.008300916466617 ], [ 113.997983152841201, 31.023698461564344 ], [ 113.980016847158808, 31.023698461564344 ], [ 113.980016847158808, 31.008300916466617 ], [ 113.997983152841201, 31.008300916466617 ] ] ] } },
{ "type": "Feature", "properties": { "北京时间": "2026-05-17 05:00" }, "geometry": { "type": "Polygon", "coordinates": [ [ [ 114.144983152841178, 30.812285128217919 ], [ 114.144983152841178, 30.827714252087141 ], [ 114.127016847158799, 30.827714252087141 ], [ 114.127016847158799, 30.812285128217919 ], [ 114.144983152841178, 30.812285128217919 ] ] ] } },
{ "type": "Feature", "properties": { "北京时间": "2026-05-17 05:00" }, "geometry": { "type": "Polygon", "coordinates": [ [ [ 114.008983152841196, 30.895291803046565 ], [ 114.008983152841196, 30.910707576291937 ], [ 113.991016847158804, 30.910707576291937 ], [ 113.991016847158804, 30.895291803046565 ], [ 114.008983152841196, 30.895291803046565 ] ] ] } },
{ "type": "Feature", "properties": { "北京时间": "2026-05-17 05:00" }, "geometry": { "type": "Polygon", "coordinates": [ [ [ 113.956983152841175, 30.959296960949679 ], [ 113.956983152841175, 30.974702417647062 ], [ 113.939016847158783, 30.974702417647062 ], [ 113.939016847158783, 30.959296960949679 ], [ 113.956983152841175, 30.959296960949679 ] ] ] } },
{ "type": "Feature", "properties": { "北京时间": "2026-05-17 05:00" }, "geometry": { "type": "Polygon", "coordinates": [ [ [ 114.014983152841197, 30.922293977864317 ], [ 114.014983152841197, 30.937705401160873 ], [ 113.99701684715879, 30.937705401160873 ], [ 113.99701684715879, 30.922293977864317 ], [ 114.014983152841197, 30.922293977864317 ] ] ] } },
{ "type": "Feature", "properties": { "北京时间": "2026-05-17 05:00" }, "geometry": { "type": "Polygon", "coordinates": [ [ [ 113.996983152841182, 30.927294380796173 ], [ 113.996983152841182, 30.94270499817106 ], [ 113.979016847158789, 30.94270499817106 ], [ 113.979016847158789, 30.927294380796173 ], [ 113.996983152841182, 30.927294380796173 ] ] ] } },
{ "type": "Feature", "properties": { "北京时间": "2026-05-17 05:00" }, "geometry": { "type": "Polygon", "coordinates": [ [ [ 114.032983152841197, 30.914293333295433 ], [ 114.032983152841197, 30.929706045822542 ], [ 114.015016847158805, 30.929706045822542 ], [ 114.015016847158805, 30.914293333295433 ], [ 114.032983152841197, 30.914293333295433 ] ] ] } },
{ "type": "Feature", "properties": { "北京时间": "2026-05-17 05:00" }, "geometry": { "type": "Polygon", "coordinates": [ [ [ 114.017983152841197, 30.917293574991167 ], [ 114.017983152841197, 30.932705804092027 ], [ 114.000016847158804, 30.932705804092027 ], [ 114.000016847158804, 30.917293574991167 ], [ 114.017983152841197, 30.917293574991167 ] ] ] } },
{ "type": "Feature", "properties": { "北京时间": "2026-05-17 05:00" }, "geometry": { "type": "Polygon", "coordinates": [ [ [ 114.148983152841183, 30.848288021336728 ], [ 114.148983152841183, 30.863711358548457 ], [ 114.13101684715879, 30.863711358548457 ], [ 114.13101684715879, 30.848288021336728 ], [ 114.148983152841183, 30.848288021336728 ] ] ] } },
{ "type": "Feature", "properties": { "北京时间": "2026-05-17 05:00" }, "geometry": { "type": "Polygon", "coordinates": [ [ [ 114.1079831528412, 30.854288503819255 ], [ 114.1079831528412, 30.869710875996034 ], [ 114.090016847158807, 30.869710875996034 ], [ 114.090016847158807, 30.854288503819255 ], [ 114.1079831528412, 30.854288503819255 ] ] ] } },
{ "type": "Feature", "properties": { "北京时间": "2026-05-17 05:00" }, "geometry": { "type": "Polygon", "coordinates": [ [ [ 114.124983152841196, 30.782282719612382 ], [ 114.124983152841196, 30.7977166610433 ], [ 114.107016847158803, 30.7977166610433 ], [ 114.107016847158803, 30.782282719612382 ], [ 114.124983152841196, 30.782282719612382 ] ] ] } },
{ "type": "Feature", "properties": { "北京时间": "2026-05-17 05:00" }, "geometry": { "type": "Polygon", "coordinates": [ [ [ 114.156983152841192, 30.761281034847489 ], [ 114.156983152841192, 30.776718346054043 ], [ 114.1390168471588, 30.776718346054043 ], [ 114.1390168471588, 30.761281034847489 ], [ 114.156983152841192, 30.761281034847489 ] ] ] } },
{ "type": "Feature", "properties": { "北京时间": "2026-05-17 05:00" }, "geometry": { "type": "Polygon", "coordinates": [ [ [ 114.183983152841193, 30.745279751913156 ], [ 114.183983152841193, 30.760719629175917 ], [ 114.166016847158801, 30.760719629175917 ], [ 114.166016847158801, 30.745279751913156 ], [ 114.183983152841193, 30.745279751913156 ] ] ] } },
{ "type": "Feature", "properties": { "北京时间": "2026-05-17 05:00" }, "geometry": { "type": "Polygon", "coordinates": [ [ [ 114.168983152841179, 30.758280794251448 ], [ 114.168983152841179, 30.773718586685245 ], [ 114.151016847158786, 30.773718586685245 ], [ 114.151016847158786, 30.758280794251448 ], [ 114.168983152841179, 30.758280794251448 ] ] ] } },
{ "type": "Feature", "properties": { "北京时间": "2026-05-17 05:00" }, "geometry": { "type": "Polygon", "coordinates": [ [ [ 114.171983152841193, 30.838287217387133 ], [ 114.171983152841193, 30.853712162614585 ], [ 114.154016847158786, 30.853712162614585 ], [ 114.154016847158786, 30.838287217387133 ], [ 114.171983152841193, 30.838287217387133 ] ] ] } },
{ "type": "Feature", "properties": { "北京时间": "2026-05-17 05:00" }, "geometry": { "type": "Polygon", "coordinates": [ [ [ 114.1079831528412, 30.879290515073471 ], [ 114.1079831528412, 30.894708864450955 ], [ 114.090016847158807, 30.894708864450955 ], [ 114.090016847158807, 30.879290515073471 ], [ 114.1079831528412, 30.879290515073471 ] ] ] } },
{ "type": "Feature", "properties": { "北京时间": "2026-05-17 05:00" }, "geometry": { "type": "Polygon", "coordinates": [ [ [ 114.037983152841178, 30.923294058445993 ], [ 114.037983152841178, 30.938705320567607 ], [ 114.0200168471588, 30.938705320567607 ], [ 114.0200168471588, 30.923294058445993 ], [ 114.037983152841178, 30.923294058445993 ] ] ] } },
{ "type": "Feature", "properties": { "北京时间": "2026-05-17 05:00" }, "geometry": { "type": "Polygon", "coordinates": [ [ [ 114.059983152841198, 30.924294139030021 ], [ 114.059983152841198, 30.939705239971985 ], [ 114.042016847158806, 30.939705239971985 ], [ 114.042016847158806, 30.924294139030021 ], [ 114.059983152841198, 30.924294139030021 ] ] ] } },
{ "type": "Feature", "properties": { "北京时间": "2026-05-17 05:00" }, "geometry": { "type": "Polygon", "coordinates": [ [ [ 114.038983152841197, 30.918293655561101 ], [ 114.038983152841197, 30.933705723510489 ], [ 114.021016847158805, 30.933705723510489 ], [ 114.021016847158805, 30.918293655561101 ], [ 114.038983152841197, 30.918293655561101 ] ] ] } },
{ "type": "Feature", "properties": { "北京时间": "2026-05-17 04:00" }, "geometry": { "type": "Polygon", "coordinates": [ [ [ 113.934983152841198, 31.026302370928182 ], [ 113.934983152841198, 31.041697006895401 ], [ 113.917016847158806, 31.041697006895401 ], [ 113.917016847158806, 31.026302370928182 ], [ 113.934983152841198, 31.026302370928182 ] ] ] } },
{ "type": "Feature", "properties": { "北京时间": "2026-05-17 04:00" }, "geometry": { "type": "Polygon", "coordinates": [ [ [ 114.114983152841177, 30.926294300205114 ], [ 114.114983152841177, 30.941705078773722 ], [ 114.097016847158784, 30.941705078773722 ], [ 114.097016847158784, 30.926294300205114 ], [ 114.114983152841177, 30.926294300205114 ] ] ] } },
{ "type": "Feature", "properties": { "北京时间": "2026-05-17 04:00" }, "geometry": { "type": "Polygon", "coordinates": [ [ [ 114.080983152841185, 30.936295106221419 ], [ 114.080983152841185, 30.951704272641553 ], [ 114.063016847158792, 30.951704272641553 ], [ 114.063016847158792, 30.936295106221419 ], [ 114.080983152841185, 30.936295106221419 ] ] ] } },
{ "type": "Feature", "properties": { "北京时间": "2026-05-17 04:00" }, "geometry": { "type": "Polygon", "coordinates": [ [ [ 114.076983152841194, 30.88829123948436 ], [ 114.076983152841194, 30.903708139935461 ], [ 114.059016847158802, 30.903708139935461 ], [ 114.059016847158802, 30.88829123948436 ], [ 114.076983152841194, 30.88829123948436 ] ] ] } },
{ "type": "Feature", "properties": { "北京时间": "2026-05-17 04:00" }, "geometry": { "type": "Polygon", "coordinates": [ [ [ 114.164983152841202, 30.936295106221419 ], [ 114.164983152841202, 30.951704272641553 ], [ 114.14701684715881, 30.951704272641553 ], [ 114.14701684715881, 30.936295106221419 ], [ 114.164983152841202, 30.936295106221419 ] ] ] } },
{ "type": "Feature", "properties": { "北京时间": "2026-05-17 04:00" }, "geometry": { "type": "Polygon", "coordinates": [ [ [ 114.08498315284119, 31.126310465102414 ], [ 114.08498315284119, 31.141688911573503 ], [ 114.067016847158797, 31.141688911573503 ], [ 114.067016847158797, 31.126310465102414 ], [ 114.08498315284119, 31.126310465102414 ] ] ] } },
{ "type": "Feature", "properties": { "北京时间": "2026-05-17 04:00" }, "geometry": { "type": "Polygon", "coordinates": [ [ [ 114.055983152841179, 30.95829688028352 ], [ 114.055983152841179, 30.973702498324819 ], [ 114.038016847158787, 30.973702498324819 ], [ 114.038016847158787, 30.95829688028352 ], [ 114.055983152841179, 30.95829688028352 ] ] ] } },
{ "type": "Feature", "properties": { "北京时间": "2026-05-17 04:00" }, "geometry": { "type": "Polygon", "coordinates": [ [ [ 114.123983152841191, 30.926294300205114 ], [ 114.123983152841191, 30.941705078773722 ], [ 114.106016847158784, 30.941705078773722 ], [ 114.106016847158784, 30.926294300205114 ], [ 114.123983152841191, 30.926294300205114 ] ] ] } },
{ "type": "Feature", "properties": { "北京时间": "2026-05-17 04:00" }, "geometry": { "type": "Polygon", "coordinates": [ [ [ 114.103983152841181, 30.932294783786734 ], [ 114.103983152841181, 30.947704595122588 ], [ 114.086016847158788, 30.947704595122588 ], [ 114.086016847158788, 30.932294783786734 ], [ 114.103983152841181, 30.932294783786734 ] ] ] } },
{ "type": "Feature", "properties": { "北京时间": "2026-05-17 04:00" }, "geometry": { "type": "Polygon", "coordinates": [ [ [ 114.081983152841175, 30.941295509317605 ], [ 114.081983152841175, 30.956703869487473 ], [ 114.064016847158783, 30.956703869487473 ], [ 114.064016847158783, 30.941295509317605 ], [ 114.081983152841175, 30.941295509317605 ] ] ] } },
{ "type": "Feature", "properties": { "北京时间": "2026-05-17 03:00" }, "geometry": { "type": "Polygon", "coordinates": [ [ [ 114.151983152841183, 30.884290917500479 ], [ 114.151983152841183, 30.899708461965826 ], [ 114.13401684715879, 30.899708461965826 ], [ 114.13401684715879, 30.884290917500479 ], [ 114.151983152841183, 30.884290917500479 ] ] ] } },
{ "type": "Feature", "properties": { "北京时间": "2026-05-17 03:00" }, "geometry": { "type": "Polygon", "coordinates": [ [ [ 114.156983152841192, 30.928294461389601 ], [ 114.156983152841192, 30.943704917566063 ], [ 114.1390168471588, 30.943704917566063 ], [ 114.1390168471588, 30.928294461389601 ], [ 114.156983152841192, 30.928294461389601 ] ] ] } },
{ "type": "Feature", "properties": { "北京时间": "2026-05-17 03:00" }, "geometry": { "type": "Polygon", "coordinates": [ [ [ 113.923983152841203, 31.113309411534463 ], [ 113.923983152841203, 31.128689965290221 ], [ 113.90601684715881, 31.128689965290221 ], [ 113.90601684715881, 31.113309411534463 ], [ 113.923983152841203, 31.113309411534463 ] ] ] } },
{ "type": "Feature", "properties": { "北京时间": "2026-05-17 03:00" }, "geometry": { "type": "Polygon", "coordinates": [ [ [ 114.187983152841184, 31.226318582703136 ], [ 114.187983152841184, 31.241680792832689 ], [ 114.170016847158792, 31.241680792832689 ], [ 114.170016847158792, 31.226318582703136 ], [ 114.187983152841184, 31.226318582703136 ] ] ] } },
{ "type": "Feature", "properties": { "北京时间": "2026-05-17 03:00" }, "geometry": { "type": "Polygon", "coordinates": [ [ [ 114.134983152841201, 31.000300270283191 ], [ 114.134983152841201, 31.015699107840035 ], [ 114.117016847158794, 31.015699107840035 ], [ 114.117016847158794, 31.000300270283191 ], [ 114.134983152841201, 31.000300270283191 ] ] ] } },
{ "type": "Feature", "properties": { "北京时间": "2026-05-17 03:00" }, "geometry": { "type": "Polygon", "coordinates": [ [ [ 114.139983152841182, 30.957296799619687 ], [ 114.139983152841182, 30.97270257900022 ], [ 114.12201684715879, 30.97270257900022 ], [ 114.12201684715879, 30.957296799619687 ], [ 114.139983152841182, 30.957296799619687 ] ] ] } },
{ "type": "Feature", "properties": { "北京时间": "2026-05-17 03:00" }, "geometry": { "type": "Polygon", "coordinates": [ [ [ 114.150983152841178, 30.948296073750829 ], [ 114.150983152841178, 30.963703304973198 ], [ 114.133016847158785, 30.963703304973198 ], [ 114.133016847158785, 30.948296073750829 ], [ 114.150983152841178, 30.948296073750829 ] ] ] } },
{ "type": "Feature", "properties": { "北京时间": "2026-05-17 02:00" }, "geometry": { "type": "Polygon", "coordinates": [ [ [ 113.979983152841186, 31.224318420121698 ], [ 113.979983152841186, 31.239680955436857 ], [ 113.962016847158807, 31.239680955436857 ], [ 113.962016847158807, 31.224318420121698 ], [ 113.979983152841186, 31.224318420121698 ] ] ] } },
{ "type": "Feature", "properties": { "北京时间": "2026-05-17 01:00" }, "geometry": { "type": "Polygon", "coordinates": [ [ [ 114.31498315284118, 31.400332763099005 ], [ 114.31498315284118, 31.415666610471245 ], [ 114.297016847158787, 31.415666610471245 ], [ 114.297016847158787, 31.400332763099005 ], [ 114.31498315284118, 31.400332763099005 ] ] ] } },
{ "type": "Feature", "properties": { "北京时间": "2026-05-17 01:00" }, "geometry": { "type": "Polygon", "coordinates": [ [ [ 114.135983152841192, 31.357329252164288 ], [ 114.135983152841192, 31.372670121889559 ], [ 114.118016847158799, 31.372670121889559 ], [ 114.118016847158799, 31.357329252164288 ], [ 114.135983152841192, 31.357329252164288 ] ] ] } },
{ "type": "Feature", "properties": { "北京时间": "2026-05-17 00:00" }, "geometry": { "type": "Polygon", "coordinates": [ [ [ 114.380983152841196, 31.485339716023969 ], [ 114.380983152841196, 31.500659656594468 ], [ 114.363016847158804, 31.500659656594468 ], [ 114.363016847158804, 31.485339716023969 ], [ 114.380983152841196, 31.485339716023969 ] ] ] } },
{ "type": "Feature", "properties": { "北京时间": "2026-05-17 00:00" }, "geometry": { "type": "Polygon", "coordinates": [ [ [ 114.336983152841185, 31.516342255993482 ], [ 114.336983152841185, 31.531657116279206 ], [ 114.319016847158807, 31.531657116279206 ], [ 114.319016847158807, 31.516342255993482 ], [ 114.336983152841185, 31.516342255993482 ] ] ] } },
{ "type": "Feature", "properties": { "北京时间": "2026-05-16 23:00" }, "geometry": { "type": "Polygon", "coordinates": [ [ [ 114.425983152841198, 31.559345782888595 ], [ 114.425983152841198, 31.574653588905726 ], [ 114.408016847158805, 31.574653588905726 ], [ 114.408016847158805, 31.559345782888595 ], [ 114.425983152841198, 31.559345782888595 ] ] ] } },
{ "type": "Feature", "properties": { "北京时间": "2026-05-16 23:00" }, "geometry": { "type": "Polygon", "coordinates": [ [ [ 114.496983152841182, 31.681355812892104 ], [ 114.496983152841182, 31.696643557552676 ], [ 114.479016847158803, 31.696643557552676 ], [ 114.479016847158803, 31.681355812892104 ], [ 114.496983152841182, 31.681355812892104 ] ] ] } },
{ "type": "Feature", "properties": { "北京时间": "2026-05-16 22:00" }, "geometry": { "type": "Polygon", "coordinates": [ [ [ 114.450983152841204, 31.629351533567494 ], [ 114.450983152841204, 31.644647837451078 ], [ 114.433016847158797, 31.644647837451078 ], [ 114.433016847158797, 31.629351533567494 ], [ 114.450983152841204, 31.629351533567494 ] ] ] } },
{ "type": "Feature", "properties": { "北京时间": "2026-05-16 21:00" }, "geometry": { "type": "Polygon", "coordinates": [ [ [ 114.469983152841181, 31.704357707679119 ], [ 114.469983152841181, 31.719641662512501 ], [ 114.452016847158788, 31.719641662512501 ], [ 114.452016847158788, 31.704357707679119 ], [ 114.469983152841181, 31.704357707679119 ] ] ] } },
{ "type": "Feature", "properties": { "北京时间": "2026-05-16 09:00" }, "geometry": { "type": "Polygon", "coordinates": [ [ [ 114.114983152841177, 31.784364307833144 ], [ 114.114983152841177, 31.799635061481133 ], [ 114.097016847158784, 31.799635061481133 ], [ 114.097016847158784, 31.784364307833144 ], [ 114.114983152841177, 31.784364307833144 ] ] ] } },
{ "type": "Feature", "properties": { "北京时间": "2026-05-16 08:00" }, "geometry": { "type": "Polygon", "coordinates": [ [ [ 114.126983152841191, 31.665354495505969 ], [ 114.126983152841191, 31.680644875115135 ], [ 114.109016847158799, 31.680644875115135 ], [ 114.109016847158799, 31.665354495505969 ], [ 114.126983152841191, 31.665354495505969 ] ] ] } },
{ "type": "Feature", "properties": { "北京时间": "2026-05-16 07:00" }, "geometry": { "type": "Polygon", "coordinates": [ [ [ 114.183983152841193, 31.523342829845298 ], [ 114.183983152841193, 31.538656542349425 ], [ 114.166016847158801, 31.538656542349425 ], [ 114.166016847158801, 31.523342829845298 ], [ 114.183983152841193, 31.523342829845298 ] ] ] } },
{ "type": "Feature", "properties": { "北京时间": "2026-05-16 06:00" }, "geometry": { "type": "Polygon", "coordinates": [ [ [ 114.282983152841197, 31.350328681025694 ], [ 114.282983152841197, 31.36567069310702 ], [ 114.265016847158805, 31.36567069310702 ], [ 114.265016847158805, 31.350328681025694 ], [ 114.282983152841197, 31.350328681025694 ] ] ] } },
{ "type": "Feature", "properties": { "北京时间": "2026-05-15 15:00" }, "geometry": { "type": "Polygon", "coordinates": [ [ [ 114.32898315284119, 31.379331047916757 ], [ 114.32898315284119, 31.394668325889484 ], [ 114.311016847158797, 31.394668325889484 ], [ 114.311016847158797, 31.379331047916757 ], [ 114.32898315284119, 31.379331047916757 ] ] ] } },
{ "type": "Feature", "properties": { "北京时间": "2026-05-15 09:00" }, "geometry": { "type": "Polygon", "coordinates": [ [ [ 113.924983152841193, 30.573265998416815 ], [ 113.924983152841193, 30.588733384700458 ], [ 113.9070168471588, 30.588733384700458 ], [ 113.9070168471588, 30.573265998416815 ], [ 113.924983152841193, 30.573265998416815 ] ] ] } }
]
}
