{
"type": "FeatureCollection",
"name": "东城",
"crs": { "type": "name", "properties": { "name": "urn:ogc:def:crs:OGC:1.3:CRS84" } },
"features": [
{ "type": "Feature", "properties": { "北京时间": "2026-05-10 23:00" }, "geometry": { "type": "Polygon", "coordinates": [ [ [ 113.950983152841175, 30.899292125133776 ], [ 113.950983152841175, 30.914707254158273 ], [ 113.933016847158797, 30.914707254158273 ], [ 113.933016847158797, 30.899292125133776 ], [ 113.950983152841175, 30.899292125133776 ] ] ] } },
{ "type": "Feature", "properties": { "北京时间": "2026-05-10 22:00" }, "geometry": { "type": "Polygon", "coordinates": [ [ [ 113.888983152841206, 30.773281997443313 ], [ 113.888983152841206, 30.788717383317692 ], [ 113.871016847158799, 30.788717383317692 ], [ 113.871016847158799, 30.773281997443313 ], [ 113.888983152841206, 30.773281997443313 ] ] ] } },
{ "type": "Feature", "properties": { "北京时间": "2026-05-10 22:00" }, "geometry": { "type": "Polygon", "coordinates": [ [ [ 113.889983152841182, 30.829286494033393 ], [ 113.889983152841182, 30.844712886073264 ], [ 113.87201684715879, 30.844712886073264 ], [ 113.87201684715879, 30.829286494033393 ], [ 113.889983152841182, 30.829286494033393 ] ] ] } },
{ "type": "Feature", "properties": { "北京时间": "2026-05-10 22:00" }, "geometry": { "type": "Polygon", "coordinates": [ [ [ 114.056983152841198, 31.049304230512551 ], [ 114.056983152841198, 31.064695147046397 ], [ 114.039016847158805, 31.064695147046397 ], [ 114.039016847158805, 31.049304230512551 ], [ 114.056983152841198, 31.049304230512551 ] ] ] } },
{ "type": "Feature", "properties": { "北京时间": "2026-05-10 22:00" }, "geometry": { "type": "Polygon", "coordinates": [ [ [ 114.024983152841187, 31.021301966834869 ], [ 114.024983152841187, 31.036697411046308 ], [ 114.007016847158795, 31.036697411046308 ], [ 114.007016847158795, 31.021301966834869 ], [ 114.024983152841187, 31.021301966834869 ] ] ] } },
{ "type": "Feature", "properties": { "北京时间": "2026-05-10 22:00" }, "geometry": { "type": "Polygon", "coordinates": [ [ [ 113.913983152841197, 30.848288021336728 ], [ 113.913983152841197, 30.863711358548457 ], [ 113.896016847158805, 30.863711358548457 ], [ 113.896016847158805, 30.848288021336728 ], [ 113.913983152841197, 30.848288021336728 ] ] ] } },
{ "type": "Feature", "properties": { "北京时间": "2026-05-10 22:00" }, "geometry": { "type": "Polygon", "coordinates": [ [ [ 113.975983152841209, 31.076306415085444 ], [ 113.975983152841209, 31.091692962163361 ], [ 113.958016847158802, 31.091692962163361 ], [ 113.958016847158802, 31.076306415085444 ], [ 113.975983152841209, 31.076306415085444 ] ] ] } },
{ "type": "Feature", "properties": { "北京时间": "2026-05-10 22:00" }, "geometry": { "type": "Polygon", "coordinates": [ [ [ 113.879983152841191, 30.844287699728696 ], [ 113.879983152841191, 30.859711680203102 ], [ 113.862016847158799, 30.859711680203102 ], [ 113.862016847158799, 30.844287699728696 ], [ 113.879983152841191, 30.844287699728696 ] ] ] } },
{ "type": "Feature", "properties": { "北京时间": "2026-05-10 22:00" }, "geometry": { "type": "Polygon", "coordinates": [ [ [ 113.903983152841192, 30.778282398624846 ], [ 113.903983152841192, 30.793716982077655 ], [ 113.886016847158785, 30.793716982077655 ], [ 113.886016847158785, 30.778282398624846 ], [ 113.903983152841192, 30.778282398624846 ] ] ] } },
{ "type": "Feature", "properties": { "北京时间": "2026-05-10 22:00" }, "geometry": { "type": "Polygon", "coordinates": [ [ [ 113.984983152841195, 31.043303745284 ], [ 113.984983152841195, 31.058695632343937 ], [ 113.967016847158803, 31.058695632343937 ], [ 113.967016847158803, 31.043303745284 ], [ 113.984983152841195, 31.043303745284 ] ] ] } },
{ "type": "Feature", "properties": { "北京时间": "2026-05-10 22:00" }, "geometry": { "type": "Polygon", "coordinates": [ [ [ 114.035983152841183, 30.98329889764188 ], [ 114.035983152841183, 30.99870048067752 ], [ 114.018016847158805, 30.99870048067752 ], [ 114.018016847158805, 30.98329889764188 ], [ 114.035983152841183, 30.98329889764188 ] ] ] } },
{ "type": "Feature", "properties": { "北京时间": "2026-05-10 22:00" }, "geometry": { "type": "Polygon", "coordinates": [ [ [ 113.955983152841185, 30.933294864391883 ], [ 113.955983152841185, 30.948704514505835 ], [ 113.938016847158792, 30.948704514505835 ], [ 113.938016847158792, 30.933294864391883 ], [ 113.955983152841185, 30.933294864391883 ] ] ] } },
{ "type": "Feature", "properties": { "北京时间": "2026-05-10 22:00" }, "geometry": { "type": "Polygon", "coordinates": [ [ [ 113.861983152841177, 30.767281516103075 ], [ 113.861983152841177, 30.782717864728188 ], [ 113.844016847158784, 30.782717864728188 ], [ 113.844016847158784, 30.767281516103075 ], [ 113.861983152841177, 30.767281516103075 ] ] ] } },
{ "type": "Feature", "properties": { "北京时间": "2026-05-10 22:00" }, "geometry": { "type": "Polygon", "coordinates": [ [ [ 113.881983152841187, 30.886291078487726 ], [ 113.881983152841187, 30.901708300955345 ], [ 113.864016847158794, 30.901708300955345 ], [ 113.864016847158794, 30.886291078487726 ], [ 113.881983152841187, 30.886291078487726 ] ] ] } },
{ "type": "Feature", "properties": { "北京时间": "2026-05-10 22:00" }, "geometry": { "type": "Polygon", "coordinates": [ [ [ 113.860983152841214, 30.817285529857848 ], [ 113.860983152841214, 30.832713850388842 ], [ 113.843016847158822, 30.832713850388842 ], [ 113.843016847158822, 30.817285529857848 ], [ 113.860983152841214, 30.817285529857848 ] ] ] } },
{ "type": "Feature", "properties": { "北京时间": "2026-05-10 22:00" }, "geometry": { "type": "Polygon", "coordinates": [ [ [ 113.941983152841203, 30.785282960377732 ], [ 113.941983152841203, 30.800716420242868 ], [ 113.924016847158811, 30.800716420242868 ], [ 113.924016847158811, 30.785282960377732 ], [ 113.941983152841203, 30.785282960377732 ] ] ] } },
{ "type": "Feature", "properties": { "北京时间": "2026-05-10 22:00" }, "geometry": { "type": "Polygon", "coordinates": [ [ [ 113.891983152841178, 30.760280954646461 ], [ 113.891983152841178, 30.775718426266803 ], [ 113.874016847158799, 30.775718426266803 ], [ 113.874016847158799, 30.760280954646461 ], [ 113.891983152841178, 30.760280954646461 ] ] ] } },
{ "type": "Feature", "properties": { "北京时间": "2026-05-10 22:00" }, "geometry": { "type": "Polygon", "coordinates": [ [ [ 113.938983152841203, 30.796283843365018 ], [ 113.938983152841203, 30.811715537126958 ], [ 113.921016847158796, 30.811715537126958 ], [ 113.921016847158796, 30.796283843365018 ], [ 113.938983152841203, 30.796283843365018 ] ] ] } },
{ "type": "Feature", "properties": { "北京时间": "2026-05-10 22:00" }, "geometry": { "type": "Polygon", "coordinates": [ [ [ 114.012983152841201, 31.045303907017473 ], [ 114.012983152841201, 31.060695470587461 ], [ 113.995016847158809, 31.060695470587461 ], [ 113.995016847158809, 31.045303907017473 ], [ 114.012983152841201, 31.045303907017473 ] ] ] } },
{ "type": "Feature", "properties": { "北京时间": "2026-05-10 22:00" }, "geometry": { "type": "Polygon", "coordinates": [ [ [ 113.897983152841178, 30.788283201164241 ], [ 113.897983152841178, 30.803716179421276 ], [ 113.880016847158785, 30.803716179421276 ], [ 113.880016847158785, 30.788283201164241 ], [ 113.897983152841178, 30.788283201164241 ] ] ] } },
{ "type": "Feature", "properties": { "北京时间": "2026-05-10 22:00" }, "geometry": { "type": "Polygon", "coordinates": [ [ [ 113.933983152841179, 30.781282639361979 ], [ 113.933983152841179, 30.796716741305413 ], [ 113.916016847158801, 30.796716741305413 ], [ 113.916016847158801, 30.781282639361979 ], [ 113.933983152841179, 30.781282639361979 ] ] ] } },
{ "type": "Feature", "properties": { "北京时间": "2026-05-10 21:00" }, "geometry": { "type": "Polygon", "coordinates": [ [ [ 113.921983152841193, 30.659272866459528 ], [ 113.921983152841193, 30.674726515640874 ], [ 113.9040168471588, 30.674726515640874 ], [ 113.9040168471588, 30.659272866459528 ], [ 113.921983152841193, 30.659272866459528 ] ] ] } },
{ "type": "Feature", "properties": { "北京时间": "2026-05-10 21:00" }, "geometry": { "type": "Polygon", "coordinates": [ [ [ 114.053983152841184, 31.272322324659289 ], [ 114.053983152841184, 31.287677050354663 ], [ 114.036016847158791, 31.287677050354663 ], [ 114.036016847158791, 31.272322324659289 ], [ 114.053983152841184, 31.272322324659289 ] ] ] } },
{ "type": "Feature", "properties": { "北京时间": "2026-05-10 21:00" }, "geometry": { "type": "Polygon", "coordinates": [ [ [ 113.996983152841182, 30.989299382026108 ], [ 113.996983152841182, 31.00469999622403 ], [ 113.979016847158789, 31.00469999622403 ], [ 113.979016847158789, 30.989299382026108 ], [ 113.996983152841182, 30.989299382026108 ] ] ] } },
{ "type": "Feature", "properties": { "北京时间": "2026-05-10 21:00" }, "geometry": { "type": "Polygon", "coordinates": [ [ [ 113.919983152841183, 30.687275106324346 ], [ 113.919983152841183, 30.702724275446169 ], [ 113.902016847158805, 30.702724275446169 ], [ 113.902016847158805, 30.687275106324346 ], [ 113.919983152841183, 30.687275106324346 ] ] ] } },
{ "type": "Feature", "properties": { "北京时间": "2026-05-10 21:00" }, "geometry": { "type": "Polygon", "coordinates": [ [ [ 113.864983152841191, 30.806284646327558 ], [ 113.864983152841191, 30.821714734047561 ], [ 113.847016847158798, 30.821714734047561 ], [ 113.847016847158798, 30.806284646327558 ], [ 113.864983152841191, 30.806284646327558 ] ] ] } },
{ "type": "Feature", "properties": { "北京时间": "2026-05-10 21:00" }, "geometry": { "type": "Polygon", "coordinates": [ [ [ 113.931983152841184, 30.689275266385312 ], [ 113.931983152841184, 30.704724115361685 ], [ 113.914016847158805, 30.704724115361685 ], [ 113.914016847158805, 30.689275266385312 ], [ 113.931983152841184, 30.689275266385312 ] ] ] } },
{ "type": "Feature", "properties": { "北京时间": "2026-05-10 21:00" }, "geometry": { "type": "Polygon", "coordinates": [ [ [ 113.774983152841187, 30.630270548545205 ], [ 113.774983152841187, 30.645728833897486 ], [ 113.757016847158795, 30.645728833897486 ], [ 113.757016847158795, 30.630270548545205 ], [ 113.774983152841187, 30.630270548545205 ] ] ] } },
{ "type": "Feature", "properties": { "北京时间": "2026-05-10 21:00" }, "geometry": { "type": "Polygon", "coordinates": [ [ [ 114.120983152841177, 31.153312654546951 ], [ 114.120983152841177, 31.168686721820386 ], [ 114.103016847158784, 31.168686721820386 ], [ 114.103016847158784, 31.153312654546951 ], [ 114.120983152841177, 31.153312654546951 ] ] ] } },
{ "type": "Feature", "properties": { "北京时间": "2026-05-10 21:00" }, "geometry": { "type": "Polygon", "coordinates": [ [ [ 114.014983152841197, 31.220318094986919 ], [ 114.014983152841197, 31.235681280617108 ], [ 113.99701684715879, 31.235681280617108 ], [ 113.99701684715879, 31.220318094986919 ], [ 114.014983152841197, 31.220318094986919 ] ] ] } },
{ "type": "Feature", "properties": { "北京时间": "2026-05-10 21:00" }, "geometry": { "type": "Polygon", "coordinates": [ [ [ 114.076983152841194, 31.178314683332722 ], [ 114.076983152841194, 31.193684692749397 ], [ 114.059016847158802, 31.193684692749397 ], [ 114.059016847158802, 31.178314683332722 ], [ 114.076983152841194, 31.178314683332722 ] ] ] } },
{ "type": "Feature", "properties": { "北京时间": "2026-05-10 21:00" }, "geometry": { "type": "Polygon", "coordinates": [ [ [ 114.172983152841198, 31.232319070503603 ], [ 114.172983152841198, 31.24768030496406 ], [ 114.155016847158805, 31.24768030496406 ], [ 114.155016847158805, 31.232319070503603 ], [ 114.172983152841198, 31.232319070503603 ] ] ] } },
{ "type": "Feature", "properties": { "北京时间": "2026-05-10 21:00" }, "geometry": { "type": "Polygon", "coordinates": [ [ [ 113.802983152841179, 30.794283682800717 ], [ 113.802983152841179, 30.80971569771464 ], [ 113.785016847158786, 30.80971569771464 ], [ 113.785016847158786, 30.794283682800717 ], [ 113.802983152841179, 30.794283682800717 ] ] ] } },
{ "type": "Feature", "properties": { "北京时间": "2026-05-10 21:00" }, "geometry": { "type": "Polygon", "coordinates": [ [ [ 113.83798315284119, 30.766281435887937 ], [ 113.83798315284119, 30.781717944955048 ], [ 113.820016847158797, 30.781717944955048 ], [ 113.820016847158797, 30.766281435887937 ], [ 113.83798315284119, 30.766281435887937 ] ] ] } },
{ "type": "Feature", "properties": { "北京时间": "2026-05-10 21:00" }, "geometry": { "type": "Polygon", "coordinates": [ [ [ 113.824983152841185, 30.880290595554179 ], [ 113.824983152841185, 30.895708783958622 ], [ 113.807016847158806, 30.895708783958622 ], [ 113.807016847158806, 30.880290595554179 ], [ 113.824983152841185, 30.880290595554179 ] ] ] } },
{ "type": "Feature", "properties": { "北京时间": "2026-05-10 21:00" }, "geometry": { "type": "Polygon", "coordinates": [ [ [ 113.853983152841195, 30.624270069223964 ], [ 113.853983152841195, 30.639729313289624 ], [ 113.836016847158788, 30.639729313289624 ], [ 113.836016847158788, 30.624270069223964 ], [ 113.853983152841195, 30.624270069223964 ] ] ] } },
{ "type": "Feature", "properties": { "北京时间": "2026-05-10 21:00" }, "geometry": { "type": "Polygon", "coordinates": [ [ [ 113.822983152841175, 30.639271267686016 ], [ 113.822983152841175, 30.654728114650371 ], [ 113.805016847158782, 30.654728114650371 ], [ 113.805016847158782, 30.639271267686016 ], [ 113.822983152841175, 30.639271267686016 ] ] ] } },
{ "type": "Feature", "properties": { "北京时间": "2026-05-10 21:00" }, "geometry": { "type": "Polygon", "coordinates": [ [ [ 113.774983152841187, 30.744279671749752 ], [ 113.774983152841187, 30.759719709351049 ], [ 113.757016847158795, 30.759719709351049 ], [ 113.757016847158795, 30.744279671749752 ], [ 113.774983152841187, 30.744279671749752 ] ] ] } },
{ "type": "Feature", "properties": { "北京时间": "2026-05-10 21:00" }, "geometry": { "type": "Polygon", "coordinates": [ [ [ 113.83498315284119, 30.686275026297402 ], [ 113.83498315284119, 30.701724355484888 ], [ 113.817016847158797, 30.701724355484888 ], [ 113.817016847158797, 30.686275026297402 ], [ 113.83498315284119, 30.686275026297402 ] ] ] } },
{ "type": "Feature", "properties": { "北京时间": "2026-05-10 21:00" }, "geometry": { "type": "Polygon", "coordinates": [ [ [ 114.132983152841192, 31.085307143656145 ], [ 114.132983152841192, 31.100692233489397 ], [ 114.115016847158799, 31.100692233489397 ], [ 114.115016847158799, 31.085307143656145 ], [ 114.132983152841192, 31.085307143656145 ] ] ] } },
{ "type": "Feature", "properties": { "北京时间": "2026-05-10 21:00" }, "geometry": { "type": "Polygon", "coordinates": [ [ [ 113.849983152841176, 30.651272226837122 ], [ 113.849983152841176, 30.666727155357645 ], [ 113.832016847158783, 30.666727155357645 ], [ 113.832016847158783, 30.651272226837122 ], [ 113.849983152841176, 30.651272226837122 ] ] ] } },
{ "type": "Feature", "properties": { "北京时间": "2026-05-10 20:00" }, "geometry": { "type": "Polygon", "coordinates": [ [ [ 114.068983152841199, 31.066305605785121 ], [ 114.068983152841199, 31.081693771578493 ], [ 114.051016847158806, 31.081693771578493 ], [ 114.051016847158806, 31.066305605785121 ], [ 114.068983152841199, 31.066305605785121 ] ] ] } },
{ "type": "Feature", "properties": { "北京时间": "2026-05-10 20:00" }, "geometry": { "type": "Polygon", "coordinates": [ [ [ 113.726983152841186, 30.755280553676567 ], [ 113.726983152841186, 30.770718827295283 ], [ 113.709016847158793, 30.770718827295283 ], [ 113.709016847158793, 30.755280553676567 ], [ 113.726983152841186, 30.755280553676567 ] ] ] } },
{ "type": "Feature", "properties": { "北京时间": "2026-05-10 20:00" }, "geometry": { "type": "Polygon", "coordinates": [ [ [ 113.904983152841183, 30.579266477017288 ], [ 113.904983152841183, 30.594732906028877 ], [ 113.88701684715879, 30.594732906028877 ], [ 113.88701684715879, 30.579266477017288 ], [ 113.904983152841183, 30.579266477017288 ] ] ] } },
{ "type": "Feature", "properties": { "北京时间": "2026-05-10 20:00" }, "geometry": { "type": "Polygon", "coordinates": [ [ [ 114.045983152841202, 31.406333253340286 ], [ 114.045983152841202, 31.421666120162591 ], [ 114.02801684715881, 31.421666120162591 ], [ 114.02801684715881, 31.406333253340286 ], [ 114.045983152841202, 31.406333253340286 ] ] ] } },
{ "type": "Feature", "properties": { "北京时间": "2026-05-10 20:00" }, "geometry": { "type": "Polygon", "coordinates": [ [ [ 113.747983152841201, 30.498260023069673 ], [ 113.747983152841201, 30.513739360938967 ], [ 113.730016847158808, 30.513739360938967 ], [ 113.730016847158808, 30.498260023069673 ], [ 113.747983152841201, 30.498260023069673 ] ] ] } },
{ "type": "Feature", "properties": { "北京时间": "2026-05-10 20:00" }, "geometry": { "type": "Polygon", "coordinates": [ [ [ 114.154983152841197, 31.333327294451589 ], [ 114.154983152841197, 31.348672079872792 ], [ 114.137016847158804, 31.348672079872792 ], [ 114.137016847158804, 31.333327294451589 ], [ 114.154983152841197, 31.333327294451589 ] ] ] } },
{ "type": "Feature", "properties": { "北京时间": "2026-05-10 20:00" }, "geometry": { "type": "Polygon", "coordinates": [ [ [ 114.187983152841184, 31.464337996673642 ], [ 114.187983152841184, 31.47966137617944 ], [ 114.170016847158792, 31.47966137617944 ], [ 114.170016847158792, 31.464337996673642 ], [ 114.187983152841184, 31.464337996673642 ] ] ] } },
{ "type": "Feature", "properties": { "北京时间": "2026-05-10 20:00" }, "geometry": { "type": "Polygon", "coordinates": [ [ [ 113.805983152841193, 30.768281596320573 ], [ 113.805983152841193, 30.783717784498979 ], [ 113.788016847158787, 30.783717784498979 ], [ 113.788016847158787, 30.768281596320573 ], [ 113.805983152841193, 30.768281596320573 ] ] ] } },
{ "type": "Feature", "properties": { "北京时间": "2026-05-10 20:00" }, "geometry": { "type": "Polygon", "coordinates": [ [ [ 113.8429831528412, 30.495259784331608 ], [ 113.8429831528412, 30.510739599712782 ], [ 113.825016847158793, 30.510739599712782 ], [ 113.825016847158793, 30.495259784331608 ], [ 113.8429831528412, 30.495259784331608 ] ] ] } },
{ "type": "Feature", "properties": { "北京时间": "2026-05-10 20:00" }, "geometry": { "type": "Polygon", "coordinates": [ [ [ 113.789983152841188, 30.514261296697757 ], [ 113.789983152841188, 30.529738087120371 ], [ 113.772016847158795, 30.529738087120371 ], [ 113.772016847158795, 30.514261296697757 ], [ 113.789983152841188, 30.514261296697757 ] ] ] } },
{ "type": "Feature", "properties": { "北京时间": "2026-05-10 20:00" }, "geometry": { "type": "Polygon", "coordinates": [ [ [ 113.916983152841198, 30.598267993144951 ], [ 113.916983152841198, 30.61373138967615 ], [ 113.899016847158805, 30.61373138967615 ], [ 113.899016847158805, 30.598267993144951 ], [ 113.916983152841198, 30.598267993144951 ] ] ] } },
{ "type": "Feature", "properties": { "北京时间": "2026-05-10 20:00" }, "geometry": { "type": "Polygon", "coordinates": [ [ [ 113.794983152841198, 30.708276787433835 ], [ 113.794983152841198, 30.723722594089672 ], [ 113.777016847158791, 30.723722594089672 ], [ 113.777016847158791, 30.708276787433835 ], [ 113.794983152841198, 30.708276787433835 ] ] ] } },
{ "type": "Feature", "properties": { "北京时间": "2026-05-10 20:00" }, "geometry": { "type": "Polygon", "coordinates": [ [ [ 113.697983152841175, 30.492259545614761 ], [ 113.697983152841175, 30.507739838465366 ], [ 113.680016847158782, 30.507739838465366 ], [ 113.680016847158782, 30.492259545614761 ], [ 113.697983152841175, 30.492259545614761 ] ] ] } },
{ "type": "Feature", "properties": { "北京时间": "2026-05-10 20:00" }, "geometry": { "type": "Polygon", "coordinates": [ [ [ 114.284983152841193, 31.447336605572563 ], [ 114.284983152841193, 31.462662767470693 ], [ 114.2670168471588, 31.462662767470693 ], [ 114.2670168471588, 31.447336605572563 ], [ 114.284983152841193, 31.447336605572563 ] ] ] } },
{ "type": "Feature", "properties": { "北京时间": "2026-05-10 20:00" }, "geometry": { "type": "Polygon", "coordinates": [ [ [ 113.778983152841192, 30.882290756522625 ], [ 113.778983152841192, 30.897708622966913 ], [ 113.7610168471588, 30.897708622966913 ], [ 113.7610168471588, 30.882290756522625 ], [ 113.778983152841192, 30.882290756522625 ] ] ] } },
{ "type": "Feature", "properties": { "北京时间": "2026-05-10 20:00" }, "geometry": { "type": "Polygon", "coordinates": [ [ [ 113.694983152841203, 30.680274546185142 ], [ 113.694983152841203, 30.695724835667786 ], [ 113.677016847158811, 30.695724835667786 ], [ 113.677016847158811, 30.680274546185142 ], [ 113.694983152841203, 30.680274546185142 ] ] ] } },
{ "type": "Feature", "properties": { "北京时间": "2026-05-10 20:00" }, "geometry": { "type": "Polygon", "coordinates": [ [ [ 113.767983152841197, 30.593267594081539 ], [ 113.767983152841197, 30.608731788798782 ], [ 113.750016847158804, 30.608731788798782 ], [ 113.750016847158804, 30.593267594081539 ], [ 113.767983152841197, 30.593267594081539 ] ] ] } },
{ "type": "Feature", "properties": { "北京时间": "2026-05-10 20:00" }, "geometry": { "type": "Polygon", "coordinates": [ [ [ 114.218983152841176, 31.209317201059338 ], [ 114.218983152841176, 31.224682174669773 ], [ 114.201016847158783, 31.224682174669773 ], [ 114.201016847158783, 31.209317201059338 ], [ 114.218983152841176, 31.209317201059338 ] ] ] } },
{ "type": "Feature", "properties": { "北京时间": "2026-05-10 19:00" }, "geometry": { "type": "Polygon", "coordinates": [ [ [ 114.163983152841197, 31.161313303599176 ], [ 114.163983152841197, 31.176686072676866 ], [ 114.146016847158805, 31.176686072676866 ], [ 114.146016847158805, 31.161313303599176 ], [ 114.163983152841197, 31.161313303599176 ] ] ] } },
{ "type": "Feature", "properties": { "北京时间": "2026-05-10 19:00" }, "geometry": { "type": "Polygon", "coordinates": [ [ [ 113.697983152841175, 30.507260739411208 ], [ 113.697983152841175, 30.522738644490264 ], [ 113.680016847158782, 30.522738644490264 ], [ 113.680016847158782, 30.507260739411208 ], [ 113.697983152841175, 30.507260739411208 ] ] ] } },
{ "type": "Feature", "properties": { "北京时间": "2026-05-10 19:00" }, "geometry": { "type": "Polygon", "coordinates": [ [ [ 113.651983152841197, 30.723277988861614 ], [ 113.651983152841197, 30.73872139248564 ], [ 113.634016847158804, 30.73872139248564 ], [ 113.634016847158804, 30.723277988861614 ], [ 113.651983152841197, 30.723277988861614 ] ] ] } },
{ "type": "Feature", "properties": { "北京时间": "2026-05-10 19:00" }, "geometry": { "type": "Polygon", "coordinates": [ [ [ 114.1049831528412, 31.579347424774134 ], [ 114.1049831528412, 31.594651946798155 ], [ 114.087016847158807, 31.594651946798155 ], [ 114.087016847158807, 31.579347424774134 ], [ 114.1049831528412, 31.579347424774134 ] ] ] } },
{ "type": "Feature", "properties": { "北京时间": "2026-05-10 19:00" }, "geometry": { "type": "Polygon", "coordinates": [ [ [ 114.259983152841201, 31.528343239809438 ], [ 114.259983152841201, 31.54365613232962 ], [ 114.242016847158808, 31.54365613232962 ], [ 114.242016847158808, 31.528343239809438 ], [ 114.259983152841201, 31.528343239809438 ] ] ] } },
{ "type": "Feature", "properties": { "北京时间": "2026-05-10 19:00" }, "geometry": { "type": "Polygon", "coordinates": [ [ [ 114.386983152841182, 31.676355401144878 ], [ 114.386983152841182, 31.691643969354967 ], [ 114.369016847158804, 31.691643969354967 ], [ 114.369016847158804, 31.676355401144878 ], [ 114.386983152841182, 31.676355401144878 ] ] ] } },
{ "type": "Feature", "properties": { "北京时间": "2026-05-10 19:00" }, "geometry": { "type": "Polygon", "coordinates": [ [ [ 113.737983152841181, 30.727278309331762 ], [ 113.737983152841181, 30.742721071968539 ], [ 113.720016847158789, 30.742721071968539 ], [ 113.720016847158789, 30.727278309331762 ], [ 113.737983152841181, 30.727278309331762 ] ] ] } },
{ "type": "Feature", "properties": { "北京时间": "2026-05-10 19:00" }, "geometry": { "type": "Polygon", "coordinates": [ [ [ 114.463983152841195, 31.558345700818805 ], [ 114.463983152841195, 31.573653670986626 ], [ 114.446016847158802, 31.573653670986626 ], [ 114.446016847158802, 31.558345700818805 ], [ 114.463983152841195, 31.558345700818805 ] ] ] } },
{ "type": "Feature", "properties": { "北京时间": "2026-05-10 19:00" }, "geometry": { "type": "Polygon", "coordinates": [ [ [ 113.753983152841215, 30.660272946422925 ], [ 113.753983152841215, 30.675726435665698 ], [ 113.736016847158808, 30.675726435665698 ], [ 113.736016847158808, 30.660272946422925 ], [ 113.753983152841215, 30.660272946422925 ] ] ] } },
{ "type": "Feature", "properties": { "北京时间": "2026-05-10 19:00" }, "geometry": { "type": "Polygon", "coordinates": [ [ [ 114.418983152841179, 31.704357707679119 ], [ 114.418983152841179, 31.719641662512501 ], [ 114.401016847158786, 31.719641662512501 ], [ 114.401016847158786, 31.704357707679119 ], [ 114.418983152841179, 31.704357707679119 ] ] ] } },
{ "type": "Feature", "properties": { "北京时间": "2026-05-10 19:00" }, "geometry": { "type": "Polygon", "coordinates": [ [ [ 113.617983152841191, 30.625270149104946 ], [ 113.617983152841191, 30.640729233396815 ], [ 113.600016847158798, 30.640729233396815 ], [ 113.600016847158798, 30.625270149104946 ], [ 113.617983152841191, 30.625270149104946 ] ] ] } },
{ "type": "Feature", "properties": { "北京时间": "2026-05-10 19:00" }, "geometry": { "type": "Polygon", "coordinates": [ [ [ 113.749983152841182, 30.892291561505822 ], [ 113.749983152841182, 30.907707817867532 ], [ 113.732016847158789, 30.907707817867532 ], [ 113.732016847158789, 30.892291561505822 ], [ 113.749983152841182, 30.892291561505822 ] ] ] } },
{ "type": "Feature", "properties": { "北京时间": "2026-05-10 18:00" }, "geometry": { "type": "Polygon", "coordinates": [ [ [ 114.341983152841209, 31.492340289369466 ], [ 114.341983152841209, 31.507659083170843 ], [ 114.324016847158802, 31.507659083170843 ], [ 114.324016847158802, 31.492340289369466 ], [ 114.341983152841209, 31.492340289369466 ] ] ] } },
{ "type": "Feature", "properties": { "北京时间": "2026-05-10 18:00" }, "geometry": { "type": "Polygon", "coordinates": [ [ [ 114.2419831528412, 31.762362491306089 ], [ 114.2419831528412, 31.777636878248966 ], [ 114.224016847158808, 31.777636878248966 ], [ 114.224016847158808, 31.762362491306089 ], [ 114.2419831528412, 31.762362491306089 ] ] ] } },
{ "type": "Feature", "properties": { "北京时间": "2026-05-10 18:00" }, "geometry": { "type": "Polygon", "coordinates": [ [ [ 113.743983152841182, 30.913293252734896 ], [ 113.743983152841182, 30.92870612639469 ], [ 113.726016847158789, 30.92870612639469 ], [ 113.726016847158789, 30.913293252734896 ], [ 113.743983152841182, 30.913293252734896 ] ] ] } },
{ "type": "Feature", "properties": { "北京时间": "2026-05-10 18:00" }, "geometry": { "type": "Polygon", "coordinates": [ [ [ 114.401983152841183, 31.726359521236581 ], [ 114.401983152841183, 31.741639848713266 ], [ 114.38401684715879, 31.741639848713266 ], [ 114.38401684715879, 31.726359521236581 ], [ 114.401983152841183, 31.726359521236581 ] ] ] } },
{ "type": "Feature", "properties": { "北京时间": "2026-05-10 18:00" }, "geometry": { "type": "Polygon", "coordinates": [ [ [ 113.662983152841193, 30.685274946272809 ], [ 113.662983152841193, 30.700724435521252 ], [ 113.6450168471588, 30.700724435521252 ], [ 113.6450168471588, 30.685274946272809 ], [ 113.662983152841193, 30.685274946272809 ] ] ] } },
{ "type": "Feature", "properties": { "北京时间": "2026-05-10 18:00" }, "geometry": { "type": "Polygon", "coordinates": [ [ [ 113.621983152841182, 30.427254378629115 ], [ 113.621983152841182, 30.442745006227224 ], [ 113.604016847158803, 30.442745006227224 ], [ 113.604016847158803, 30.427254378629115 ], [ 113.621983152841182, 30.427254378629115 ] ] ] } },
{ "type": "Feature", "properties": { "北京时间": "2026-05-10 18:00" }, "geometry": { "type": "Polygon", "coordinates": [ [ [ 113.702983152841199, 30.621269829595121 ], [ 113.702983152841199, 30.636729552953916 ], [ 113.685016847158806, 30.636729552953916 ], [ 113.685016847158806, 30.621269829595121 ], [ 113.702983152841199, 30.621269829595121 ] ] ] } },
{ "type": "Feature", "properties": { "北京时间": "2026-05-10 18:00" }, "geometry": { "type": "Polygon", "coordinates": [ [ [ 113.544983152841198, 30.577266317474372 ], [ 113.544983152841198, 30.592733065595489 ], [ 113.527016847158805, 30.592733065595489 ], [ 113.527016847158805, 30.577266317474372 ], [ 113.544983152841198, 30.577266317474372 ] ] ] } },
{ "type": "Feature", "properties": { "北京时间": "2026-05-10 18:00" }, "geometry": { "type": "Polygon", "coordinates": [ [ [ 113.581983152841204, 30.693275586535449 ], [ 113.581983152841204, 30.70872379516446 ], [ 113.564016847158811, 30.70872379516446 ], [ 113.564016847158811, 30.693275586535449 ], [ 113.581983152841204, 30.693275586535449 ] ] ] } },
{ "type": "Feature", "properties": { "北京时间": "2026-05-10 17:00" }, "geometry": { "type": "Polygon", "coordinates": [ [ [ 113.761983152841196, 30.946295912472451 ], [ 113.761983152841196, 30.961703466274724 ], [ 113.744016847158804, 30.961703466274724 ], [ 113.744016847158804, 30.946295912472451 ], [ 113.761983152841196, 30.946295912472451 ] ] ] } },
{ "type": "Feature", "properties": { "北京时间": "2026-05-10 17:00" }, "geometry": { "type": "Polygon", "coordinates": [ [ [ 113.526983152841183, 30.658272786498483 ], [ 113.526983152841183, 30.673726595613704 ], [ 113.509016847158804, 30.673726595613704 ], [ 113.509016847158804, 30.658272786498483 ], [ 113.526983152841183, 30.658272786498483 ] ] ] } },
{ "type": "Feature", "properties": { "北京时间": "2026-05-10 17:00" }, "geometry": { "type": "Polygon", "coordinates": [ [ [ 113.640983152841201, 30.589267274873201 ], [ 113.640983152841201, 30.604732108054474 ], [ 113.623016847158809, 30.604732108054474 ], [ 113.623016847158809, 30.589267274873201 ], [ 113.640983152841201, 30.589267274873201 ] ] ] } },
{ "type": "Feature", "properties": { "北京时间": "2026-05-10 17:00" }, "geometry": { "type": "Polygon", "coordinates": [ [ [ 114.397983152841192, 31.655353672442438 ], [ 114.397983152841192, 31.67064569828899 ], [ 114.380016847158799, 31.67064569828899 ], [ 114.380016847158799, 31.655353672442438 ], [ 114.397983152841192, 31.655353672442438 ] ] ] } },
{ "type": "Feature", "properties": { "北京时间": "2026-05-10 17:00" }, "geometry": { "type": "Polygon", "coordinates": [ [ [ 114.380983152841196, 31.413333825394727 ], [ 114.380983152841196, 31.428665548029588 ], [ 114.363016847158804, 31.428665548029588 ], [ 114.363016847158804, 31.413333825394727 ], [ 114.380983152841196, 31.413333825394727 ] ] ] } },
{ "type": "Feature", "properties": { "北京时间": "2026-05-10 17:00" }, "geometry": { "type": "Polygon", "coordinates": [ [ [ 113.479983152841186, 30.533262809915026 ], [ 113.479983152841186, 30.548736573677129 ], [ 113.462016847158793, 30.548736573677129 ], [ 113.462016847158793, 30.533262809915026 ], [ 113.479983152841186, 30.533262809915026 ] ] ] } },
{ "type": "Feature", "properties": { "北京时间": "2026-05-10 17:00" }, "geometry": { "type": "Polygon", "coordinates": [ [ [ 113.58798315284119, 30.645271747219191 ], [ 113.58798315284119, 30.660727635046381 ], [ 113.570016847158797, 30.660727635046381 ], [ 113.570016847158797, 30.645271747219191 ], [ 113.58798315284119, 30.645271747219191 ] ] ] } },
{ "type": "Feature", "properties": { "北京时间": "2026-05-10 16:00" }, "geometry": { "type": "Polygon", "coordinates": [ [ [ 113.569983152841189, 30.563265200937881 ], [ 113.569983152841189, 30.578734182298014 ], [ 113.552016847158797, 30.578734182298014 ], [ 113.552016847158797, 30.563265200937881 ], [ 113.569983152841189, 30.563265200937881 ] ] ] } },
{ "type": "Feature", "properties": { "北京时间": "2026-05-10 16:00" }, "geometry": { "type": "Polygon", "coordinates": [ [ [ 113.813983152841189, 31.000300270283191 ], [ 113.813983152841189, 31.015699107840035 ], [ 113.79601684715881, 31.015699107840035 ], [ 113.79601684715881, 31.000300270283191 ], [ 113.813983152841189, 31.000300270283191 ] ] ] } },
{ "type": "Feature", "properties": { "北京时间": "2026-05-10 16:00" }, "geometry": { "type": "Polygon", "coordinates": [ [ [ 114.479983152841186, 31.558345700818805 ], [ 114.479983152841186, 31.573653670986626 ], [ 114.462016847158807, 31.573653670986626 ], [ 114.462016847158807, 31.558345700818805 ], [ 114.479983152841186, 31.558345700818805 ] ] ] } },
{ "type": "Feature", "properties": { "北京时间": "2026-05-10 16:00" }, "geometry": { "type": "Polygon", "coordinates": [ [ [ 113.514983152841182, 30.606268631768913 ], [ 113.514983152841182, 30.621730750957521 ], [ 113.497016847158804, 30.621730750957521 ], [ 113.497016847158804, 30.606268631768913 ], [ 113.514983152841182, 30.606268631768913 ] ] ] } },
{ "type": "Feature", "properties": { "北京时间": "2026-05-10 16:00" }, "geometry": { "type": "Polygon", "coordinates": [ [ [ 113.483983152841205, 30.619269669854347 ], [ 113.483983152841205, 30.634729712718336 ], [ 113.466016847158812, 30.634729712718336 ], [ 113.466016847158812, 30.619269669854347 ], [ 113.483983152841205, 30.619269669854347 ] ] ] } },
{ "type": "Feature", "properties": { "北京时间": "2026-05-10 15:00" }, "geometry": { "type": "Polygon", "coordinates": [ [ [ 113.45498315284118, 30.594267673889501 ], [ 113.45498315284118, 30.609731708978948 ], [ 113.437016847158787, 30.609731708978948 ], [ 113.437016847158787, 30.594267673889501 ], [ 113.45498315284118, 30.594267673889501 ] ] ] } },
{ "type": "Feature", "properties": { "北京时间": "2026-05-10 15:00" }, "geometry": { "type": "Polygon", "coordinates": [ [ [ 114.568983152841199, 31.711358284597917 ], [ 114.568983152841199, 31.72664108551675 ], [ 114.551016847158806, 31.72664108551675 ], [ 114.551016847158806, 31.711358284597917 ], [ 114.568983152841199, 31.711358284597917 ] ] ] } },
{ "type": "Feature", "properties": { "北京时间": "2026-05-10 15:00" }, "geometry": { "type": "Polygon", "coordinates": [ [ [ 113.44598315284118, 30.564265280675173 ], [ 113.44598315284118, 30.579734102548855 ], [ 113.428016847158787, 30.579734102548855 ], [ 113.428016847158787, 30.564265280675173 ], [ 113.44598315284118, 30.564265280675173 ] ] ] } },
{ "type": "Feature", "properties": { "北京时间": "2026-05-10 15:00" }, "geometry": { "type": "Polygon", "coordinates": [ [ [ 113.492983152841177, 30.539263287949911 ], [ 113.492983152841177, 30.554736095570956 ], [ 113.475016847158784, 30.554736095570956 ], [ 113.475016847158784, 30.539263287949911 ], [ 113.492983152841177, 30.539263287949911 ] ] ] } },
{ "type": "Feature", "properties": { "北京时间": "2026-05-10 15:00" }, "geometry": { "type": "Polygon", "coordinates": [ [ [ 113.898983152841183, 31.077306496028363 ], [ 113.898983152841183, 31.092692881208961 ], [ 113.88101684715879, 31.092692881208961 ], [ 113.88101684715879, 31.077306496028363 ], [ 113.898983152841183, 31.077306496028363 ] ] ] } },
{ "type": "Feature", "properties": { "北京时间": "2026-05-10 14:00" }, "geometry": { "type": "Polygon", "coordinates": [ [ [ 114.006983152841201, 31.175314439801156 ], [ 114.006983152841201, 31.190684936315169 ], [ 113.989016847158808, 31.190684936315169 ], [ 113.989016847158808, 31.175314439801156 ], [ 114.006983152841201, 31.175314439801156 ] ] ] } },
{ "type": "Feature", "properties": { "北京时间": "2026-05-10 13:00" }, "geometry": { "type": "Polygon", "coordinates": [ [ [ 113.447983152841175, 30.634270868139797 ], [ 113.447983152841175, 30.649728514255639 ], [ 113.430016847158782, 30.649728514255639 ], [ 113.430016847158782, 30.634270868139797 ], [ 113.447983152841175, 30.634270868139797 ] ] ] } },
{ "type": "Feature", "properties": { "北京时间": "2026-05-10 13:00" }, "geometry": { "type": "Polygon", "coordinates": [ [ [ 114.120983152841177, 31.300324604795126 ], [ 114.120983152841177, 31.315674769901946 ], [ 114.103016847158784, 31.315674769901946 ], [ 114.103016847158784, 31.300324604795126 ], [ 114.120983152841177, 31.300324604795126 ] ] ] } },
{ "type": "Feature", "properties": { "北京时间": "2026-05-10 12:00" }, "geometry": { "type": "Polygon", "coordinates": [ [ [ 113.487983152841196, 30.692275506494383 ], [ 113.487983152841196, 30.70772387521729 ], [ 113.470016847158789, 30.70772387521729 ], [ 113.470016847158789, 30.692275506494383 ], [ 113.487983152841196, 30.692275506494383 ] ] ] } },
{ "type": "Feature", "properties": { "北京时间": "2026-05-10 12:00" }, "geometry": { "type": "Polygon", "coordinates": [ [ [ 114.227983152841176, 31.448336687383375 ], [ 114.227983152841176, 31.463662685648714 ], [ 114.210016847158784, 31.463662685648714 ], [ 114.210016847158784, 31.448336687383375 ], [ 114.227983152841176, 31.448336687383375 ] ] ] } },
{ "type": "Feature", "properties": { "北京时间": "2026-05-10 11:00" }, "geometry": { "type": "Polygon", "coordinates": [ [ [ 113.571983152841185, 30.772281917214066 ], [ 113.571983152841185, 30.787717463558657 ], [ 113.554016847158792, 30.787717463558657 ], [ 113.554016847158792, 30.772281917214066 ], [ 113.571983152841185, 30.772281917214066 ] ] ] } },
{ "type": "Feature", "properties": { "北京时间": "2026-05-10 11:00" }, "geometry": { "type": "Polygon", "coordinates": [ [ [ 114.32098315284118, 31.610349971539616 ], [ 114.32098315284118, 31.625649399689131 ], [ 114.303016847158787, 31.625649399689131 ], [ 114.303016847158787, 31.610349971539616 ], [ 114.32098315284118, 31.610349971539616 ] ] ] } },
{ "type": "Feature", "properties": { "北京时间": "2026-05-10 10:00" }, "geometry": { "type": "Polygon", "coordinates": [ [ [ 113.686983152841179, 30.887291158984866 ], [ 113.686983152841179, 30.902708220446581 ], [ 113.669016847158787, 30.902708220446581 ], [ 113.669016847158787, 30.887291158984866 ], [ 113.686983152841179, 30.887291158984866 ] ] ] } },
{ "type": "Feature", "properties": { "北京时间": "2026-05-10 09:00" }, "geometry": { "type": "Polygon", "coordinates": [ [ [ 113.809983152841198, 31.032302855917553 ], [ 113.809983152841198, 31.04769652183694 ], [ 113.792016847158806, 31.04769652183694 ], [ 113.792016847158806, 31.032302855917553 ], [ 113.809983152841198, 31.032302855917553 ] ] ] } },
{ "type": "Feature", "properties": { "北京时间": "2026-05-10 08:00" }, "geometry": { "type": "Polygon", "coordinates": [ [ [ 113.915983152841179, 31.190315657669696 ], [ 113.915983152841179, 31.205683718275676 ], [ 113.898016847158786, 31.205683718275676 ], [ 113.898016847158786, 31.190315657669696 ], [ 113.915983152841179, 31.190315657669696 ] ] ] } },
{ "type": "Feature", "properties": { "北京时间": "2026-05-10 07:00" }, "geometry": { "type": "Polygon", "coordinates": [ [ [ 114.014983152841197, 31.364329823417403 ], [ 114.014983152841197, 31.37966955055763 ], [ 113.99701684715879, 31.37966955055763 ], [ 113.99701684715879, 31.364329823417403 ], [ 114.014983152841197, 31.364329823417403 ] ] ] } },
{ "type": "Feature", "properties": { "北京时间": "2026-05-10 06:00" }, "geometry": { "type": "Polygon", "coordinates": [ [ [ 113.466983152841181, 30.675274146156323 ], [ 113.466983152841181, 30.690725235755497 ], [ 113.449016847158802, 30.690725235755497 ], [ 113.449016847158802, 30.675274146156323 ], [ 113.466983152841181, 30.675274146156323 ] ] ] } },
{ "type": "Feature", "properties": { "北京时间": "2026-05-10 06:00" }, "geometry": { "type": "Polygon", "coordinates": [ [ [ 114.108983152841191, 31.541344305989099 ], [ 114.108983152841191, 31.556655066005284 ], [ 114.091016847158798, 31.556655066005284 ], [ 114.091016847158798, 31.541344305989099 ], [ 114.108983152841191, 31.541344305989099 ] ] ] } },
{ "type": "Feature", "properties": { "北京时间": "2026-05-10 05:00" }, "geometry": { "type": "Polygon", "coordinates": [ [ [ 114.200983152841175, 31.7163586967526 ], [ 114.200983152841175, 31.731640673307098 ], [ 114.183016847158797, 31.731640673307098 ], [ 114.183016847158797, 31.7163586967526 ], [ 114.200983152841175, 31.7163586967526 ] ] ] } },
{ "type": "Feature", "properties": { "北京时间": "2026-05-10 05:00" }, "geometry": { "type": "Polygon", "coordinates": [ [ [ 113.580983152841185, 30.797283923650699 ], [ 113.580983152841185, 30.812715456829597 ], [ 113.563016847158792, 30.812715456829597 ], [ 113.563016847158792, 30.797283923650699 ], [ 113.580983152841185, 30.797283923650699 ] ] ] } },
{ "type": "Feature", "properties": { "北京时间": "2026-05-10 04:00" }, "geometry": { "type": "Polygon", "coordinates": [ [ [ 113.678983152841184, 30.95229639633574 ], [ 113.678983152841184, 30.967702982342001 ], [ 113.661016847158791, 30.967702982342001 ], [ 113.661016847158791, 30.95229639633574 ], [ 113.678983152841184, 30.95229639633574 ] ] ] } },
{ "type": "Feature", "properties": { "北京时间": "2026-05-10 03:00" }, "geometry": { "type": "Polygon", "coordinates": [ [ [ 113.753983152841215, 31.129310708289697 ], [ 113.753983152841215, 31.144688668351893 ], [ 113.736016847158808, 31.144688668351893 ], [ 113.736016847158808, 31.129310708289697 ], [ 113.753983152841215, 31.129310708289697 ] ] ] } },
{ "type": "Feature", "properties": { "北京时间": "2026-05-10 02:00" }, "geometry": { "type": "Polygon", "coordinates": [ [ [ 113.818983152841199, 31.315325827050625 ], [ 113.818983152841199, 31.330673547476945 ], [ 113.801016847158806, 31.330673547476945 ], [ 113.801016847158806, 31.315325827050625 ], [ 113.818983152841199, 31.315325827050625 ] ] ] } },
{ "type": "Feature", "properties": { "北京时间": "2026-05-10 00:00" }, "geometry": { "type": "Polygon", "coordinates": [ [ [ 113.435983152841203, 30.904292527795629 ], [ 113.435983152841203, 30.919706851438374 ], [ 113.418016847158796, 30.919706851438374 ], [ 113.418016847158796, 30.904292527795629 ], [ 113.435983152841203, 30.904292527795629 ] ] ] } },
{ "type": "Feature", "properties": { "北京时间": "2026-05-09 23:00" }, "geometry": { "type": "Polygon", "coordinates": [ [ [ 113.528983152841178, 31.13031078935682 ], [ 113.528983152841178, 31.145688587273348 ], [ 113.5110168471588, 31.145688587273348 ], [ 113.5110168471588, 31.13031078935682 ], [ 113.528983152841178, 31.13031078935682 ] ] ] } },
{ "type": "Feature", "properties": { "北京时间": "2026-05-09 22:00" }, "geometry": { "type": "Polygon", "coordinates": [ [ [ 113.600983152841181, 31.361329578580609 ], [ 113.600983152841181, 31.376669795428182 ], [ 113.583016847158788, 31.376669795428182 ], [ 113.583016847158788, 31.361329578580609 ], [ 113.600983152841181, 31.361329578580609 ] ] ] } },
{ "type": "Feature", "properties": { "北京时间": "2026-05-09 07:00" }, "geometry": { "type": "Polygon", "coordinates": [ [ [ 113.489983152841191, 30.659272866459528 ], [ 113.489983152841191, 30.674726515640874 ], [ 113.472016847158798, 30.674726515640874 ], [ 113.472016847158798, 30.659272866459528 ], [ 113.489983152841191, 30.659272866459528 ] ] ] } },
{ "type": "Feature", "properties": { "北京时间": "2026-05-09 06:00" }, "geometry": { "type": "Polygon", "coordinates": [ [ [ 113.532983152841183, 30.88829123948436 ], [ 113.532983152841183, 30.903708139935461 ], [ 113.51501684715879, 30.903708139935461 ], [ 113.51501684715879, 30.88829123948436 ], [ 113.532983152841183, 30.88829123948436 ] ] ] } },
{ "type": "Feature", "properties": { "北京时间": "2026-05-09 05:00" }, "geometry": { "type": "Polygon", "coordinates": [ [ [ 113.5929831528412, 31.114309492564097 ], [ 113.5929831528412, 31.129689884249132 ], [ 113.575016847158807, 31.129689884249132 ], [ 113.575016847158807, 31.114309492564097 ], [ 113.5929831528412, 31.114309492564097 ] ] ] } },
{ "type": "Feature", "properties": { "北京时间": "2026-05-09 04:00" }, "geometry": { "type": "Polygon", "coordinates": [ [ [ 113.70498315284118, 31.332327212909448 ], [ 113.70498315284118, 31.347672161426232 ], [ 113.687016847158787, 31.347672161426232 ], [ 113.687016847158787, 31.332327212909448 ], [ 113.70498315284118, 31.332327212909448 ] ] ] } }
]
}
