{
"type": "FeatureCollection",
"name": "天仙南路",
"crs": { "type": "name", "properties": { "name": "urn:ogc:def:crs:OGC:1.3:CRS84" } },
"features": [
{ "type": "Feature", "properties": { "北京时间": "2026-05-10 23:00" }, "geometry": { "type": "Polygon", "coordinates": [ [ [ 113.95498315284118, 30.892291561505822 ], [ 113.95498315284118, 30.907707817867532 ], [ 113.937016847158787, 30.907707817867532 ], [ 113.937016847158787, 30.892291561505822 ], [ 113.95498315284118, 30.892291561505822 ] ] ] } },
{ "type": "Feature", "properties": { "北京时间": "2026-05-10 22:00" }, "geometry": { "type": "Polygon", "coordinates": [ [ [ 113.979983152841186, 31.068305767626423 ], [ 113.979983152841186, 31.083693609714206 ], [ 113.962016847158807, 31.083693609714206 ], [ 113.962016847158807, 31.068305767626423 ], [ 113.979983152841186, 31.068305767626423 ] ] ] } },
{ "type": "Feature", "properties": { "北京时间": "2026-05-10 22:00" }, "geometry": { "type": "Polygon", "coordinates": [ [ [ 114.062983152841198, 31.043303745284 ], [ 114.062983152841198, 31.058695632343937 ], [ 114.045016847158806, 31.058695632343937 ], [ 114.045016847158806, 31.043303745284 ], [ 114.062983152841198, 31.043303745284 ] ] ] } },
{ "type": "Feature", "properties": { "北京时间": "2026-05-10 22:00" }, "geometry": { "type": "Polygon", "coordinates": [ [ [ 113.893983152841201, 30.822285931556536 ], [ 113.893983152841201, 30.837713448631792 ], [ 113.876016847158809, 30.837713448631792 ], [ 113.876016847158809, 30.822285931556536 ], [ 113.893983152841201, 30.822285931556536 ] ] ] } },
{ "type": "Feature", "properties": { "北京时间": "2026-05-10 22:00" }, "geometry": { "type": "Polygon", "coordinates": [ [ [ 113.865983152841196, 30.760280954646461 ], [ 113.865983152841196, 30.775718426266803 ], [ 113.848016847158803, 30.775718426266803 ], [ 113.848016847158803, 30.760280954646461 ], [ 113.865983152841196, 30.760280954646461 ] ] ] } },
{ "type": "Feature", "properties": { "北京时间": "2026-05-10 22:00" }, "geometry": { "type": "Polygon", "coordinates": [ [ [ 113.916983152841198, 30.840287378158255 ], [ 113.916983152841198, 30.855712001820155 ], [ 113.899016847158805, 30.855712001820155 ], [ 113.899016847158805, 30.840287378158255 ], [ 113.916983152841198, 30.840287378158255 ] ] ] } },
{ "type": "Feature", "properties": { "北京时间": "2026-05-10 22:00" }, "geometry": { "type": "Polygon", "coordinates": [ [ [ 113.94598315284118, 30.778282398624846 ], [ 113.94598315284118, 30.793716982077655 ], [ 113.928016847158787, 30.793716982077655 ], [ 113.928016847158787, 30.778282398624846 ], [ 113.94598315284118, 30.778282398624846 ] ] ] } },
{ "type": "Feature", "properties": { "北京时间": "2026-05-10 22:00" }, "geometry": { "type": "Polygon", "coordinates": [ [ [ 113.9889831528412, 31.034303017599456 ], [ 113.9889831528412, 31.049696360132053 ], [ 113.971016847158793, 31.049696360132053 ], [ 113.971016847158793, 31.034303017599456 ], [ 113.9889831528412, 31.034303017599456 ] ] ] } },
{ "type": "Feature", "properties": { "北京时间": "2026-05-10 22:00" }, "geometry": { "type": "Polygon", "coordinates": [ [ [ 113.864983152841191, 30.810284967578397 ], [ 113.864983152841191, 30.825714412750017 ], [ 113.847016847158798, 30.825714412750017 ], [ 113.847016847158798, 30.810284967578397 ], [ 113.864983152841191, 30.810284967578397 ] ] ] } },
{ "type": "Feature", "properties": { "北京时间": "2026-05-10 22:00" }, "geometry": { "type": "Polygon", "coordinates": [ [ [ 113.882983152841177, 30.836287056625402 ], [ 113.882983152841177, 30.851712323399624 ], [ 113.865016847158799, 30.851712323399624 ], [ 113.865016847158799, 30.836287056625402 ], [ 113.882983152841177, 30.836287056625402 ] ] ] } },
{ "type": "Feature", "properties": { "北京时间": "2026-05-10 22:00" }, "geometry": { "type": "Polygon", "coordinates": [ [ [ 113.891983152841178, 30.766281435887937 ], [ 113.891983152841178, 30.781717944955048 ], [ 113.874016847158799, 30.781717944955048 ], [ 113.874016847158799, 30.766281435887937 ], [ 113.891983152841178, 30.766281435887937 ] ] ] } },
{ "type": "Feature", "properties": { "北京时间": "2026-05-10 22:00" }, "geometry": { "type": "Polygon", "coordinates": [ [ [ 114.040983152841179, 30.977298413342137 ], [ 114.040983152841179, 30.992700965046573 ], [ 114.0230168471588, 30.992700965046573 ], [ 114.0230168471588, 30.977298413342137 ], [ 114.040983152841179, 30.977298413342137 ] ] ] } },
{ "type": "Feature", "properties": { "北京时间": "2026-05-10 22:00" }, "geometry": { "type": "Polygon", "coordinates": [ [ [ 113.959983152841176, 30.926294300205114 ], [ 113.959983152841176, 30.941705078773722 ], [ 113.942016847158783, 30.941705078773722 ], [ 113.942016847158783, 30.926294300205114 ], [ 113.959983152841176, 30.926294300205114 ] ] ] } },
{ "type": "Feature", "properties": { "北京时间": "2026-05-10 22:00" }, "geometry": { "type": "Polygon", "coordinates": [ [ [ 113.906983152841178, 30.772281917214066 ], [ 113.906983152841178, 30.787717463558657 ], [ 113.889016847158786, 30.787717463558657 ], [ 113.889016847158786, 30.772281917214066 ], [ 113.906983152841178, 30.772281917214066 ] ] ] } },
{ "type": "Feature", "properties": { "北京时间": "2026-05-10 22:00" }, "geometry": { "type": "Polygon", "coordinates": [ [ [ 114.028983152841192, 31.014301401202708 ], [ 114.028983152841192, 31.029697976759106 ], [ 114.0110168471588, 31.029697976759106 ], [ 114.0110168471588, 31.014301401202708 ], [ 114.028983152841192, 31.014301401202708 ] ] ] } },
{ "type": "Feature", "properties": { "北京时间": "2026-05-10 22:00" }, "geometry": { "type": "Polygon", "coordinates": [ [ [ 113.885983152841192, 30.878290434595108 ], [ 113.885983152841192, 30.893708944940936 ], [ 113.868016847158799, 30.893708944940936 ], [ 113.868016847158799, 30.878290434595108 ], [ 113.885983152841192, 30.878290434595108 ] ] ] } },
{ "type": "Feature", "properties": { "北京时间": "2026-05-10 22:00" }, "geometry": { "type": "Polygon", "coordinates": [ [ [ 113.901983152841197, 30.780282559113914 ], [ 113.901983152841197, 30.795716821565179 ], [ 113.88401684715879, 30.795716821565179 ], [ 113.88401684715879, 30.780282559113914 ], [ 113.901983152841197, 30.780282559113914 ] ] ] } },
{ "type": "Feature", "properties": { "北京时间": "2026-05-10 22:00" }, "geometry": { "type": "Polygon", "coordinates": [ [ [ 113.895983152841183, 30.753280393305072 ], [ 113.895983152841183, 30.768718987690221 ], [ 113.87801684715879, 30.768718987690221 ], [ 113.87801684715879, 30.753280393305072 ], [ 113.895983152841183, 30.753280393305072 ] ] ] } },
{ "type": "Feature", "properties": { "北京时间": "2026-05-10 22:00" }, "geometry": { "type": "Polygon", "coordinates": [ [ [ 113.938983152841203, 30.774282077674926 ], [ 113.938983152841203, 30.789717303074394 ], [ 113.921016847158796, 30.789717303074394 ], [ 113.921016847158796, 30.774282077674926 ], [ 113.938983152841203, 30.774282077674926 ] ] ] } },
{ "type": "Feature", "properties": { "北京时间": "2026-05-10 22:00" }, "geometry": { "type": "Polygon", "coordinates": [ [ [ 114.016983152841178, 31.038303340991362 ], [ 114.016983152841178, 31.053696036694109 ], [ 113.999016847158785, 31.053696036694109 ], [ 113.999016847158785, 31.038303340991362 ], [ 114.016983152841178, 31.038303340991362 ] ] ] } },
{ "type": "Feature", "properties": { "北京时间": "2026-05-10 22:00" }, "geometry": { "type": "Polygon", "coordinates": [ [ [ 113.941983152841203, 30.788283201164241 ], [ 113.941983152841203, 30.803716179421276 ], [ 113.924016847158811, 30.803716179421276 ], [ 113.924016847158811, 30.788283201164241 ], [ 113.941983152841203, 30.788283201164241 ] ] ] } },
{ "type": "Feature", "properties": { "北京时间": "2026-05-10 21:00" }, "geometry": { "type": "Polygon", "coordinates": [ [ [ 113.922983152841184, 30.680274546185142 ], [ 113.922983152841184, 30.695724835667786 ], [ 113.905016847158805, 30.695724835667786 ], [ 113.905016847158805, 30.680274546185142 ], [ 113.922983152841184, 30.680274546185142 ] ] ] } },
{ "type": "Feature", "properties": { "北京时间": "2026-05-10 21:00" }, "geometry": { "type": "Polygon", "coordinates": [ [ [ 114.137983152841187, 31.082306900778146 ], [ 114.137983152841187, 31.097692476401807 ], [ 114.120016847158794, 31.097692476401807 ], [ 114.120016847158794, 31.082306900778146 ], [ 114.137983152841187, 31.082306900778146 ] ] ] } },
{ "type": "Feature", "properties": { "北京时间": "2026-05-10 21:00" }, "geometry": { "type": "Polygon", "coordinates": [ [ [ 113.805983152841193, 30.787283120899716 ], [ 113.805983152841193, 30.802716259697487 ], [ 113.788016847158787, 30.802716259697487 ], [ 113.788016847158787, 30.787283120899716 ], [ 113.805983152841193, 30.787283120899716 ] ] ] } },
{ "type": "Feature", "properties": { "北京时间": "2026-05-10 21:00" }, "geometry": { "type": "Polygon", "coordinates": [ [ [ 113.935983152841189, 30.682274706213143 ], [ 113.935983152841189, 30.697724675616232 ], [ 113.918016847158796, 30.697724675616232 ], [ 113.918016847158796, 30.682274706213143 ], [ 113.935983152841189, 30.682274706213143 ] ] ] } },
{ "type": "Feature", "properties": { "北京时间": "2026-05-10 21:00" }, "geometry": { "type": "Polygon", "coordinates": [ [ [ 113.824983152841185, 30.632270708337792 ], [ 113.824983152841185, 30.647728674081272 ], [ 113.807016847158806, 30.647728674081272 ], [ 113.807016847158806, 30.632270708337792 ], [ 113.824983152841185, 30.632270708337792 ] ] ] } },
{ "type": "Feature", "properties": { "北京时间": "2026-05-10 21:00" }, "geometry": { "type": "Polygon", "coordinates": [ [ [ 114.000983152841201, 30.98329889764188 ], [ 114.000983152841201, 30.99870048067752 ], [ 113.983016847158808, 30.99870048067752 ], [ 113.983016847158808, 30.98329889764188 ], [ 114.000983152841201, 30.98329889764188 ] ] ] } },
{ "type": "Feature", "properties": { "北京时间": "2026-05-10 21:00" }, "geometry": { "type": "Polygon", "coordinates": [ [ [ 113.852983152841176, 30.644271667291111 ], [ 113.852983152841176, 30.659727714986264 ], [ 113.835016847158784, 30.659727714986264 ], [ 113.835016847158784, 30.644271667291111 ], [ 113.852983152841176, 30.644271667291111 ] ] ] } },
{ "type": "Feature", "properties": { "北京时间": "2026-05-10 21:00" }, "geometry": { "type": "Polygon", "coordinates": [ [ [ 113.926983152841188, 30.651272226837122 ], [ 113.926983152841188, 30.666727155357645 ], [ 113.909016847158796, 30.666727155357645 ], [ 113.909016847158796, 30.651272226837122 ], [ 113.926983152841188, 30.651272226837122 ] ] ] } },
{ "type": "Feature", "properties": { "北京时间": "2026-05-10 21:00" }, "geometry": { "type": "Polygon", "coordinates": [ [ [ 114.017983152841197, 31.210317282313792 ], [ 114.017983152841197, 31.225682093403965 ], [ 114.000016847158804, 31.225682093403965 ], [ 114.000016847158804, 31.210317282313792 ], [ 114.017983152841197, 31.210317282313792 ] ] ] } },
{ "type": "Feature", "properties": { "北京时间": "2026-05-10 21:00" }, "geometry": { "type": "Polygon", "coordinates": [ [ [ 113.867983152841177, 30.799284084229107 ], [ 113.867983152841177, 30.814715296227821 ], [ 113.850016847158784, 30.814715296227821 ], [ 113.850016847158784, 30.799284084229107 ], [ 113.867983152841177, 30.799284084229107 ] ] ] } },
{ "type": "Feature", "properties": { "北京时间": "2026-05-10 21:00" }, "geometry": { "type": "Polygon", "coordinates": [ [ [ 114.079983152841194, 31.170314033962043 ], [ 114.079983152841194, 31.185685342211297 ], [ 114.062016847158802, 31.185685342211297 ], [ 114.062016847158802, 31.170314033962043 ], [ 114.079983152841194, 31.170314033962043 ] ] ] } },
{ "type": "Feature", "properties": { "北京时间": "2026-05-10 21:00" }, "geometry": { "type": "Polygon", "coordinates": [ [ [ 113.858983152841176, 30.618269589987491 ], [ 113.858983152841176, 30.633729792597023 ], [ 113.841016847158784, 30.633729792597023 ], [ 113.841016847158784, 30.618269589987491 ], [ 113.858983152841176, 30.618269589987491 ] ] ] } },
{ "type": "Feature", "properties": { "北京时间": "2026-05-10 21:00" }, "geometry": { "type": "Polygon", "coordinates": [ [ [ 113.83798315284119, 30.678274386166564 ], [ 113.83798315284119, 30.693724995709943 ], [ 113.820016847158797, 30.693724995709943 ], [ 113.820016847158797, 30.678274386166564 ], [ 113.83798315284119, 30.678274386166564 ] ] ] } },
{ "type": "Feature", "properties": { "北京时间": "2026-05-10 21:00" }, "geometry": { "type": "Polygon", "coordinates": [ [ [ 114.125983152841187, 31.147312167856168 ], [ 114.125983152841187, 31.162687208579712 ], [ 114.108016847158808, 31.162687208579712 ], [ 114.108016847158808, 31.147312167856168 ], [ 114.125983152841187, 31.147312167856168 ] ] ] } },
{ "type": "Feature", "properties": { "北京时间": "2026-05-10 21:00" }, "geometry": { "type": "Polygon", "coordinates": [ [ [ 113.840983152841204, 30.759280874447779 ], [ 113.840983152841204, 30.7747185064772 ], [ 113.823016847158797, 30.7747185064772 ], [ 113.823016847158797, 30.759280874447779 ], [ 113.840983152841204, 30.759280874447779 ] ] ] } },
{ "type": "Feature", "properties": { "北京时间": "2026-05-10 21:00" }, "geometry": { "type": "Polygon", "coordinates": [ [ [ 113.777983152841202, 30.737279110671782 ], [ 113.777983152841202, 30.752720270511144 ], [ 113.760016847158809, 30.752720270511144 ], [ 113.760016847158809, 30.737279110671782 ], [ 113.777983152841202, 30.737279110671782 ] ] ] } },
{ "type": "Feature", "properties": { "北京时间": "2026-05-10 21:00" }, "geometry": { "type": "Polygon", "coordinates": [ [ [ 113.827983152841199, 30.872289951774302 ], [ 113.827983152841199, 30.88770942783151 ], [ 113.810016847158806, 30.88770942783151 ], [ 113.810016847158806, 30.872289951774302 ], [ 113.827983152841199, 30.872289951774302 ] ] ] } },
{ "type": "Feature", "properties": { "北京时间": "2026-05-10 21:00" }, "geometry": { "type": "Polygon", "coordinates": [ [ [ 114.180983152841193, 31.229318826592845 ], [ 114.180983152841193, 31.24468054890891 ], [ 114.163016847158801, 31.24468054890891 ], [ 114.163016847158801, 31.229318826592845 ], [ 114.180983152841193, 31.229318826592845 ] ] ] } },
{ "type": "Feature", "properties": { "北京时间": "2026-05-10 21:00" }, "geometry": { "type": "Polygon", "coordinates": [ [ [ 114.056983152841198, 31.264321673528702 ], [ 114.056983152841198, 31.279677701575888 ], [ 114.039016847158805, 31.279677701575888 ], [ 114.039016847158805, 31.264321673528702 ], [ 114.056983152841198, 31.264321673528702 ] ] ] } },
{ "type": "Feature", "properties": { "北京时间": "2026-05-10 21:00" }, "geometry": { "type": "Polygon", "coordinates": [ [ [ 113.778983152841192, 30.624270069223964 ], [ 113.778983152841192, 30.639729313289624 ], [ 113.7610168471588, 30.639729313289624 ], [ 113.7610168471588, 30.624270069223964 ], [ 113.778983152841192, 30.624270069223964 ] ] ] } },
{ "type": "Feature", "properties": { "北京时间": "2026-05-10 20:00" }, "geometry": { "type": "Polygon", "coordinates": [ [ [ 113.780983152841188, 30.872289951774302 ], [ 113.780983152841188, 30.88770942783151 ], [ 113.763016847158795, 30.88770942783151 ], [ 113.763016847158795, 30.872289951774302 ], [ 113.780983152841188, 30.872289951774302 ] ] ] } },
{ "type": "Feature", "properties": { "北京时间": "2026-05-10 20:00" }, "geometry": { "type": "Polygon", "coordinates": [ [ [ 113.791983152841183, 30.507260739411208 ], [ 113.791983152841183, 30.522738644490264 ], [ 113.774016847158791, 30.522738644490264 ], [ 113.774016847158791, 30.507260739411208 ], [ 113.791983152841183, 30.507260739411208 ] ] ] } },
{ "type": "Feature", "properties": { "北京时间": "2026-05-10 20:00" }, "geometry": { "type": "Polygon", "coordinates": [ [ [ 113.920983152841188, 30.591267434472666 ], [ 113.920983152841188, 30.606731948431342 ], [ 113.90301684715881, 30.606731948431342 ], [ 113.90301684715881, 30.591267434472666 ], [ 113.920983152841188, 30.591267434472666 ] ] ] } },
{ "type": "Feature", "properties": { "北京时间": "2026-05-10 20:00" }, "geometry": { "type": "Polygon", "coordinates": [ [ [ 114.292983152841188, 31.445336441957974 ], [ 114.292983152841188, 31.460662931107681 ], [ 114.275016847158795, 31.460662931107681 ], [ 114.275016847158795, 31.445336441957974 ], [ 114.292983152841188, 31.445336441957974 ] ] ] } },
{ "type": "Feature", "properties": { "北京时间": "2026-05-10 20:00" }, "geometry": { "type": "Polygon", "coordinates": [ [ [ 114.072983152841175, 31.060305120317437 ], [ 114.072983152841175, 31.075694257115089 ], [ 114.055016847158782, 31.075694257115089 ], [ 114.055016847158782, 31.060305120317437 ], [ 114.072983152841175, 31.060305120317437 ] ] ] } },
{ "type": "Feature", "properties": { "北京时间": "2026-05-10 20:00" }, "geometry": { "type": "Polygon", "coordinates": [ [ [ 113.70198315284118, 30.486259068244745 ], [ 113.70198315284118, 30.501740315906904 ], [ 113.684016847158787, 30.501740315906904 ], [ 113.684016847158787, 30.486259068244745 ], [ 113.70198315284118, 30.486259068244745 ] ] ] } },
{ "type": "Feature", "properties": { "北京时间": "2026-05-10 20:00" }, "geometry": { "type": "Polygon", "coordinates": [ [ [ 113.697983152841175, 30.673273986161266 ], [ 113.697983152841175, 30.688725395774124 ], [ 113.680016847158782, 30.688725395774124 ], [ 113.680016847158782, 30.673273986161266 ], [ 113.697983152841175, 30.673273986161266 ] ] ] } },
{ "type": "Feature", "properties": { "北京时间": "2026-05-10 20:00" }, "geometry": { "type": "Polygon", "coordinates": [ [ [ 113.907983152841183, 30.572265918658324 ], [ 113.907983152841183, 30.587733464470819 ], [ 113.89001684715879, 30.587733464470819 ], [ 113.89001684715879, 30.572265918658324 ], [ 113.907983152841183, 30.572265918658324 ] ] ] } },
{ "type": "Feature", "properties": { "北京时间": "2026-05-10 20:00" }, "geometry": { "type": "Polygon", "coordinates": [ [ [ 114.18998315284118, 31.457337423785603 ], [ 114.18998315284118, 31.472661949145756 ], [ 114.172016847158801, 31.472661949145756 ], [ 114.172016847158801, 31.457337423785603 ], [ 114.18998315284118, 31.457337423785603 ] ] ] } },
{ "type": "Feature", "properties": { "北京时间": "2026-05-10 20:00" }, "geometry": { "type": "Polygon", "coordinates": [ [ [ 114.155983152841202, 31.323326479135318 ], [ 114.155983152841202, 31.338672895301908 ], [ 114.138016847158809, 31.338672895301908 ], [ 114.138016847158809, 31.323326479135318 ], [ 114.155983152841202, 31.323326479135318 ] ] ] } },
{ "type": "Feature", "properties": { "北京时间": "2026-05-10 20:00" }, "geometry": { "type": "Polygon", "coordinates": [ [ [ 113.797983152841184, 30.702276307010944 ], [ 113.797983152841184, 30.717723074583098 ], [ 113.780016847158791, 30.717723074583098 ], [ 113.780016847158791, 30.702276307010944 ], [ 113.797983152841184, 30.702276307010944 ] ] ] } },
{ "type": "Feature", "properties": { "北京时间": "2026-05-10 20:00" }, "geometry": { "type": "Polygon", "coordinates": [ [ [ 114.046983152841179, 31.396332436318197 ], [ 114.046983152841179, 31.411666937296975 ], [ 114.0290168471588, 31.411666937296975 ], [ 114.0290168471588, 31.396332436318197 ], [ 114.046983152841179, 31.396332436318197 ] ] ] } },
{ "type": "Feature", "properties": { "北京时间": "2026-05-10 20:00" }, "geometry": { "type": "Polygon", "coordinates": [ [ [ 113.808983152841179, 30.761281034847489 ], [ 113.808983152841179, 30.776718346054043 ], [ 113.791016847158787, 30.776718346054043 ], [ 113.791016847158787, 30.761281034847489 ], [ 113.808983152841179, 30.761281034847489 ] ] ] } },
{ "type": "Feature", "properties": { "北京时间": "2026-05-10 20:00" }, "geometry": { "type": "Polygon", "coordinates": [ [ [ 113.771983152841187, 30.585266955702565 ], [ 113.771983152841187, 30.600732427272497 ], [ 113.754016847158795, 30.600732427272497 ], [ 113.754016847158795, 30.585266955702565 ], [ 113.771983152841187, 30.585266955702565 ] ] ] } },
{ "type": "Feature", "properties": { "北京时间": "2026-05-10 20:00" }, "geometry": { "type": "Polygon", "coordinates": [ [ [ 113.748983152841177, 30.4912594660472 ], [ 113.748983152841177, 30.50673991804485 ], [ 113.731016847158784, 30.50673991804485 ], [ 113.731016847158784, 30.4912594660472 ], [ 113.748983152841177, 30.4912594660472 ] ] ] } },
{ "type": "Feature", "properties": { "北京时间": "2026-05-10 20:00" }, "geometry": { "type": "Polygon", "coordinates": [ [ [ 113.728983152841181, 30.748279992417491 ], [ 113.728983152841181, 30.763719388636417 ], [ 113.711016847158803, 30.763719388636417 ], [ 113.711016847158803, 30.748279992417491 ], [ 113.728983152841181, 30.748279992417491 ] ] ] } },
{ "type": "Feature", "properties": { "北京时间": "2026-05-10 19:00" }, "geometry": { "type": "Polygon", "coordinates": [ [ [ 113.653983152841178, 30.715277348034263 ], [ 113.653983152841178, 30.730722033406991 ], [ 113.636016847158785, 30.730722033406991 ], [ 113.636016847158785, 30.715277348034263 ], [ 113.653983152841178, 30.715277348034263 ] ] ] } },
{ "type": "Feature", "properties": { "北京时间": "2026-05-10 19:00" }, "geometry": { "type": "Polygon", "coordinates": [ [ [ 114.1049831528412, 31.569346603714777 ], [ 114.1049831528412, 31.584652767968482 ], [ 114.087016847158807, 31.584652767968482 ], [ 114.087016847158807, 31.569346603714777 ], [ 114.1049831528412, 31.569346603714777 ] ] ] } },
{ "type": "Feature", "properties": { "北京时间": "2026-05-10 19:00" }, "geometry": { "type": "Polygon", "coordinates": [ [ [ 114.388983152841192, 31.670354907125081 ], [ 114.388983152841192, 31.685644463440891 ], [ 114.371016847158799, 31.685644463440891 ], [ 114.371016847158799, 31.670354907125081 ], [ 114.388983152841192, 31.670354907125081 ] ] ] } },
{ "type": "Feature", "properties": { "北京时间": "2026-05-10 19:00" }, "geometry": { "type": "Polygon", "coordinates": [ [ [ 114.428983152841198, 31.705357790089106 ], [ 114.428983152841198, 31.720641580091524 ], [ 114.411016847158805, 31.720641580091524 ], [ 114.411016847158805, 31.705357790089106 ], [ 114.428983152841198, 31.705357790089106 ] ] ] } },
{ "type": "Feature", "properties": { "北京时间": "2026-05-10 19:00" }, "geometry": { "type": "Polygon", "coordinates": [ [ [ 114.167983152841217, 31.155312816795959 ], [ 114.167983152841217, 31.170686559548553 ], [ 114.15001684715881, 31.170686559548553 ], [ 114.15001684715881, 31.155312816795959 ], [ 114.167983152841217, 31.155312816795959 ] ] ] } },
{ "type": "Feature", "properties": { "北京时间": "2026-05-10 19:00" }, "geometry": { "type": "Polygon", "coordinates": [ [ [ 113.755983152841196, 30.65427246667787 ], [ 113.755983152841196, 30.669726915481515 ], [ 113.738016847158789, 30.669726915481515 ], [ 113.738016847158789, 30.65427246667787 ], [ 113.755983152841196, 30.65427246667787 ] ] ] } },
{ "type": "Feature", "properties": { "北京时间": "2026-05-10 19:00" }, "geometry": { "type": "Polygon", "coordinates": [ [ [ 114.258983152841196, 31.516342255993482 ], [ 114.258983152841196, 31.531657116279206 ], [ 114.241016847158789, 31.531657116279206 ], [ 114.241016847158789, 31.516342255993482 ], [ 114.258983152841196, 31.516342255993482 ] ] ] } },
{ "type": "Feature", "properties": { "北京时间": "2026-05-10 19:00" }, "geometry": { "type": "Polygon", "coordinates": [ [ [ 113.620983152841191, 30.618269589987491 ], [ 113.620983152841191, 30.633729792597023 ], [ 113.603016847158798, 30.633729792597023 ], [ 113.603016847158798, 30.618269589987491 ], [ 113.620983152841191, 30.618269589987491 ] ] ] } },
{ "type": "Feature", "properties": { "北京时间": "2026-05-10 19:00" }, "geometry": { "type": "Polygon", "coordinates": [ [ [ 113.739983152841177, 30.720277748533707 ], [ 113.739983152841177, 30.735721632848787 ], [ 113.722016847158798, 30.735721632848787 ], [ 113.722016847158798, 30.720277748533707 ], [ 113.739983152841177, 30.720277748533707 ] ] ] } },
{ "type": "Feature", "properties": { "北京时间": "2026-05-10 19:00" }, "geometry": { "type": "Polygon", "coordinates": [ [ [ 113.749983152841182, 30.882290756522625 ], [ 113.749983152841182, 30.897708622966913 ], [ 113.732016847158789, 30.897708622966913 ], [ 113.732016847158789, 30.882290756522625 ], [ 113.749983152841182, 30.882290756522625 ] ] ] } },
{ "type": "Feature", "properties": { "北京时间": "2026-05-10 19:00" }, "geometry": { "type": "Polygon", "coordinates": [ [ [ 114.471983152841176, 31.558345700818805 ], [ 114.471983152841176, 31.573653670986626 ], [ 114.454016847158783, 31.573653670986626 ], [ 114.454016847158783, 31.558345700818805 ], [ 114.471983152841176, 31.558345700818805 ] ] ] } },
{ "type": "Feature", "properties": { "北京时间": "2026-05-10 19:00" }, "geometry": { "type": "Polygon", "coordinates": [ [ [ 113.70198315284118, 30.499260102653743 ], [ 113.70198315284118, 30.514739281342983 ], [ 113.684016847158787, 30.514739281342983 ], [ 113.684016847158787, 30.499260102653743 ], [ 113.70198315284118, 30.499260102653743 ] ] ] } },
{ "type": "Feature", "properties": { "北京时间": "2026-05-10 18:00" }, "geometry": { "type": "Polygon", "coordinates": [ [ [ 114.344983152841181, 31.486339797923463 ], [ 114.344983152841181, 31.50165957468381 ], [ 114.327016847158802, 31.50165957468381 ], [ 114.327016847158802, 31.486339797923463 ], [ 114.344983152841181, 31.486339797923463 ] ] ] } },
{ "type": "Feature", "properties": { "北京时间": "2026-05-10 18:00" }, "geometry": { "type": "Polygon", "coordinates": [ [ [ 113.741983152841186, 30.903292447258568 ], [ 113.741983152841186, 30.918706931987071 ], [ 113.724016847158794, 30.918706931987071 ], [ 113.724016847158794, 30.903292447258568 ], [ 113.741983152841186, 30.903292447258568 ] ] ] } },
{ "type": "Feature", "properties": { "北京时间": "2026-05-10 18:00" }, "geometry": { "type": "Polygon", "coordinates": [ [ [ 114.238983152841186, 31.753361748505956 ], [ 114.238983152841186, 31.768637621147708 ], [ 114.221016847158793, 31.768637621147708 ], [ 114.221016847158793, 31.753361748505956 ], [ 114.238983152841186, 31.753361748505956 ] ] ] } },
{ "type": "Feature", "properties": { "北京时间": "2026-05-10 18:00" }, "geometry": { "type": "Polygon", "coordinates": [ [ [ 114.397983152841192, 31.713358449452802 ], [ 114.397983152841192, 31.728640920639869 ], [ 114.380016847158799, 31.728640920639869 ], [ 114.380016847158799, 31.713358449452802 ], [ 114.397983152841192, 31.713358449452802 ] ] ] } },
{ "type": "Feature", "properties": { "北京时间": "2026-05-10 18:00" }, "geometry": { "type": "Polygon", "coordinates": [ [ [ 113.664983152841202, 30.678274386166564 ], [ 113.664983152841202, 30.693724995709943 ], [ 113.647016847158824, 30.693724995709943 ], [ 113.647016847158824, 30.678274386166564 ], [ 113.664983152841202, 30.678274386166564 ] ] ] } },
{ "type": "Feature", "properties": { "北京时间": "2026-05-10 18:00" }, "geometry": { "type": "Polygon", "coordinates": [ [ [ 113.70498315284118, 30.615269350401046 ], [ 113.70498315284118, 30.630730032218924 ], [ 113.687016847158787, 30.630730032218924 ], [ 113.687016847158787, 30.615269350401046 ], [ 113.70498315284118, 30.615269350401046 ] ] ] } },
{ "type": "Feature", "properties": { "北京时间": "2026-05-10 18:00" }, "geometry": { "type": "Polygon", "coordinates": [ [ [ 113.585983152841195, 30.684274866250565 ], [ 113.585983152841195, 30.699724515555264 ], [ 113.568016847158802, 30.699724515555264 ], [ 113.568016847158802, 30.684274866250565 ], [ 113.585983152841195, 30.684274866250565 ] ] ] } },
{ "type": "Feature", "properties": { "北京时间": "2026-05-10 18:00" }, "geometry": { "type": "Polygon", "coordinates": [ [ [ 113.548983152841203, 30.570265759148402 ], [ 113.548983152841203, 30.585733624004465 ], [ 113.53101684715881, 30.585733624004465 ], [ 113.53101684715881, 30.570265759148402 ], [ 113.548983152841203, 30.570265759148402 ] ] ] } },
{ "type": "Feature", "properties": { "北京时间": "2026-05-10 18:00" }, "geometry": { "type": "Polygon", "coordinates": [ [ [ 113.624983152841182, 30.419253743381333 ], [ 113.624983152841182, 30.434745641570771 ], [ 113.607016847158803, 30.434745641570771 ], [ 113.607016847158803, 30.419253743381333 ], [ 113.624983152841182, 30.419253743381333 ] ] ] } },
{ "type": "Feature", "properties": { "北京时间": "2026-05-10 17:00" }, "geometry": { "type": "Polygon", "coordinates": [ [ [ 113.529983152841183, 30.648271987017555 ], [ 113.529983152841183, 30.6637273952126 ], [ 113.51201684715879, 30.6637273952126 ], [ 113.51201684715879, 30.648271987017555 ], [ 113.529983152841183, 30.648271987017555 ] ] ] } },
{ "type": "Feature", "properties": { "北京时间": "2026-05-10 17:00" }, "geometry": { "type": "Polygon", "coordinates": [ [ [ 114.383983152841182, 31.406333253340286 ], [ 114.383983152841182, 31.421666120162591 ], [ 114.366016847158804, 31.421666120162591 ], [ 114.366016847158804, 31.406333253340286 ], [ 114.383983152841182, 31.406333253340286 ] ] ] } },
{ "type": "Feature", "properties": { "北京时间": "2026-05-10 17:00" }, "geometry": { "type": "Polygon", "coordinates": [ [ [ 114.401983152841183, 31.648353096436555 ], [ 114.401983152841183, 31.66364627437212 ], [ 114.38401684715879, 31.66364627437212 ], [ 114.38401684715879, 31.648353096436555 ], [ 114.401983152841183, 31.648353096436555 ] ] ] } },
{ "type": "Feature", "properties": { "北京时间": "2026-05-10 17:00" }, "geometry": { "type": "Polygon", "coordinates": [ [ [ 113.589983152841185, 30.638271187772059 ], [ 113.589983152841185, 30.653728194576122 ], [ 113.572016847158793, 30.653728194576122 ], [ 113.572016847158793, 30.638271187772059 ], [ 113.589983152841185, 30.638271187772059 ] ] ] } },
{ "type": "Feature", "properties": { "北京时间": "2026-05-10 17:00" }, "geometry": { "type": "Polygon", "coordinates": [ [ [ 113.643983152841201, 30.584266875915802 ], [ 113.643983152841201, 30.599732507071121 ], [ 113.626016847158809, 30.599732507071121 ], [ 113.626016847158809, 30.584266875915802 ], [ 113.643983152841201, 30.584266875915802 ] ] ] } },
{ "type": "Feature", "properties": { "北京时间": "2026-05-10 17:00" }, "geometry": { "type": "Polygon", "coordinates": [ [ [ 113.482983152841186, 30.527262331965012 ], [ 113.482983152841186, 30.542737051698488 ], [ 113.465016847158793, 30.542737051698488 ], [ 113.465016847158793, 30.527262331965012 ], [ 113.482983152841186, 30.527262331965012 ] ] ] } },
{ "type": "Feature", "properties": { "北京时间": "2026-05-10 17:00" }, "geometry": { "type": "Polygon", "coordinates": [ [ [ 113.758983152841196, 30.937295186835961 ], [ 113.758983152841196, 30.952704192015425 ], [ 113.741016847158804, 30.952704192015425 ], [ 113.741016847158804, 30.937295186835961 ], [ 113.758983152841196, 30.937295186835961 ] ] ] } },
{ "type": "Feature", "properties": { "北京时间": "2026-05-10 16:00" }, "geometry": { "type": "Polygon", "coordinates": [ [ [ 113.516983152841192, 30.598267993144951 ], [ 113.516983152841192, 30.61373138967615 ], [ 113.499016847158799, 30.61373138967615 ], [ 113.499016847158799, 30.598267993144951 ], [ 113.516983152841192, 30.598267993144951 ] ] ] } },
{ "type": "Feature", "properties": { "北京时间": "2026-05-10 16:00" }, "geometry": { "type": "Polygon", "coordinates": [ [ [ 113.808983152841179, 30.991299543506283 ], [ 113.808983152841179, 31.006699834720781 ], [ 113.791016847158787, 31.006699834720781 ], [ 113.791016847158787, 30.991299543506283 ], [ 113.808983152841179, 30.991299543506283 ] ] ] } },
{ "type": "Feature", "properties": { "北京时间": "2026-05-10 16:00" }, "geometry": { "type": "Polygon", "coordinates": [ [ [ 114.483983152841176, 31.551345126395525 ], [ 114.483983152841176, 31.566654245487662 ], [ 114.466016847158784, 31.566654245487662 ], [ 114.466016847158784, 31.551345126395525 ], [ 114.483983152841176, 31.551345126395525 ] ] ] } },
{ "type": "Feature", "properties": { "北京时间": "2026-05-10 16:00" }, "geometry": { "type": "Polygon", "coordinates": [ [ [ 113.572983152841189, 30.55726472256363 ], [ 113.572983152841189, 30.572734660743464 ], [ 113.555016847158782, 30.572734660743464 ], [ 113.555016847158782, 30.55726472256363 ], [ 113.572983152841189, 30.55726472256363 ] ] ] } },
{ "type": "Feature", "properties": { "北京时间": "2026-05-10 16:00" }, "geometry": { "type": "Polygon", "coordinates": [ [ [ 113.486983152841177, 30.609268871291757 ], [ 113.486983152841177, 30.624730511399179 ], [ 113.469016847158798, 30.624730511399179 ], [ 113.469016847158798, 30.609268871291757 ], [ 113.486983152841177, 30.609268871291757 ] ] ] } },
{ "type": "Feature", "properties": { "北京时间": "2026-05-10 15:00" }, "geometry": { "type": "Polygon", "coordinates": [ [ [ 113.448983152841194, 30.555264563124396 ], [ 113.448983152841194, 30.570734820206429 ], [ 113.431016847158801, 30.570734820206429 ], [ 113.431016847158801, 30.555264563124396 ], [ 113.448983152841194, 30.555264563124396 ] ] ] } },
{ "type": "Feature", "properties": { "北京时间": "2026-05-10 15:00" }, "geometry": { "type": "Polygon", "coordinates": [ [ [ 113.495983152841177, 30.534262889581615 ], [ 113.495983152841177, 30.549736493998658 ], [ 113.478016847158784, 30.549736493998658 ], [ 113.478016847158784, 30.534262889581615 ], [ 113.495983152841177, 30.534262889581615 ] ] ] } },
{ "type": "Feature", "properties": { "北京时间": "2026-05-10 15:00" }, "geometry": { "type": "Polygon", "coordinates": [ [ [ 113.456983152841175, 30.583266796131387 ], [ 113.456983152841175, 30.598732586867378 ], [ 113.439016847158783, 30.598732586867378 ], [ 113.439016847158783, 30.583266796131387 ], [ 113.456983152841175, 30.583266796131387 ] ] ] } },
{ "type": "Feature", "properties": { "北京时间": "2026-05-10 15:00" }, "geometry": { "type": "Polygon", "coordinates": [ [ [ 113.894983152841178, 31.069305848550606 ], [ 113.894983152841178, 31.084693528778558 ], [ 113.877016847158799, 31.084693528778558 ], [ 113.877016847158799, 31.069305848550606 ], [ 113.894983152841178, 31.069305848550606 ] ] ] } },
{ "type": "Feature", "properties": { "北京时间": "2026-05-10 15:00" }, "geometry": { "type": "Polygon", "coordinates": [ [ [ 114.571983152841199, 31.705357790089106 ], [ 114.571983152841199, 31.720641580091524 ], [ 114.554016847158806, 31.720641580091524 ], [ 114.554016847158806, 31.705357790089106 ], [ 114.571983152841199, 31.705357790089106 ] ] ] } },
{ "type": "Feature", "properties": { "北京时间": "2026-05-10 14:00" }, "geometry": { "type": "Polygon", "coordinates": [ [ [ 113.44298315284118, 30.590267354671749 ], [ 113.44298315284118, 30.605732028244073 ], [ 113.425016847158787, 30.605732028244073 ], [ 113.425016847158787, 30.590267354671749 ], [ 113.44298315284118, 30.590267354671749 ] ] ] } },
{ "type": "Feature", "properties": { "北京时间": "2026-05-10 14:00" }, "geometry": { "type": "Polygon", "coordinates": [ [ [ 114.003983152841201, 31.166313709332904 ], [ 114.003983152841201, 31.181685666886068 ], [ 113.986016847158808, 31.181685666886068 ], [ 113.986016847158808, 31.166313709332904 ], [ 114.003983152841201, 31.166313709332904 ] ] ] } },
{ "type": "Feature", "properties": { "北京时间": "2026-05-10 13:00" }, "geometry": { "type": "Polygon", "coordinates": [ [ [ 114.118983152841196, 31.29432411604024 ], [ 114.118983152841196, 31.309675258724674 ], [ 114.101016847158803, 31.309675258724674 ], [ 114.101016847158803, 31.29432411604024 ], [ 114.118983152841196, 31.29432411604024 ] ] ] } },
{ "type": "Feature", "properties": { "北京时间": "2026-05-10 12:00" }, "geometry": { "type": "Polygon", "coordinates": [ [ [ 113.487983152841196, 30.686275026297402 ], [ 113.487983152841196, 30.701724355484888 ], [ 113.470016847158789, 30.701724355484888 ], [ 113.470016847158789, 30.686275026297402 ], [ 113.487983152841196, 30.686275026297402 ] ] ] } },
{ "type": "Feature", "properties": { "北京时间": "2026-05-10 12:00" }, "geometry": { "type": "Polygon", "coordinates": [ [ [ 114.225983152841195, 31.442336196553601 ], [ 114.225983152841195, 31.457663176545655 ], [ 114.208016847158802, 31.457663176545655 ], [ 114.208016847158802, 31.442336196553601 ], [ 114.225983152841195, 31.442336196553601 ] ] ] } },
{ "type": "Feature", "properties": { "北京时间": "2026-05-10 11:00" }, "geometry": { "type": "Polygon", "coordinates": [ [ [ 114.319983152841189, 31.605349560619484 ], [ 114.319983152841189, 31.620649810664631 ], [ 114.302016847158811, 31.620649810664631 ], [ 114.302016847158811, 31.605349560619484 ], [ 114.319983152841189, 31.605349560619484 ] ] ] } },
{ "type": "Feature", "properties": { "北京时间": "2026-05-10 11:00" }, "geometry": { "type": "Polygon", "coordinates": [ [ [ 113.571983152841185, 30.767281516103075 ], [ 113.571983152841185, 30.782717864728188 ], [ 113.554016847158792, 30.782717864728188 ], [ 113.554016847158792, 30.767281516103075 ], [ 113.571983152841185, 30.767281516103075 ] ] ] } },
{ "type": "Feature", "properties": { "北京时间": "2026-05-10 10:00" }, "geometry": { "type": "Polygon", "coordinates": [ [ [ 113.687983152841184, 30.883290837010374 ], [ 113.687983152841184, 30.898708542467542 ], [ 113.670016847158792, 30.898708542467542 ], [ 113.670016847158792, 30.883290837010374 ], [ 113.687983152841184, 30.883290837010374 ] ] ] } },
{ "type": "Feature", "properties": { "北京时间": "2026-05-10 09:00" }, "geometry": { "type": "Polygon", "coordinates": [ [ [ 113.813983152841189, 31.032302855917553 ], [ 113.813983152841189, 31.04769652183694 ], [ 113.79601684715881, 31.04769652183694 ], [ 113.79601684715881, 31.032302855917553 ], [ 113.813983152841189, 31.032302855917553 ] ] ] } },
{ "type": "Feature", "properties": { "北京时间": "2026-05-10 08:00" }, "geometry": { "type": "Polygon", "coordinates": [ [ [ 113.920983152841188, 31.190315657669696 ], [ 113.920983152841188, 31.205683718275676 ], [ 113.90301684715881, 31.205683718275676 ], [ 113.90301684715881, 31.190315657669696 ], [ 113.920983152841188, 31.190315657669696 ] ] ] } },
{ "type": "Feature", "properties": { "北京时间": "2026-05-10 07:00" }, "geometry": { "type": "Polygon", "coordinates": [ [ [ 114.019983152841192, 31.367330068275209 ], [ 114.019983152841192, 31.382669305666038 ], [ 114.002016847158799, 31.382669305666038 ], [ 114.002016847158799, 31.367330068275209 ], [ 114.019983152841192, 31.367330068275209 ] ] ] } },
{ "type": "Feature", "properties": { "北京时间": "2026-05-10 06:00" }, "geometry": { "type": "Polygon", "coordinates": [ [ [ 113.461983152841199, 30.667273506232597 ], [ 113.461983152841199, 30.682725875773485 ], [ 113.444016847158807, 30.682725875773485 ], [ 113.444016847158807, 30.667273506232597 ], [ 113.461983152841199, 30.667273506232597 ] ] ] } },
{ "type": "Feature", "properties": { "北京时间": "2026-05-10 06:00" }, "geometry": { "type": "Polygon", "coordinates": [ [ [ 114.1139831528412, 31.544344552086539 ], [ 114.1139831528412, 31.559654819874481 ], [ 114.096016847158808, 31.559654819874481 ], [ 114.096016847158808, 31.544344552086539 ], [ 114.1139831528412, 31.544344552086539 ] ] ] } },
{ "type": "Feature", "properties": { "北京时间": "2026-05-10 05:00" }, "geometry": { "type": "Polygon", "coordinates": [ [ [ 113.57998315284118, 30.788283201164241 ], [ 113.57998315284118, 30.803716179421276 ], [ 113.562016847158787, 30.803716179421276 ], [ 113.562016847158787, 30.788283201164241 ], [ 113.57998315284118, 30.788283201164241 ] ] ] } },
{ "type": "Feature", "properties": { "北京时间": "2026-05-10 05:00" }, "geometry": { "type": "Polygon", "coordinates": [ [ [ 114.20698315284119, 31.71935894407336 ], [ 114.20698315284119, 31.734640425953387 ], [ 114.189016847158797, 31.734640425953387 ], [ 114.189016847158797, 31.71935894407336 ], [ 114.20698315284119, 31.71935894407336 ] ] ] } },
{ "type": "Feature", "properties": { "北京时间": "2026-05-10 04:00" }, "geometry": { "type": "Polygon", "coordinates": [ [ [ 113.676983152841188, 30.941295509317605 ], [ 113.676983152841188, 30.956703869487473 ], [ 113.659016847158796, 30.956703869487473 ], [ 113.659016847158796, 30.941295509317605 ], [ 113.676983152841188, 30.941295509317605 ] ] ] } },
{ "type": "Feature", "properties": { "北京时间": "2026-05-10 03:00" }, "geometry": { "type": "Polygon", "coordinates": [ [ [ 113.750983152841201, 31.120309978791084 ], [ 113.750983152841201, 31.135689397953474 ], [ 113.733016847158808, 31.135689397953474 ], [ 113.733016847158808, 31.120309978791084 ], [ 113.750983152841201, 31.120309978791084 ] ] ] } },
{ "type": "Feature", "properties": { "北京时间": "2026-05-10 02:00" }, "geometry": { "type": "Polygon", "coordinates": [ [ [ 113.813983152841189, 31.305325012155176 ], [ 113.813983152841189, 31.320674362485377 ], [ 113.79601684715881, 31.320674362485377 ], [ 113.79601684715881, 31.305325012155176 ], [ 113.813983152841189, 31.305325012155176 ] ] ] } },
{ "type": "Feature", "properties": { "北京时间": "2026-05-10 00:00" }, "geometry": { "type": "Polygon", "coordinates": [ [ [ 113.443983152841184, 30.900292205661454 ], [ 113.443983152841184, 30.915707173618994 ], [ 113.426016847158792, 30.915707173618994 ], [ 113.426016847158792, 30.900292205661454 ], [ 113.443983152841184, 30.900292205661454 ] ] ] } },
{ "type": "Feature", "properties": { "北京时间": "2026-05-09 23:00" }, "geometry": { "type": "Polygon", "coordinates": [ [ [ 113.535983152841197, 31.125310384044663 ], [ 113.535983152841197, 31.140688992642684 ], [ 113.51801684715879, 31.140688992642684 ], [ 113.51801684715879, 31.125310384044663 ], [ 113.535983152841197, 31.125310384044663 ] ] ] } },
{ "type": "Feature", "properties": { "北京时间": "2026-05-09 22:00" }, "geometry": { "type": "Polygon", "coordinates": [ [ [ 113.607983152841214, 31.356329170566053 ], [ 113.607983152841214, 31.371670203499061 ], [ 113.590016847158807, 31.371670203499061 ], [ 113.590016847158807, 31.356329170566053 ], [ 113.607983152841214, 31.356329170566053 ] ] ] } },
{ "type": "Feature", "properties": { "北京时间": "2026-05-09 08:00" }, "geometry": { "type": "Polygon", "coordinates": [ [ [ 113.467983152841185, 30.410253028908112 ], [ 113.467983152841185, 30.425746356151777 ], [ 113.450016847158807, 30.425746356151777 ], [ 113.450016847158807, 30.410253028908112 ], [ 113.467983152841185, 30.410253028908112 ] ] ] } },
{ "type": "Feature", "properties": { "北京时间": "2026-05-09 07:00" }, "geometry": { "type": "Polygon", "coordinates": [ [ [ 113.503983152841187, 30.612269110835804 ], [ 113.503983152841187, 30.627730271819647 ], [ 113.486016847158808, 30.627730271819647 ], [ 113.486016847158808, 30.612269110835804 ], [ 113.503983152841187, 30.612269110835804 ] ] ] } },
{ "type": "Feature", "properties": { "北京时间": "2026-05-09 06:00" }, "geometry": { "type": "Polygon", "coordinates": [ [ [ 113.543983152841179, 30.829286494033393 ], [ 113.543983152841179, 30.844712886073264 ], [ 113.526016847158786, 30.844712886073264 ], [ 113.526016847158786, 30.829286494033393 ], [ 113.543983152841179, 30.829286494033393 ] ] ] } },
{ "type": "Feature", "properties": { "北京时间": "2026-05-09 05:00" }, "geometry": { "type": "Polygon", "coordinates": [ [ [ 113.597983152841181, 31.047304068760319 ], [ 113.597983152841181, 31.062695308821613 ], [ 113.580016847158788, 31.062695308821613 ], [ 113.580016847158788, 31.047304068760319 ], [ 113.597983152841181, 31.047304068760319 ] ] ] } },
{ "type": "Feature", "properties": { "北京时间": "2026-05-09 04:00" }, "geometry": { "type": "Polygon", "coordinates": [ [ [ 113.692983152841194, 31.256321022547834 ], [ 113.692983152841194, 31.271678352647456 ], [ 113.675016847158801, 31.271678352647456 ], [ 113.675016847158801, 31.256321022547834 ], [ 113.692983152841194, 31.256321022547834 ] ] ] } },
{ "type": "Feature", "properties": { "北京时间": "2026-05-09 03:00" }, "geometry": { "type": "Polygon", "coordinates": [ [ [ 113.83598315284118, 31.442336196553601 ], [ 113.83598315284118, 31.457663176545655 ], [ 113.818016847158802, 31.457663176545655 ], [ 113.818016847158802, 31.442336196553601 ], [ 113.83598315284118, 31.442336196553601 ] ] ] } }
]
}
