{
"type": "FeatureCollection",
"name": "天仙南路",
"crs": { "type": "name", "properties": { "name": "urn:ogc:def:crs:OGC:1.3:CRS84" } },
"features": [
{ "type": "Feature", "properties": { "北京时间": "2026-05-06 23:00" }, "geometry": { "type": "Polygon", "coordinates": [ [ [ 113.95498315284118, 30.892291561505822 ], [ 113.95498315284118, 30.907707817867532 ], [ 113.937016847158787, 30.907707817867532 ], [ 113.937016847158787, 30.892291561505822 ], [ 113.95498315284118, 30.892291561505822 ] ] ] } },
{ "type": "Feature", "properties": { "北京时间": "2026-05-06 22:00" }, "geometry": { "type": "Polygon", "coordinates": [ [ [ 113.883983152841182, 30.758280794251448 ], [ 113.883983152841182, 30.773718586685245 ], [ 113.866016847158804, 30.773718586685245 ], [ 113.866016847158804, 30.758280794251448 ], [ 113.883983152841182, 30.758280794251448 ] ] ] } },
{ "type": "Feature", "properties": { "北京时间": "2026-05-06 22:00" }, "geometry": { "type": "Polygon", "coordinates": [ [ [ 113.906983152841178, 30.675274146156323 ], [ 113.906983152841178, 30.690725235755497 ], [ 113.889016847158786, 30.690725235755497 ], [ 113.889016847158786, 30.675274146156323 ], [ 113.906983152841178, 30.675274146156323 ] ] ] } },
{ "type": "Feature", "properties": { "北京时间": "2026-05-06 22:00" }, "geometry": { "type": "Polygon", "coordinates": [ [ [ 113.982983152841186, 30.947295993110465 ], [ 113.982983152841186, 30.962703385625133 ], [ 113.965016847158793, 30.962703385625133 ], [ 113.965016847158793, 30.947295993110465 ], [ 113.982983152841186, 30.947295993110465 ] ] ] } },
{ "type": "Feature", "properties": { "北京时间": "2026-05-06 22:00" }, "geometry": { "type": "Polygon", "coordinates": [ [ [ 114.058983152841193, 30.773281997443313 ], [ 114.058983152841193, 30.788717383317692 ], [ 114.041016847158801, 30.788717383317692 ], [ 114.041016847158801, 30.773281997443313 ], [ 114.058983152841193, 30.773281997443313 ] ] ] } },
{ "type": "Feature", "properties": { "北京时间": "2026-05-06 22:00" }, "geometry": { "type": "Polygon", "coordinates": [ [ [ 114.049983152841193, 30.789283281431111 ], [ 114.049983152841193, 30.804716099142713 ], [ 114.0320168471588, 30.804716099142713 ], [ 114.0320168471588, 30.789283281431111 ], [ 114.049983152841193, 30.789283281431111 ] ] ] } },
{ "type": "Feature", "properties": { "北京时间": "2026-05-06 22:00" }, "geometry": { "type": "Polygon", "coordinates": [ [ [ 114.017983152841197, 30.782282719612382 ], [ 114.017983152841197, 30.7977166610433 ], [ 114.000016847158804, 30.7977166610433 ], [ 114.000016847158804, 30.782282719612382 ], [ 114.017983152841197, 30.782282719612382 ] ] ] } },
{ "type": "Feature", "properties": { "北京时间": "2026-05-06 22:00" }, "geometry": { "type": "Polygon", "coordinates": [ [ [ 113.909983152841178, 30.742279511430006 ], [ 113.909983152841178, 30.75771986969426 ], [ 113.892016847158786, 30.75771986969426 ], [ 113.892016847158786, 30.742279511430006 ], [ 113.909983152841178, 30.742279511430006 ] ] ] } },
{ "type": "Feature", "properties": { "北京时间": "2026-05-06 22:00" }, "geometry": { "type": "Polygon", "coordinates": [ [ [ 113.908983152841188, 30.704276467142492 ], [ 113.908983152841188, 30.719722914428033 ], [ 113.891016847158809, 30.719722914428033 ], [ 113.891016847158809, 30.704276467142492 ], [ 113.908983152841188, 30.704276467142492 ] ] ] } },
{ "type": "Feature", "properties": { "北京时间": "2026-05-06 21:00" }, "geometry": { "type": "Polygon", "coordinates": [ [ [ 113.812983152841213, 30.593267594081539 ], [ 113.812983152841213, 30.608731788798782 ], [ 113.795016847158806, 30.608731788798782 ], [ 113.795016847158806, 30.593267594081539 ], [ 113.812983152841213, 30.593267594081539 ] ] ] } },
{ "type": "Feature", "properties": { "北京时间": "2026-05-06 21:00" }, "geometry": { "type": "Polygon", "coordinates": [ [ [ 113.860983152841214, 30.584266875915802 ], [ 113.860983152841214, 30.599732507071121 ], [ 113.843016847158822, 30.599732507071121 ], [ 113.843016847158822, 30.584266875915802 ], [ 113.860983152841214, 30.584266875915802 ] ] ] } },
{ "type": "Feature", "properties": { "北京时间": "2026-05-06 21:00" }, "geometry": { "type": "Polygon", "coordinates": [ [ [ 113.972983152841195, 30.941295509317605 ], [ 113.972983152841195, 30.956703869487473 ], [ 113.955016847158802, 30.956703869487473 ], [ 113.955016847158802, 30.941295509317605 ], [ 113.972983152841195, 30.941295509317605 ] ] ] } },
{ "type": "Feature", "properties": { "北京时间": "2026-05-06 21:00" }, "geometry": { "type": "Polygon", "coordinates": [ [ [ 113.869983152841186, 30.523262013378808 ], [ 113.869983152841186, 30.53873737033225 ], [ 113.852016847158808, 30.53873737033225 ], [ 113.852016847158808, 30.523262013378808 ], [ 113.869983152841186, 30.523262013378808 ] ] ] } },
{ "type": "Feature", "properties": { "北京时间": "2026-05-06 20:00" }, "geometry": { "type": "Polygon", "coordinates": [ [ [ 113.919983152841183, 30.880290595554179 ], [ 113.919983152841183, 30.895708783958622 ], [ 113.902016847158805, 30.895708783958622 ], [ 113.902016847158805, 30.880290595554179 ], [ 113.919983152841183, 30.880290595554179 ] ] ] } },
{ "type": "Feature", "properties": { "北京时间": "2026-05-06 19:00" }, "geometry": { "type": "Polygon", "coordinates": [ [ [ 113.843983152841176, 30.775282157908876 ], [ 113.843983152841176, 30.790717222828729 ], [ 113.826016847158797, 30.790717222828729 ], [ 113.826016847158797, 30.775282157908876 ], [ 113.843983152841176, 30.775282157908876 ] ] ] } },
{ "type": "Feature", "properties": { "北京时间": "2026-05-06 18:00" }, "geometry": { "type": "Polygon", "coordinates": [ [ [ 113.764983152841211, 30.639271267686016 ], [ 113.764983152841211, 30.654728114650371 ], [ 113.747016847158804, 30.654728114650371 ], [ 113.747016847158804, 30.639271267686016 ], [ 113.764983152841211, 30.639271267686016 ] ] ] } },
{ "type": "Feature", "properties": { "北京时间": "2026-05-06 17:00" }, "geometry": { "type": "Polygon", "coordinates": [ [ [ 113.683983152841193, 30.474258113759426 ], [ 113.683983152841193, 30.489741270535358 ], [ 113.666016847158801, 30.489741270535358 ], [ 113.666016847158801, 30.474258113759426 ], [ 113.683983152841193, 30.474258113759426 ] ] ] } }
]
}
