{
"type": "FeatureCollection",
"name": "东城轨迹和高度",
"crs": { "type": "name", "properties": { "name": "urn:ogc:def:crs:OGC:1.3:CRS84" } },
"features": [
{ "type": "Feature", "properties": { "pt_id": "  1000", "trajectory_id": 1, "北京时间": "2026-05-01 10:00", "lon": 113.942, "lat": 30.907, "height": 10.0 }, "geometry": { "type": "Point", "coordinates": [ 113.942, 30.907 ] } },
{ "type": "Feature", "properties": { "pt_id": "  1001", "trajectory_id": 1, "北京时间": "2026-05-01 09:00", "lon": 113.978, "lat": 30.819, "height": 6.0 }, "geometry": { "type": "Point", "coordinates": [ 113.978, 30.819 ] } },
{ "type": "Feature", "properties": { "pt_id": "  1002", "trajectory_id": 1, "北京时间": "2026-05-01 08:00", "lon": 114.011, "lat": 30.736, "height": 0.0 }, "geometry": { "type": "Point", "coordinates": [ 114.011, 30.736 ] } },
{ "type": "Feature", "properties": { "pt_id": "  1003", "trajectory_id": 1, "北京时间": "2026-05-01 07:00", "lon": 114.046, "lat": 30.651, "height": 0.0 }, "geometry": { "type": "Point", "coordinates": [ 114.046, 30.651 ] } },
{ "type": "Feature", "properties": { "pt_id": "  1004", "trajectory_id": 1, "北京时间": "2026-05-01 06:00", "lon": 114.089, "lat": 30.561, "height": 0.0 }, "geometry": { "type": "Point", "coordinates": [ 114.089, 30.561 ] } },
{ "type": "Feature", "properties": { "pt_id": "  1005", "trajectory_id": 1, "北京时间": "2026-05-01 05:00", "lon": 114.128, "lat": 30.468, "height": 0.0 }, "geometry": { "type": "Point", "coordinates": [ 114.128, 30.468 ] } },
{ "type": "Feature", "properties": { "pt_id": "  1006", "trajectory_id": 1, "北京时间": "2026-05-01 04:00", "lon": 114.164, "lat": 30.386, "height": 0.0 }, "geometry": { "type": "Point", "coordinates": [ 114.164, 30.386 ] } },
{ "type": "Feature", "properties": { "pt_id": "  1007", "trajectory_id": 1, "北京时间": "2026-05-01 03:00", "lon": 114.204, "lat": 30.327, "height": 0.0 }, "geometry": { "type": "Point", "coordinates": [ 114.204, 30.327 ] } },
{ "type": "Feature", "properties": { "pt_id": "  1008", "trajectory_id": 1, "北京时间": "2026-05-01 02:00", "lon": 114.247, "lat": 30.29, "height": 0.0 }, "geometry": { "type": "Point", "coordinates": [ 114.247, 30.29 ] } },
{ "type": "Feature", "properties": { "pt_id": "  1009", "trajectory_id": 1, "北京时间": "2026-05-01 01:00", "lon": 114.286, "lat": 30.269, "height": 0.0 }, "geometry": { "type": "Point", "coordinates": [ 114.286, 30.269 ] } },
{ "type": "Feature", "properties": { "pt_id": "  1010", "trajectory_id": 1, "北京时间": "2026-05-01 00:00", "lon": 114.319, "lat": 30.253, "height": 1.0 }, "geometry": { "type": "Point", "coordinates": [ 114.319, 30.253 ] } },
{ "type": "Feature", "properties": { "pt_id": "  1011", "trajectory_id": 1, "北京时间": "2026-04-30 23:00", "lon": 114.344, "lat": 30.233, "height": 2.0 }, "geometry": { "type": "Point", "coordinates": [ 114.344, 30.233 ] } },
{ "type": "Feature", "properties": { "pt_id": "  1012", "trajectory_id": 1, "北京时间": "2026-04-30 22:00", "lon": 114.359, "lat": 30.205, "height": 3.0 }, "geometry": { "type": "Point", "coordinates": [ 114.359, 30.205 ] } },
{ "type": "Feature", "properties": { "pt_id": "  1013", "trajectory_id": 1, "北京时间": "2026-04-30 21:00", "lon": 114.369, "lat": 30.172, "height": 3.0 }, "geometry": { "type": "Point", "coordinates": [ 114.369, 30.172 ] } },
{ "type": "Feature", "properties": { "pt_id": "  1014", "trajectory_id": 1, "北京时间": "2026-04-30 20:00", "lon": 114.385, "lat": 30.136, "height": 4.0 }, "geometry": { "type": "Point", "coordinates": [ 114.385, 30.136 ] } },
{ "type": "Feature", "properties": { "pt_id": "  1015", "trajectory_id": 1, "北京时间": "2026-04-30 19:00", "lon": 114.404, "lat": 30.095, "height": 7.0 }, "geometry": { "type": "Point", "coordinates": [ 114.404, 30.095 ] } },
{ "type": "Feature", "properties": { "pt_id": "  1016", "trajectory_id": 1, "北京时间": "2026-04-30 18:00", "lon": 114.427, "lat": 30.049, "height": 14.0 }, "geometry": { "type": "Point", "coordinates": [ 114.427, 30.049 ] } },
{ "type": "Feature", "properties": { "pt_id": "  1017", "trajectory_id": 1, "北京时间": "2026-04-30 17:00", "lon": 114.454, "lat": 29.997, "height": 28.0 }, "geometry": { "type": "Point", "coordinates": [ 114.454, 29.997 ] } },
{ "type": "Feature", "properties": { "pt_id": "  1018", "trajectory_id": 1, "北京时间": "2026-04-30 16:00", "lon": 114.488, "lat": 29.934, "height": 57.0 }, "geometry": { "type": "Point", "coordinates": [ 114.488, 29.934 ] } },
{ "type": "Feature", "properties": { "pt_id": "  1019", "trajectory_id": 1, "北京时间": "2026-04-30 15:00", "lon": 114.529, "lat": 29.867, "height": 100.0 }, "geometry": { "type": "Point", "coordinates": [ 114.529, 29.867 ] } },
{ "type": "Feature", "properties": { "pt_id": "  1020", "trajectory_id": 1, "北京时间": "2026-04-30 14:00", "lon": 114.579, "lat": 29.806, "height": 153.0 }, "geometry": { "type": "Point", "coordinates": [ 114.579, 29.806 ] } },
{ "type": "Feature", "properties": { "pt_id": "  1021", "trajectory_id": 1, "北京时间": "2026-04-30 13:00", "lon": 114.636, "lat": 29.754, "height": 221.0 }, "geometry": { "type": "Point", "coordinates": [ 114.636, 29.754 ] } },
{ "type": "Feature", "properties": { "pt_id": "  1022", "trajectory_id": 1, "北京时间": "2026-04-30 12:00", "lon": 114.708, "lat": 29.706, "height": 308.0 }, "geometry": { "type": "Point", "coordinates": [ 114.708, 29.706 ] } },
{ "type": "Feature", "properties": { "pt_id": "  1023", "trajectory_id": 1, "北京时间": "2026-04-30 11:00", "lon": 114.807, "lat": 29.657, "height": 407.0 }, "geometry": { "type": "Point", "coordinates": [ 114.807, 29.657 ] } },
{ "type": "Feature", "properties": { "pt_id": "  1024", "trajectory_id": 1, "北京时间": "2026-04-30 10:00", "lon": 114.96, "lat": 29.613, "height": 503.0 }, "geometry": { "type": "Point", "coordinates": [ 114.96, 29.613 ] } },
{ "type": "Feature", "properties": { "pt_id": "  1025", "trajectory_id": 1, "北京时间": "2026-04-30 09:00", "lon": 115.197, "lat": 29.614, "height": 544.0 }, "geometry": { "type": "Point", "coordinates": [ 115.197, 29.614 ] } },
{ "type": "Feature", "properties": { "pt_id": "  1026", "trajectory_id": 1, "北京时间": "2026-04-30 08:00", "lon": 115.542, "lat": 29.707, "height": 485.0 }, "geometry": { "type": "Point", "coordinates": [ 115.542, 29.707 ] } },
{ "type": "Feature", "properties": { "pt_id": "  1027", "trajectory_id": 1, "北京时间": "2026-04-30 07:00", "lon": 115.931, "lat": 29.889, "height": 394.0 }, "geometry": { "type": "Point", "coordinates": [ 115.931, 29.889 ] } },
{ "type": "Feature", "properties": { "pt_id": "  1028", "trajectory_id": 1, "北京时间": "2026-04-30 06:00", "lon": 116.277, "lat": 30.134, "height": 476.0 }, "geometry": { "type": "Point", "coordinates": [ 116.277, 30.134 ] } },
{ "type": "Feature", "properties": { "pt_id": "  1029", "trajectory_id": 1, "北京时间": "2026-04-30 05:00", "lon": 116.636, "lat": 30.377, "height": 615.0 }, "geometry": { "type": "Point", "coordinates": [ 116.636, 30.377 ] } },
{ "type": "Feature", "properties": { "pt_id": "  1030", "trajectory_id": 1, "北京时间": "2026-04-30 04:00", "lon": 117.021, "lat": 30.591, "height": 786.0 }, "geometry": { "type": "Point", "coordinates": [ 117.021, 30.591 ] } },
{ "type": "Feature", "properties": { "pt_id": "  1031", "trajectory_id": 1, "北京时间": "2026-04-30 03:00", "lon": 117.415, "lat": 30.772, "height": 968.0 }, "geometry": { "type": "Point", "coordinates": [ 117.415, 30.772 ] } },
{ "type": "Feature", "properties": { "pt_id": "  1032", "trajectory_id": 1, "北京时间": "2026-04-30 02:00", "lon": 117.826, "lat": 30.94, "height": 1033.0 }, "geometry": { "type": "Point", "coordinates": [ 117.826, 30.94 ] } },
{ "type": "Feature", "properties": { "pt_id": "  1033", "trajectory_id": 1, "北京时间": "2026-04-30 01:00", "lon": 118.232, "lat": 31.103, "height": 1054.0 }, "geometry": { "type": "Point", "coordinates": [ 118.232, 31.103 ] } },
{ "type": "Feature", "properties": { "pt_id": "  1034", "trajectory_id": 1, "北京时间": "2026-04-30 00:00", "lon": 118.643, "lat": 31.266, "height": 1111.0 }, "geometry": { "type": "Point", "coordinates": [ 118.643, 31.266 ] } },
{ "type": "Feature", "properties": { "pt_id": "  1035", "trajectory_id": 1, "北京时间": "2026-04-29 23:00", "lon": 119.044, "lat": 31.469, "height": 1245.0 }, "geometry": { "type": "Point", "coordinates": [ 119.044, 31.469 ] } },
{ "type": "Feature", "properties": { "pt_id": "  1036", "trajectory_id": 1, "北京时间": "2026-04-29 22:00", "lon": 119.422, "lat": 31.708, "height": 1376.0 }, "geometry": { "type": "Point", "coordinates": [ 119.422, 31.708 ] } },
{ "type": "Feature", "properties": { "pt_id": "  1037", "trajectory_id": 1, "北京时间": "2026-04-29 21:00", "lon": 119.762, "lat": 31.967, "height": 1531.0 }, "geometry": { "type": "Point", "coordinates": [ 119.762, 31.967 ] } },
{ "type": "Feature", "properties": { "pt_id": "  1038", "trajectory_id": 1, "北京时间": "2026-04-29 20:00", "lon": 120.055, "lat": 32.272, "height": 1660.0 }, "geometry": { "type": "Point", "coordinates": [ 120.055, 32.272 ] } },
{ "type": "Feature", "properties": { "pt_id": "  1039", "trajectory_id": 1, "北京时间": "2026-04-29 19:00", "lon": 120.313, "lat": 32.61, "height": 1648.0 }, "geometry": { "type": "Point", "coordinates": [ 120.313, 32.61 ] } },
{ "type": "Feature", "properties": { "pt_id": "  2000", "trajectory_id": 2, "北京时间": "2026-05-01 10:00", "lon": 113.942, "lat": 30.907, "height": 10.0 }, "geometry": { "type": "Point", "coordinates": [ 113.942, 30.907 ] } },
{ "type": "Feature", "properties": { "pt_id": "  2005", "trajectory_id": 2, "北京时间": "2026-05-01 09:00", "lon": 113.95, "lat": 30.838, "height": 0.0 }, "geometry": { "type": "Point", "coordinates": [ 113.95, 30.838 ] } },
{ "type": "Feature", "properties": { "pt_id": "  2006", "trajectory_id": 2, "北京时间": "2026-05-01 08:00", "lon": 113.932, "lat": 30.775, "height": 0.0 }, "geometry": { "type": "Point", "coordinates": [ 113.932, 30.775 ] } },
{ "type": "Feature", "properties": { "pt_id": "  2007", "trajectory_id": 2, "北京时间": "2026-05-01 07:00", "lon": 113.908, "lat": 30.718, "height": 0.0 }, "geometry": { "type": "Point", "coordinates": [ 113.908, 30.718 ] } },
{ "type": "Feature", "properties": { "pt_id": "  2008", "trajectory_id": 2, "北京时间": "2026-05-01 06:00", "lon": 113.896, "lat": 30.67, "height": 0.0 }, "geometry": { "type": "Point", "coordinates": [ 113.896, 30.67 ] } },
{ "type": "Feature", "properties": { "pt_id": "  2009", "trajectory_id": 2, "北京时间": "2026-05-01 05:00", "lon": 113.893, "lat": 30.63, "height": 0.0 }, "geometry": { "type": "Point", "coordinates": [ 113.893, 30.63 ] } },
{ "type": "Feature", "properties": { "pt_id": "  2010", "trajectory_id": 2, "北京时间": "2026-05-01 04:00", "lon": 113.893, "lat": 30.59, "height": 0.0 }, "geometry": { "type": "Point", "coordinates": [ 113.893, 30.59 ] } },
{ "type": "Feature", "properties": { "pt_id": "  2011", "trajectory_id": 2, "北京时间": "2026-05-01 03:00", "lon": 113.892, "lat": 30.543, "height": 0.0 }, "geometry": { "type": "Point", "coordinates": [ 113.892, 30.543 ] } },
{ "type": "Feature", "properties": { "pt_id": "  2012", "trajectory_id": 2, "北京时间": "2026-05-01 02:00", "lon": 113.89, "lat": 30.489, "height": 0.0 }, "geometry": { "type": "Point", "coordinates": [ 113.89, 30.489 ] } },
{ "type": "Feature", "properties": { "pt_id": "  2013", "trajectory_id": 2, "北京时间": "2026-05-01 01:00", "lon": 113.888, "lat": 30.436, "height": 0.0 }, "geometry": { "type": "Point", "coordinates": [ 113.888, 30.436 ] } },
{ "type": "Feature", "properties": { "pt_id": "  2014", "trajectory_id": 2, "北京时间": "2026-05-01 00:00", "lon": 113.889, "lat": 30.385, "height": 0.0 }, "geometry": { "type": "Point", "coordinates": [ 113.889, 30.385 ] } },
{ "type": "Feature", "properties": { "pt_id": "  2015", "trajectory_id": 2, "北京时间": "2026-04-30 23:00", "lon": 113.89, "lat": 30.337, "height": 0.0 }, "geometry": { "type": "Point", "coordinates": [ 113.89, 30.337 ] } },
{ "type": "Feature", "properties": { "pt_id": "  2016", "trajectory_id": 2, "北京时间": "2026-04-30 22:00", "lon": 113.891, "lat": 30.289, "height": 0.0 }, "geometry": { "type": "Point", "coordinates": [ 113.891, 30.289 ] } },
{ "type": "Feature", "properties": { "pt_id": "  2017", "trajectory_id": 2, "北京时间": "2026-04-30 21:00", "lon": 113.897, "lat": 30.24, "height": 0.0 }, "geometry": { "type": "Point", "coordinates": [ 113.897, 30.24 ] } },
{ "type": "Feature", "properties": { "pt_id": "  2018", "trajectory_id": 2, "北京时间": "2026-04-30 20:00", "lon": 113.905, "lat": 30.188, "height": 0.0 }, "geometry": { "type": "Point", "coordinates": [ 113.905, 30.188 ] } },
{ "type": "Feature", "properties": { "pt_id": "  2019", "trajectory_id": 2, "北京时间": "2026-04-30 19:00", "lon": 113.919, "lat": 30.132, "height": 0.0 }, "geometry": { "type": "Point", "coordinates": [ 113.919, 30.132 ] } },
{ "type": "Feature", "properties": { "pt_id": "  2020", "trajectory_id": 2, "北京时间": "2026-04-30 18:00", "lon": 113.944, "lat": 30.074, "height": 0.0 }, "geometry": { "type": "Point", "coordinates": [ 113.944, 30.074 ] } },
{ "type": "Feature", "properties": { "pt_id": "  2021", "trajectory_id": 2, "北京时间": "2026-04-30 17:00", "lon": 113.98, "lat": 30.012, "height": 0.0 }, "geometry": { "type": "Point", "coordinates": [ 113.98, 30.012 ] } },
{ "type": "Feature", "properties": { "pt_id": "  2022", "trajectory_id": 2, "北京时间": "2026-04-30 16:00", "lon": 114.025, "lat": 29.947, "height": 4.0 }, "geometry": { "type": "Point", "coordinates": [ 114.025, 29.947 ] } },
{ "type": "Feature", "properties": { "pt_id": "  2023", "trajectory_id": 2, "北京时间": "2026-04-30 15:00", "lon": 114.078, "lat": 29.883, "height": 18.0 }, "geometry": { "type": "Point", "coordinates": [ 114.078, 29.883 ] } },
{ "type": "Feature", "properties": { "pt_id": "  2024", "trajectory_id": 2, "北京时间": "2026-04-30 14:00", "lon": 114.138, "lat": 29.812, "height": 54.0 }, "geometry": { "type": "Point", "coordinates": [ 114.138, 29.812 ] } },
{ "type": "Feature", "properties": { "pt_id": "  2025", "trajectory_id": 2, "北京时间": "2026-04-30 13:00", "lon": 114.213, "lat": 29.726, "height": 137.0 }, "geometry": { "type": "Point", "coordinates": [ 114.213, 29.726 ] } },
{ "type": "Feature", "properties": { "pt_id": "  2026", "trajectory_id": 2, "北京时间": "2026-04-30 12:00", "lon": 114.312, "lat": 29.639, "height": 262.0 }, "geometry": { "type": "Point", "coordinates": [ 114.312, 29.639 ] } },
{ "type": "Feature", "properties": { "pt_id": "  2027", "trajectory_id": 2, "北京时间": "2026-04-30 11:00", "lon": 114.42, "lat": 29.591, "height": 367.0 }, "geometry": { "type": "Point", "coordinates": [ 114.42, 29.591 ] } },
{ "type": "Feature", "properties": { "pt_id": "  2028", "trajectory_id": 2, "北京时间": "2026-04-30 10:00", "lon": 114.552, "lat": 29.573, "height": 471.0 }, "geometry": { "type": "Point", "coordinates": [ 114.552, 29.573 ] } },
{ "type": "Feature", "properties": { "pt_id": "  2029", "trajectory_id": 2, "北京时间": "2026-04-30 09:00", "lon": 114.714, "lat": 29.578, "height": 585.0 }, "geometry": { "type": "Point", "coordinates": [ 114.714, 29.578 ] } },
{ "type": "Feature", "properties": { "pt_id": "  2030", "trajectory_id": 2, "北京时间": "2026-04-30 08:00", "lon": 114.885, "lat": 29.605, "height": 691.0 }, "geometry": { "type": "Point", "coordinates": [ 114.885, 29.605 ] } },
{ "type": "Feature", "properties": { "pt_id": "  2031", "trajectory_id": 2, "北京时间": "2026-04-30 07:00", "lon": 115.058, "lat": 29.675, "height": 754.0 }, "geometry": { "type": "Point", "coordinates": [ 115.058, 29.675 ] } },
{ "type": "Feature", "properties": { "pt_id": "  2032", "trajectory_id": 2, "北京时间": "2026-04-30 06:00", "lon": 115.263, "lat": 29.826, "height": 872.0 }, "geometry": { "type": "Point", "coordinates": [ 115.263, 29.826 ] } },
{ "type": "Feature", "properties": { "pt_id": "  2033", "trajectory_id": 2, "北京时间": "2026-04-30 05:00", "lon": 115.446, "lat": 30.013, "height": 951.0 }, "geometry": { "type": "Point", "coordinates": [ 115.446, 30.013 ] } },
{ "type": "Feature", "properties": { "pt_id": "  2034", "trajectory_id": 2, "北京时间": "2026-04-30 04:00", "lon": 115.626, "lat": 30.203, "height": 1018.0 }, "geometry": { "type": "Point", "coordinates": [ 115.626, 30.203 ] } },
{ "type": "Feature", "properties": { "pt_id": "  2035", "trajectory_id": 2, "北京时间": "2026-04-30 03:00", "lon": 115.948, "lat": 30.46, "height": 1173.0 }, "geometry": { "type": "Point", "coordinates": [ 115.948, 30.46 ] } },
{ "type": "Feature", "properties": { "pt_id": "  2036", "trajectory_id": 2, "北京时间": "2026-04-30 02:00", "lon": 116.386, "lat": 30.763, "height": 1278.0 }, "geometry": { "type": "Point", "coordinates": [ 116.386, 30.763 ] } },
{ "type": "Feature", "properties": { "pt_id": "  2037", "trajectory_id": 2, "北京时间": "2026-04-30 01:00", "lon": 116.863, "lat": 31.059, "height": 1392.0 }, "geometry": { "type": "Point", "coordinates": [ 116.863, 31.059 ] } },
{ "type": "Feature", "properties": { "pt_id": "  2038", "trajectory_id": 2, "北京时间": "2026-04-30 00:00", "lon": 117.345, "lat": 31.33, "height": 1370.0 }, "geometry": { "type": "Point", "coordinates": [ 117.345, 31.33 ] } },
{ "type": "Feature", "properties": { "pt_id": "  2039", "trajectory_id": 2, "北京时间": "2026-04-29 23:00", "lon": 117.869, "lat": 31.608, "height": 1380.0 }, "geometry": { "type": "Point", "coordinates": [ 117.869, 31.608 ] } },
{ "type": "Feature", "properties": { "pt_id": "  3000", "trajectory_id": 3, "北京时间": "2026-05-01 10:00", "lon": 113.942, "lat": 30.907, "height": 10.0 }, "geometry": { "type": "Point", "coordinates": [ 113.942, 30.907 ] } },
{ "type": "Feature", "properties": { "pt_id": "  3009", "trajectory_id": 3, "北京时间": "2026-05-01 09:00", "lon": 113.933, "lat": 30.866, "height": 8.0 }, "geometry": { "type": "Point", "coordinates": [ 113.933, 30.866 ] } },
{ "type": "Feature", "properties": { "pt_id": "  3010", "trajectory_id": 3, "北京时间": "2026-05-01 08:00", "lon": 113.926, "lat": 30.826, "height": 8.0 }, "geometry": { "type": "Point", "coordinates": [ 113.926, 30.826 ] } },
{ "type": "Feature", "properties": { "pt_id": "  3011", "trajectory_id": 3, "北京时间": "2026-05-01 07:00", "lon": 113.92, "lat": 30.774, "height": 8.0 }, "geometry": { "type": "Point", "coordinates": [ 113.92, 30.774 ] } },
{ "type": "Feature", "properties": { "pt_id": "  3012", "trajectory_id": 3, "北京时间": "2026-05-01 06:00", "lon": 113.915, "lat": 30.713, "height": 8.0 }, "geometry": { "type": "Point", "coordinates": [ 113.915, 30.713 ] } },
{ "type": "Feature", "properties": { "pt_id": "  3013", "trajectory_id": 3, "北京时间": "2026-05-01 05:00", "lon": 113.913, "lat": 30.65, "height": 8.0 }, "geometry": { "type": "Point", "coordinates": [ 113.913, 30.65 ] } },
{ "type": "Feature", "properties": { "pt_id": "  3014", "trajectory_id": 3, "北京时间": "2026-05-01 04:00", "lon": 113.919, "lat": 30.593, "height": 8.0 }, "geometry": { "type": "Point", "coordinates": [ 113.919, 30.593 ] } },
{ "type": "Feature", "properties": { "pt_id": "  3015", "trajectory_id": 3, "北京时间": "2026-05-01 03:00", "lon": 113.931, "lat": 30.539, "height": 8.0 }, "geometry": { "type": "Point", "coordinates": [ 113.931, 30.539 ] } },
{ "type": "Feature", "properties": { "pt_id": "  3016", "trajectory_id": 3, "北京时间": "2026-05-01 02:00", "lon": 113.946, "lat": 30.486, "height": 8.0 }, "geometry": { "type": "Point", "coordinates": [ 113.946, 30.486 ] } },
{ "type": "Feature", "properties": { "pt_id": "  3017", "trajectory_id": 3, "北京时间": "2026-05-01 01:00", "lon": 113.963, "lat": 30.433, "height": 8.0 }, "geometry": { "type": "Point", "coordinates": [ 113.963, 30.433 ] } },
{ "type": "Feature", "properties": { "pt_id": "  3018", "trajectory_id": 3, "北京时间": "2026-05-01 00:00", "lon": 113.982, "lat": 30.381, "height": 7.0 }, "geometry": { "type": "Point", "coordinates": [ 113.982, 30.381 ] } },
{ "type": "Feature", "properties": { "pt_id": "  3019", "trajectory_id": 3, "北京时间": "2026-04-30 23:00", "lon": 114.009, "lat": 30.323, "height": 5.0 }, "geometry": { "type": "Point", "coordinates": [ 114.009, 30.323 ] } },
{ "type": "Feature", "properties": { "pt_id": "  3020", "trajectory_id": 3, "北京时间": "2026-04-30 22:00", "lon": 114.051, "lat": 30.258, "height": 3.0 }, "geometry": { "type": "Point", "coordinates": [ 114.051, 30.258 ] } },
{ "type": "Feature", "properties": { "pt_id": "  3021", "trajectory_id": 3, "北京时间": "2026-04-30 21:00", "lon": 114.109, "lat": 30.188, "height": 3.0 }, "geometry": { "type": "Point", "coordinates": [ 114.109, 30.188 ] } },
{ "type": "Feature", "properties": { "pt_id": "  3022", "trajectory_id": 3, "北京时间": "2026-04-30 20:00", "lon": 114.175, "lat": 30.115, "height": 6.0 }, "geometry": { "type": "Point", "coordinates": [ 114.175, 30.115 ] } },
{ "type": "Feature", "properties": { "pt_id": "  3023", "trajectory_id": 3, "北京时间": "2026-04-30 19:00", "lon": 114.247, "lat": 30.034, "height": 14.0 }, "geometry": { "type": "Point", "coordinates": [ 114.247, 30.034 ] } },
{ "type": "Feature", "properties": { "pt_id": "  3024", "trajectory_id": 3, "北京时间": "2026-04-30 18:00", "lon": 114.328, "lat": 29.94, "height": 37.0 }, "geometry": { "type": "Point", "coordinates": [ 114.328, 29.94 ] } },
{ "type": "Feature", "properties": { "pt_id": "  3025", "trajectory_id": 3, "北京时间": "2026-04-30 17:00", "lon": 114.423, "lat": 29.839, "height": 97.0 }, "geometry": { "type": "Point", "coordinates": [ 114.423, 29.839 ] } },
{ "type": "Feature", "properties": { "pt_id": "  3026", "trajectory_id": 3, "北京时间": "2026-04-30 16:00", "lon": 114.531, "lat": 29.754, "height": 194.0 }, "geometry": { "type": "Point", "coordinates": [ 114.531, 29.754 ] } },
{ "type": "Feature", "properties": { "pt_id": "  3027", "trajectory_id": 3, "北京时间": "2026-04-30 15:00", "lon": 114.642, "lat": 29.694, "height": 313.0 }, "geometry": { "type": "Point", "coordinates": [ 114.642, 29.694 ] } },
{ "type": "Feature", "properties": { "pt_id": "  3028", "trajectory_id": 3, "北京时间": "2026-04-30 14:00", "lon": 114.773, "lat": 29.653, "height": 427.0 }, "geometry": { "type": "Point", "coordinates": [ 114.773, 29.653 ] } },
{ "type": "Feature", "properties": { "pt_id": "  3029", "trajectory_id": 3, "北京时间": "2026-04-30 13:00", "lon": 114.934, "lat": 29.64, "height": 492.0 }, "geometry": { "type": "Point", "coordinates": [ 114.934, 29.64 ] } },
{ "type": "Feature", "properties": { "pt_id": "  3030", "trajectory_id": 3, "北京时间": "2026-04-30 12:00", "lon": 115.107, "lat": 29.658, "height": 540.0 }, "geometry": { "type": "Point", "coordinates": [ 115.107, 29.658 ] } },
{ "type": "Feature", "properties": { "pt_id": "  3031", "trajectory_id": 3, "北京时间": "2026-04-30 11:00", "lon": 115.301, "lat": 29.747, "height": 684.0 }, "geometry": { "type": "Point", "coordinates": [ 115.301, 29.747 ] } },
{ "type": "Feature", "properties": { "pt_id": "  3032", "trajectory_id": 3, "北京时间": "2026-04-30 10:00", "lon": 115.53, "lat": 29.921, "height": 748.0 }, "geometry": { "type": "Point", "coordinates": [ 115.53, 29.921 ] } },
{ "type": "Feature", "properties": { "pt_id": "  3033", "trajectory_id": 3, "北京时间": "2026-04-30 09:00", "lon": 115.733, "lat": 30.126, "height": 840.0 }, "geometry": { "type": "Point", "coordinates": [ 115.733, 30.126 ] } },
{ "type": "Feature", "properties": { "pt_id": "  3034", "trajectory_id": 3, "北京时间": "2026-04-30 08:00", "lon": 115.995, "lat": 30.368, "height": 964.0 }, "geometry": { "type": "Point", "coordinates": [ 115.995, 30.368 ] } },
{ "type": "Feature", "properties": { "pt_id": "  3035", "trajectory_id": 3, "北京时间": "2026-04-30 07:00", "lon": 116.361, "lat": 30.651, "height": 1096.0 }, "geometry": { "type": "Point", "coordinates": [ 116.361, 30.651 ] } },
{ "type": "Feature", "properties": { "pt_id": "  3036", "trajectory_id": 3, "北京时间": "2026-04-30 06:00", "lon": 116.81, "lat": 30.936, "height": 1222.0 }, "geometry": { "type": "Point", "coordinates": [ 116.81, 30.936 ] } },
{ "type": "Feature", "properties": { "pt_id": "  3037", "trajectory_id": 3, "北京时间": "2026-04-30 05:00", "lon": 117.289, "lat": 31.16, "height": 1127.0 }, "geometry": { "type": "Point", "coordinates": [ 117.289, 31.16 ] } },
{ "type": "Feature", "properties": { "pt_id": "  3038", "trajectory_id": 3, "北京时间": "2026-04-30 04:00", "lon": 117.814, "lat": 31.365, "height": 1138.0 }, "geometry": { "type": "Point", "coordinates": [ 117.814, 31.365 ] } },
{ "type": "Feature", "properties": { "pt_id": "  3039", "trajectory_id": 3, "北京时间": "2026-04-30 03:00", "lon": 118.395, "lat": 31.61, "height": 1218.0 }, "geometry": { "type": "Point", "coordinates": [ 118.395, 31.61 ] } },
{ "type": "Feature", "properties": { "pt_id": "  4000", "trajectory_id": 4, "北京时间": "2026-05-01 10:00", "lon": 113.942, "lat": 30.907, "height": 10.0 }, "geometry": { "type": "Point", "coordinates": [ 113.942, 30.907 ] } },
{ "type": "Feature", "properties": { "pt_id": "  4013", "trajectory_id": 4, "北京时间": "2026-05-01 09:00", "lon": 113.94, "lat": 30.838, "height": 10.0 }, "geometry": { "type": "Point", "coordinates": [ 113.94, 30.838 ] } },
{ "type": "Feature", "properties": { "pt_id": "  4014", "trajectory_id": 4, "北京时间": "2026-05-01 08:00", "lon": 113.948, "lat": 30.777, "height": 10.0 }, "geometry": { "type": "Point", "coordinates": [ 113.948, 30.777 ] } },
{ "type": "Feature", "properties": { "pt_id": "  4015", "trajectory_id": 4, "北京时间": "2026-05-01 07:00", "lon": 113.964, "lat": 30.723, "height": 10.0 }, "geometry": { "type": "Point", "coordinates": [ 113.964, 30.723 ] } },
{ "type": "Feature", "properties": { "pt_id": "  4016", "trajectory_id": 4, "北京时间": "2026-05-01 06:00", "lon": 113.981, "lat": 30.671, "height": 10.0 }, "geometry": { "type": "Point", "coordinates": [ 113.981, 30.671 ] } },
{ "type": "Feature", "properties": { "pt_id": "  4017", "trajectory_id": 4, "北京时间": "2026-05-01 05:00", "lon": 113.993, "lat": 30.615, "height": 10.0 }, "geometry": { "type": "Point", "coordinates": [ 113.993, 30.615 ] } },
{ "type": "Feature", "properties": { "pt_id": "  4018", "trajectory_id": 4, "北京时间": "2026-05-01 04:00", "lon": 114.005, "lat": 30.559, "height": 10.0 }, "geometry": { "type": "Point", "coordinates": [ 114.005, 30.559 ] } },
{ "type": "Feature", "properties": { "pt_id": "  4019", "trajectory_id": 4, "北京时间": "2026-05-01 03:00", "lon": 114.024, "lat": 30.502, "height": 10.0 }, "geometry": { "type": "Point", "coordinates": [ 114.024, 30.502 ] } },
{ "type": "Feature", "properties": { "pt_id": "  4020", "trajectory_id": 4, "北京时间": "2026-05-01 02:00", "lon": 114.053, "lat": 30.435, "height": 10.0 }, "geometry": { "type": "Point", "coordinates": [ 114.053, 30.435 ] } },
{ "type": "Feature", "properties": { "pt_id": "  4021", "trajectory_id": 4, "北京时间": "2026-05-01 01:00", "lon": 114.095, "lat": 30.36, "height": 10.0 }, "geometry": { "type": "Point", "coordinates": [ 114.095, 30.36 ] } },
{ "type": "Feature", "properties": { "pt_id": "  4022", "trajectory_id": 4, "北京时间": "2026-05-01 00:00", "lon": 114.153, "lat": 30.284, "height": 10.0 }, "geometry": { "type": "Point", "coordinates": [ 114.153, 30.284 ] } },
{ "type": "Feature", "properties": { "pt_id": "  4023", "trajectory_id": 4, "北京时间": "2026-04-30 23:00", "lon": 114.216, "lat": 30.207, "height": 10.0 }, "geometry": { "type": "Point", "coordinates": [ 114.216, 30.207 ] } },
{ "type": "Feature", "properties": { "pt_id": "  4024", "trajectory_id": 4, "北京时间": "2026-04-30 22:00", "lon": 114.281, "lat": 30.117, "height": 16.0 }, "geometry": { "type": "Point", "coordinates": [ 114.281, 30.117 ] } },
{ "type": "Feature", "properties": { "pt_id": "  4025", "trajectory_id": 4, "北京时间": "2026-04-30 21:00", "lon": 114.368, "lat": 30.012, "height": 37.0 }, "geometry": { "type": "Point", "coordinates": [ 114.368, 30.012 ] } },
{ "type": "Feature", "properties": { "pt_id": "  4026", "trajectory_id": 4, "北京时间": "2026-04-30 20:00", "lon": 114.493, "lat": 29.89, "height": 107.0 }, "geometry": { "type": "Point", "coordinates": [ 114.493, 29.89 ] } },
{ "type": "Feature", "properties": { "pt_id": "  4027", "trajectory_id": 4, "北京时间": "2026-04-30 19:00", "lon": 114.613, "lat": 29.793, "height": 212.0 }, "geometry": { "type": "Point", "coordinates": [ 114.613, 29.793 ] } },
{ "type": "Feature", "properties": { "pt_id": "  4028", "trajectory_id": 4, "北京时间": "2026-04-30 18:00", "lon": 114.728, "lat": 29.73, "height": 300.0 }, "geometry": { "type": "Point", "coordinates": [ 114.728, 29.73 ] } },
{ "type": "Feature", "properties": { "pt_id": "  4029", "trajectory_id": 4, "北京时间": "2026-04-30 17:00", "lon": 114.861, "lat": 29.693, "height": 344.0 }, "geometry": { "type": "Point", "coordinates": [ 114.861, 29.693 ] } },
{ "type": "Feature", "properties": { "pt_id": "  4030", "trajectory_id": 4, "北京时间": "2026-04-30 16:00", "lon": 115.013, "lat": 29.675, "height": 346.0 }, "geometry": { "type": "Point", "coordinates": [ 115.013, 29.675 ] } },
{ "type": "Feature", "properties": { "pt_id": "  4031", "trajectory_id": 4, "北京时间": "2026-04-30 15:00", "lon": 115.179, "lat": 29.706, "height": 380.0 }, "geometry": { "type": "Point", "coordinates": [ 115.179, 29.706 ] } },
{ "type": "Feature", "properties": { "pt_id": "  4032", "trajectory_id": 4, "北京时间": "2026-04-30 14:00", "lon": 115.366, "lat": 29.801, "height": 436.0 }, "geometry": { "type": "Point", "coordinates": [ 115.366, 29.801 ] } },
{ "type": "Feature", "properties": { "pt_id": "  4033", "trajectory_id": 4, "北京时间": "2026-04-30 13:00", "lon": 115.549, "lat": 29.94, "height": 378.0 }, "geometry": { "type": "Point", "coordinates": [ 115.549, 29.94 ] } },
{ "type": "Feature", "properties": { "pt_id": "  4034", "trajectory_id": 4, "北京时间": "2026-04-30 12:00", "lon": 115.732, "lat": 30.102, "height": 405.0 }, "geometry": { "type": "Point", "coordinates": [ 115.732, 30.102 ] } },
{ "type": "Feature", "properties": { "pt_id": "  4035", "trajectory_id": 4, "北京时间": "2026-04-30 11:00", "lon": 115.974, "lat": 30.323, "height": 548.0 }, "geometry": { "type": "Point", "coordinates": [ 115.974, 30.323 ] } },
{ "type": "Feature", "properties": { "pt_id": "  4036", "trajectory_id": 4, "北京时间": "2026-04-30 10:00", "lon": 116.296, "lat": 30.598, "height": 738.0 }, "geometry": { "type": "Point", "coordinates": [ 116.296, 30.598 ] } },
{ "type": "Feature", "properties": { "pt_id": "  4037", "trajectory_id": 4, "北京时间": "2026-04-30 09:00", "lon": 116.714, "lat": 30.887, "height": 898.0 }, "geometry": { "type": "Point", "coordinates": [ 116.714, 30.887 ] } },
{ "type": "Feature", "properties": { "pt_id": "  4038", "trajectory_id": 4, "北京时间": "2026-04-30 08:00", "lon": 117.192, "lat": 31.103, "height": 863.0 }, "geometry": { "type": "Point", "coordinates": [ 117.192, 31.103 ] } },
{ "type": "Feature", "properties": { "pt_id": "  4039", "trajectory_id": 4, "北京时间": "2026-04-30 07:00", "lon": 117.786, "lat": 31.284, "height": 928.0 }, "geometry": { "type": "Point", "coordinates": [ 117.786, 31.284 ] } },
{ "type": "Feature", "properties": { "pt_id": "  5000", "trajectory_id": 5, "北京时间": "2026-05-01 10:00", "lon": 113.942, "lat": 30.907, "height": 10.0 }, "geometry": { "type": "Point", "coordinates": [ 113.942, 30.907 ] } },
{ "type": "Feature", "properties": { "pt_id": "  5017", "trajectory_id": 5, "北京时间": "2026-05-01 09:00", "lon": 113.959, "lat": 30.852, "height": 9.0 }, "geometry": { "type": "Point", "coordinates": [ 113.959, 30.852 ] } },
{ "type": "Feature", "properties": { "pt_id": "  5018", "trajectory_id": 5, "北京时间": "2026-05-01 08:00", "lon": 113.965, "lat": 30.793, "height": 8.0 }, "geometry": { "type": "Point", "coordinates": [ 113.965, 30.793 ] } },
{ "type": "Feature", "properties": { "pt_id": "  5019", "trajectory_id": 5, "北京时间": "2026-05-01 07:00", "lon": 113.969, "lat": 30.733, "height": 7.0 }, "geometry": { "type": "Point", "coordinates": [ 113.969, 30.733 ] } },
{ "type": "Feature", "properties": { "pt_id": "  5020", "trajectory_id": 5, "北京时间": "2026-05-01 06:00", "lon": 113.985, "lat": 30.676, "height": 5.0 }, "geometry": { "type": "Point", "coordinates": [ 113.985, 30.676 ] } },
{ "type": "Feature", "properties": { "pt_id": "  5021", "trajectory_id": 5, "北京时间": "2026-05-01 05:00", "lon": 114.012, "lat": 30.616, "height": 3.0 }, "geometry": { "type": "Point", "coordinates": [ 114.012, 30.616 ] } },
{ "type": "Feature", "properties": { "pt_id": "  5022", "trajectory_id": 5, "北京时间": "2026-05-01 04:00", "lon": 114.051, "lat": 30.556, "height": 1.0 }, "geometry": { "type": "Point", "coordinates": [ 114.051, 30.556 ] } },
{ "type": "Feature", "properties": { "pt_id": "  5023", "trajectory_id": 5, "北京时间": "2026-05-01 03:00", "lon": 114.101, "lat": 30.503, "height": 0.0 }, "geometry": { "type": "Point", "coordinates": [ 114.101, 30.503 ] } },
{ "type": "Feature", "properties": { "pt_id": "  5024", "trajectory_id": 5, "北京时间": "2026-05-01 02:00", "lon": 114.151, "lat": 30.451, "height": 0.0 }, "geometry": { "type": "Point", "coordinates": [ 114.151, 30.451 ] } },
{ "type": "Feature", "properties": { "pt_id": "  5025", "trajectory_id": 5, "北京时间": "2026-05-01 01:00", "lon": 114.203, "lat": 30.408, "height": 0.0 }, "geometry": { "type": "Point", "coordinates": [ 114.203, 30.408 ] } },
{ "type": "Feature", "properties": { "pt_id": "  5026", "trajectory_id": 5, "北京时间": "2026-05-01 00:00", "lon": 114.261, "lat": 30.392, "height": 0.0 }, "geometry": { "type": "Point", "coordinates": [ 114.261, 30.392 ] } },
{ "type": "Feature", "properties": { "pt_id": "  5027", "trajectory_id": 5, "北京时间": "2026-04-30 23:00", "lon": 114.33, "lat": 30.411, "height": 0.0 }, "geometry": { "type": "Point", "coordinates": [ 114.33, 30.411 ] } },
{ "type": "Feature", "properties": { "pt_id": "  5028", "trajectory_id": 5, "北京时间": "2026-04-30 22:00", "lon": 114.415, "lat": 30.462, "height": 0.0 }, "geometry": { "type": "Point", "coordinates": [ 114.415, 30.462 ] } },
{ "type": "Feature", "properties": { "pt_id": "  5029", "trajectory_id": 5, "北京时间": "2026-04-30 21:00", "lon": 114.506, "lat": 30.536, "height": 0.0 }, "geometry": { "type": "Point", "coordinates": [ 114.506, 30.536 ] } },
{ "type": "Feature", "properties": { "pt_id": "  5030", "trajectory_id": 5, "北京时间": "2026-04-30 20:00", "lon": 114.602, "lat": 30.63, "height": 4.0 }, "geometry": { "type": "Point", "coordinates": [ 114.602, 30.63 ] } },
{ "type": "Feature", "properties": { "pt_id": "  5031", "trajectory_id": 5, "北京时间": "2026-04-30 19:00", "lon": 114.698, "lat": 30.737, "height": 12.0 }, "geometry": { "type": "Point", "coordinates": [ 114.698, 30.737 ] } },
{ "type": "Feature", "properties": { "pt_id": "  5032", "trajectory_id": 5, "北京时间": "2026-04-30 18:00", "lon": 114.786, "lat": 30.828, "height": 19.0 }, "geometry": { "type": "Point", "coordinates": [ 114.786, 30.828 ] } },
{ "type": "Feature", "properties": { "pt_id": "  5033", "trajectory_id": 5, "北京时间": "2026-04-30 17:00", "lon": 114.894, "lat": 30.935, "height": 36.0 }, "geometry": { "type": "Point", "coordinates": [ 114.894, 30.935 ] } },
{ "type": "Feature", "properties": { "pt_id": "  5034", "trajectory_id": 5, "北京时间": "2026-04-30 16:00", "lon": 115.048, "lat": 31.093, "height": 80.0 }, "geometry": { "type": "Point", "coordinates": [ 115.048, 31.093 ] } },
{ "type": "Feature", "properties": { "pt_id": "  5035", "trajectory_id": 5, "北京时间": "2026-04-30 15:00", "lon": 115.23, "lat": 31.229, "height": 219.0 }, "geometry": { "type": "Point", "coordinates": [ 115.23, 31.229 ] } },
{ "type": "Feature", "properties": { "pt_id": "  5036", "trajectory_id": 5, "北京时间": "2026-04-30 14:00", "lon": 115.494, "lat": 31.362, "height": 425.0 }, "geometry": { "type": "Point", "coordinates": [ 115.494, 31.362 ] } },
{ "type": "Feature", "properties": { "pt_id": "  5037", "trajectory_id": 5, "北京时间": "2026-04-30 13:00", "lon": 115.803, "lat": 31.463, "height": 490.0 }, "geometry": { "type": "Point", "coordinates": [ 115.803, 31.463 ] } },
{ "type": "Feature", "properties": { "pt_id": "  5038", "trajectory_id": 5, "北京时间": "2026-04-30 12:00", "lon": 116.119, "lat": 31.508, "height": 445.0 }, "geometry": { "type": "Point", "coordinates": [ 116.119, 31.508 ] } },
{ "type": "Feature", "properties": { "pt_id": "  5039", "trajectory_id": 5, "北京时间": "2026-04-30 11:00", "lon": 116.392, "lat": 31.523, "height": 318.0 }, "geometry": { "type": "Point", "coordinates": [ 116.392, 31.523 ] } },
{ "type": "Feature", "properties": { "pt_id": "  6000", "trajectory_id": 6, "北京时间": "2026-05-01 10:00", "lon": 113.942, "lat": 30.907, "height": 10.0 }, "geometry": { "type": "Point", "coordinates": [ 113.942, 30.907 ] } },
{ "type": "Feature", "properties": { "pt_id": "  6021", "trajectory_id": 6, "北京时间": "2026-05-01 09:00", "lon": 113.998, "lat": 30.87, "height": 8.0 }, "geometry": { "type": "Point", "coordinates": [ 113.998, 30.87 ] } },
{ "type": "Feature", "properties": { "pt_id": "  6022", "trajectory_id": 6, "北京时间": "2026-05-01 08:00", "lon": 114.059, "lat": 30.84, "height": 6.0 }, "geometry": { "type": "Point", "coordinates": [ 114.059, 30.84 ] } },
{ "type": "Feature", "properties": { "pt_id": "  6023", "trajectory_id": 6, "北京时间": "2026-05-01 07:00", "lon": 114.129, "lat": 30.824, "height": 5.0 }, "geometry": { "type": "Point", "coordinates": [ 114.129, 30.824 ] } },
{ "type": "Feature", "properties": { "pt_id": "  6024", "trajectory_id": 6, "北京时间": "2026-05-01 06:00", "lon": 114.217, "lat": 30.83, "height": 6.0 }, "geometry": { "type": "Point", "coordinates": [ 114.217, 30.83 ] } },
{ "type": "Feature", "properties": { "pt_id": "  6025", "trajectory_id": 6, "北京时间": "2026-05-01 05:00", "lon": 114.311, "lat": 30.857, "height": 13.0 }, "geometry": { "type": "Point", "coordinates": [ 114.311, 30.857 ] } },
{ "type": "Feature", "properties": { "pt_id": "  6026", "trajectory_id": 6, "北京时间": "2026-05-01 04:00", "lon": 114.403, "lat": 30.908, "height": 24.0 }, "geometry": { "type": "Point", "coordinates": [ 114.403, 30.908 ] } },
{ "type": "Feature", "properties": { "pt_id": "  6027", "trajectory_id": 6, "北京时间": "2026-05-01 03:00", "lon": 114.487, "lat": 30.999, "height": 46.0 }, "geometry": { "type": "Point", "coordinates": [ 114.487, 30.999 ] } },
{ "type": "Feature", "properties": { "pt_id": "  6028", "trajectory_id": 6, "北京时间": "2026-05-01 02:00", "lon": 114.598, "lat": 31.119, "height": 73.0 }, "geometry": { "type": "Point", "coordinates": [ 114.598, 31.119 ] } },
{ "type": "Feature", "properties": { "pt_id": "  6029", "trajectory_id": 6, "北京时间": "2026-05-01 01:00", "lon": 114.753, "lat": 31.24, "height": 117.0 }, "geometry": { "type": "Point", "coordinates": [ 114.753, 31.24 ] } },
{ "type": "Feature", "properties": { "pt_id": "  6030", "trajectory_id": 6, "北京时间": "2026-05-01 00:00", "lon": 114.929, "lat": 31.349, "height": 207.0 }, "geometry": { "type": "Point", "coordinates": [ 114.929, 31.349 ] } },
{ "type": "Feature", "properties": { "pt_id": "  6031", "trajectory_id": 6, "北京时间": "2026-04-30 23:00", "lon": 115.118, "lat": 31.448, "height": 329.0 }, "geometry": { "type": "Point", "coordinates": [ 115.118, 31.448 ] } },
{ "type": "Feature", "properties": { "pt_id": "  6032", "trajectory_id": 6, "北京时间": "2026-04-30 22:00", "lon": 115.339, "lat": 31.533, "height": 402.0 }, "geometry": { "type": "Point", "coordinates": [ 115.339, 31.533 ] } },
{ "type": "Feature", "properties": { "pt_id": "  6033", "trajectory_id": 6, "北京时间": "2026-04-30 21:00", "lon": 115.581, "lat": 31.606, "height": 454.0 }, "geometry": { "type": "Point", "coordinates": [ 115.581, 31.606 ] } },
{ "type": "Feature", "properties": { "pt_id": "  6034", "trajectory_id": 6, "北京时间": "2026-04-30 20:00", "lon": 115.817, "lat": 31.657, "height": 467.0 }, "geometry": { "type": "Point", "coordinates": [ 115.817, 31.657 ] } },
{ "type": "Feature", "properties": { "pt_id": "  6035", "trajectory_id": 6, "北京时间": "2026-04-30 19:00", "lon": 116.047, "lat": 31.692, "height": 435.0 }, "geometry": { "type": "Point", "coordinates": [ 116.047, 31.692 ] } },
{ "type": "Feature", "properties": { "pt_id": "  6036", "trajectory_id": 6, "北京时间": "2026-04-30 18:00", "lon": 116.274, "lat": 31.73, "height": 416.0 }, "geometry": { "type": "Point", "coordinates": [ 116.274, 31.73 ] } },
{ "type": "Feature", "properties": { "pt_id": "  6037", "trajectory_id": 6, "北京时间": "2026-04-30 17:00", "lon": 116.505, "lat": 31.763, "height": 426.0 }, "geometry": { "type": "Point", "coordinates": [ 116.505, 31.763 ] } },
{ "type": "Feature", "properties": { "pt_id": "  6038", "trajectory_id": 6, "北京时间": "2026-04-30 16:00", "lon": 116.757, "lat": 31.782, "height": 425.0 }, "geometry": { "type": "Point", "coordinates": [ 116.757, 31.782 ] } },
{ "type": "Feature", "properties": { "pt_id": "  6039", "trajectory_id": 6, "北京时间": "2026-04-30 15:00", "lon": 117.027, "lat": 31.791, "height": 403.0 }, "geometry": { "type": "Point", "coordinates": [ 117.027, 31.791 ] } },
{ "type": "Feature", "properties": { "pt_id": "  7000", "trajectory_id": 7, "北京时间": "2026-05-01 10:00", "lon": 113.942, "lat": 30.907, "height": 10.0 }, "geometry": { "type": "Point", "coordinates": [ 113.942, 30.907 ] } },
{ "type": "Feature", "properties": { "pt_id": "  7025", "trajectory_id": 7, "北京时间": "2026-05-01 09:00", "lon": 114.035, "lat": 30.923, "height": 13.0 }, "geometry": { "type": "Point", "coordinates": [ 114.035, 30.923 ] } },
{ "type": "Feature", "properties": { "pt_id": "  7026", "trajectory_id": 7, "北京时间": "2026-05-01 08:00", "lon": 114.14, "lat": 30.97, "height": 28.0 }, "geometry": { "type": "Point", "coordinates": [ 114.14, 30.97 ] } },
{ "type": "Feature", "properties": { "pt_id": "  7027", "trajectory_id": 7, "北京时间": "2026-05-01 07:00", "lon": 114.263, "lat": 31.064, "height": 77.0 }, "geometry": { "type": "Point", "coordinates": [ 114.263, 31.064 ] } },
{ "type": "Feature", "properties": { "pt_id": "  7028", "trajectory_id": 7, "北京时间": "2026-05-01 06:00", "lon": 114.416, "lat": 31.181, "height": 137.0 }, "geometry": { "type": "Point", "coordinates": [ 114.416, 31.181 ] } },
{ "type": "Feature", "properties": { "pt_id": "  7029", "trajectory_id": 7, "北京时间": "2026-05-01 05:00", "lon": 114.589, "lat": 31.297, "height": 171.0 }, "geometry": { "type": "Point", "coordinates": [ 114.589, 31.297 ] } },
{ "type": "Feature", "properties": { "pt_id": "  7030", "trajectory_id": 7, "北京时间": "2026-05-01 04:00", "lon": 114.772, "lat": 31.413, "height": 247.0 }, "geometry": { "type": "Point", "coordinates": [ 114.772, 31.413 ] } },
{ "type": "Feature", "properties": { "pt_id": "  7031", "trajectory_id": 7, "北京时间": "2026-05-01 03:00", "lon": 114.959, "lat": 31.531, "height": 341.0 }, "geometry": { "type": "Point", "coordinates": [ 114.959, 31.531 ] } },
{ "type": "Feature", "properties": { "pt_id": "  7032", "trajectory_id": 7, "北京时间": "2026-05-01 02:00", "lon": 115.158, "lat": 31.634, "height": 401.0 }, "geometry": { "type": "Point", "coordinates": [ 115.158, 31.634 ] } },
{ "type": "Feature", "properties": { "pt_id": "  7033", "trajectory_id": 7, "北京时间": "2026-05-01 01:00", "lon": 115.366, "lat": 31.715, "height": 459.0 }, "geometry": { "type": "Point", "coordinates": [ 115.366, 31.715 ] } },
{ "type": "Feature", "properties": { "pt_id": "  7034", "trajectory_id": 7, "北京时间": "2026-05-01 00:00", "lon": 115.577, "lat": 31.765, "height": 601.0 }, "geometry": { "type": "Point", "coordinates": [ 115.577, 31.765 ] } },
{ "type": "Feature", "properties": { "pt_id": "  7035", "trajectory_id": 7, "北京时间": "2026-04-30 23:00", "lon": 115.816, "lat": 31.808, "height": 666.0 }, "geometry": { "type": "Point", "coordinates": [ 115.816, 31.808 ] } },
{ "type": "Feature", "properties": { "pt_id": "  7036", "trajectory_id": 7, "北京时间": "2026-04-30 22:00", "lon": 116.063, "lat": 31.846, "height": 724.0 }, "geometry": { "type": "Point", "coordinates": [ 116.063, 31.846 ] } },
{ "type": "Feature", "properties": { "pt_id": "  7037", "trajectory_id": 7, "北京时间": "2026-04-30 21:00", "lon": 116.327, "lat": 31.877, "height": 777.0 }, "geometry": { "type": "Point", "coordinates": [ 116.327, 31.877 ] } },
{ "type": "Feature", "properties": { "pt_id": "  7038", "trajectory_id": 7, "北京时间": "2026-04-30 20:00", "lon": 116.638, "lat": 31.9, "height": 797.0 }, "geometry": { "type": "Point", "coordinates": [ 116.638, 31.9 ] } },
{ "type": "Feature", "properties": { "pt_id": "  7039", "trajectory_id": 7, "北京时间": "2026-04-30 19:00", "lon": 117.014, "lat": 31.927, "height": 766.0 }, "geometry": { "type": "Point", "coordinates": [ 117.014, 31.927 ] } },
{ "type": "Feature", "properties": { "pt_id": "  8000", "trajectory_id": 8, "北京时间": "2026-05-01 10:00", "lon": 113.942, "lat": 30.907, "height": 10.0 }, "geometry": { "type": "Point", "coordinates": [ 113.942, 30.907 ] } },
{ "type": "Feature", "properties": { "pt_id": "  8029", "trajectory_id": 8, "北京时间": "2026-05-01 09:00", "lon": 114.074, "lat": 31.011, "height": 32.0 }, "geometry": { "type": "Point", "coordinates": [ 114.074, 31.011 ] } },
{ "type": "Feature", "properties": { "pt_id": "  8030", "trajectory_id": 8, "北京时间": "2026-05-01 08:00", "lon": 114.245, "lat": 31.142, "height": 71.0 }, "geometry": { "type": "Point", "coordinates": [ 114.245, 31.142 ] } },
{ "type": "Feature", "properties": { "pt_id": "  8031", "trajectory_id": 8, "北京时间": "2026-05-01 07:00", "lon": 114.428, "lat": 31.287, "height": 82.0 }, "geometry": { "type": "Point", "coordinates": [ 114.428, 31.287 ] } },
{ "type": "Feature", "properties": { "pt_id": "  8032", "trajectory_id": 8, "北京时间": "2026-05-01 06:00", "lon": 114.621, "lat": 31.45, "height": 149.0 }, "geometry": { "type": "Point", "coordinates": [ 114.621, 31.45 ] } },
{ "type": "Feature", "properties": { "pt_id": "  8033", "trajectory_id": 8, "北京时间": "2026-05-01 05:00", "lon": 114.826, "lat": 31.615, "height": 230.0 }, "geometry": { "type": "Point", "coordinates": [ 114.826, 31.615 ] } },
{ "type": "Feature", "properties": { "pt_id": "  8034", "trajectory_id": 8, "北京时间": "2026-05-01 04:00", "lon": 115.062, "lat": 31.757, "height": 228.0 }, "geometry": { "type": "Point", "coordinates": [ 115.062, 31.757 ] } },
{ "type": "Feature", "properties": { "pt_id": "  8035", "trajectory_id": 8, "北京时间": "2026-05-01 03:00", "lon": 115.301, "lat": 31.854, "height": 212.0 }, "geometry": { "type": "Point", "coordinates": [ 115.301, 31.854 ] } },
{ "type": "Feature", "properties": { "pt_id": "  8036", "trajectory_id": 8, "北京时间": "2026-05-01 02:00", "lon": 115.556, "lat": 31.905, "height": 250.0 }, "geometry": { "type": "Point", "coordinates": [ 115.556, 31.905 ] } },
{ "type": "Feature", "properties": { "pt_id": "  8037", "trajectory_id": 8, "北京时间": "2026-05-01 01:00", "lon": 115.811, "lat": 31.931, "height": 241.0 }, "geometry": { "type": "Point", "coordinates": [ 115.811, 31.931 ] } },
{ "type": "Feature", "properties": { "pt_id": "  8038", "trajectory_id": 8, "北京时间": "2026-05-01 00:00", "lon": 116.036, "lat": 31.953, "height": 215.0 }, "geometry": { "type": "Point", "coordinates": [ 116.036, 31.953 ] } },
{ "type": "Feature", "properties": { "pt_id": "  8039", "trajectory_id": 8, "北京时间": "2026-04-30 23:00", "lon": 116.247, "lat": 31.98, "height": 195.0 }, "geometry": { "type": "Point", "coordinates": [ 116.247, 31.98 ] } },
{ "type": "Feature", "properties": { "pt_id": "  9000", "trajectory_id": 9, "北京时间": "2026-05-01 10:00", "lon": 113.942, "lat": 30.907, "height": 10.0 }, "geometry": { "type": "Point", "coordinates": [ 113.942, 30.907 ] } },
{ "type": "Feature", "properties": { "pt_id": "  9033", "trajectory_id": 9, "北京时间": "2026-05-01 09:00", "lon": 114.059, "lat": 31.057, "height": 37.0 }, "geometry": { "type": "Point", "coordinates": [ 114.059, 31.057 ] } },
{ "type": "Feature", "properties": { "pt_id": "  9034", "trajectory_id": 9, "北京时间": "2026-05-01 08:00", "lon": 114.205, "lat": 31.234, "height": 81.0 }, "geometry": { "type": "Point", "coordinates": [ 114.205, 31.234 ] } },
{ "type": "Feature", "properties": { "pt_id": "  9035", "trajectory_id": 9, "北京时间": "2026-05-01 07:00", "lon": 114.378, "lat": 31.418, "height": 101.0 }, "geometry": { "type": "Point", "coordinates": [ 114.378, 31.418 ] } },
{ "type": "Feature", "properties": { "pt_id": "  9036", "trajectory_id": 9, "北京时间": "2026-05-01 06:00", "lon": 114.599, "lat": 31.604, "height": 194.0 }, "geometry": { "type": "Point", "coordinates": [ 114.599, 31.604 ] } },
{ "type": "Feature", "properties": { "pt_id": "  9037", "trajectory_id": 9, "北京时间": "2026-05-01 05:00", "lon": 114.848, "lat": 31.777, "height": 128.0 }, "geometry": { "type": "Point", "coordinates": [ 114.848, 31.777 ] } },
{ "type": "Feature", "properties": { "pt_id": "  9038", "trajectory_id": 9, "北京时间": "2026-05-01 04:00", "lon": 115.088, "lat": 31.906, "height": 51.0 }, "geometry": { "type": "Point", "coordinates": [ 115.088, 31.906 ] } },
{ "type": "Feature", "properties": { "pt_id": "  9039", "trajectory_id": 9, "北京时间": "2026-05-01 03:00", "lon": 115.322, "lat": 31.99, "height": 39.0 }, "geometry": { "type": "Point", "coordinates": [ 115.322, 31.99 ] } },
{ "type": "Feature", "properties": { "pt_id": " 10000", "trajectory_id": 10, "北京时间": "2026-05-01 10:00", "lon": 113.942, "lat": 30.907, "height": 10.0 }, "geometry": { "type": "Point", "coordinates": [ 113.942, 30.907 ] } },
{ "type": "Feature", "properties": { "pt_id": " 10037", "trajectory_id": 10, "北京时间": "2026-05-01 09:00", "lon": 114.046, "lat": 31.077, "height": 32.0 }, "geometry": { "type": "Point", "coordinates": [ 114.046, 31.077 ] } },
{ "type": "Feature", "properties": { "pt_id": " 10038", "trajectory_id": 10, "北京时间": "2026-05-01 08:00", "lon": 114.167, "lat": 31.255, "height": 70.0 }, "geometry": { "type": "Point", "coordinates": [ 114.167, 31.255 ] } },
{ "type": "Feature", "properties": { "pt_id": " 10039", "trajectory_id": 10, "北京时间": "2026-05-01 07:00", "lon": 114.284, "lat": 31.42, "height": 87.0 }, "geometry": { "type": "Point", "coordinates": [ 114.284, 31.42 ] } }
]
}
