{
"type": "FeatureCollection",
"name": "东城",
"crs": { "type": "name", "properties": { "name": "urn:ogc:def:crs:OGC:1.3:CRS84" } },
"features": [
{ "type": "Feature", "properties": { "北京时间": "2026-04-30 17:00" }, "geometry": { "type": "Polygon", "coordinates": [ [ [ 113.901983152841197, 30.582266716349324 ], [ 113.901983152841197, 30.597732666661283 ], [ 113.88401684715879, 30.597732666661283 ], [ 113.88401684715879, 30.582266716349324 ], [ 113.901983152841197, 30.582266716349324 ] ] ] } },
{ "type": "Feature", "properties": { "北京时间": "2026-04-30 17:00" }, "geometry": { "type": "Polygon", "coordinates": [ [ [ 113.927983152841193, 30.585266955702565 ], [ 113.927983152841193, 30.600732427272497 ], [ 113.910016847158801, 30.600732427272497 ], [ 113.910016847158801, 30.585266955702565 ], [ 113.927983152841193, 30.585266955702565 ] ] ] } },
{ "type": "Feature", "properties": { "北京时间": "2026-04-30 18:00" }, "geometry": { "type": "Polygon", "coordinates": [ [ [ 113.901983152841197, 30.622269909469047 ], [ 113.901983152841197, 30.637729473068163 ], [ 113.88401684715879, 30.637729473068163 ], [ 113.88401684715879, 30.622269909469047 ], [ 113.901983152841197, 30.622269909469047 ] ] ] } },
{ "type": "Feature", "properties": { "北京时间": "2026-04-30 18:00" }, "geometry": { "type": "Polygon", "coordinates": [ [ [ 113.921983152841193, 30.642271507442004 ], [ 113.921983152841193, 30.657727874858963 ], [ 113.9040168471588, 30.657727874858963 ], [ 113.9040168471588, 30.642271507442004 ], [ 113.921983152841193, 30.642271507442004 ] ] ] } },
{ "type": "Feature", "properties": { "北京时间": "2026-04-30 19:00" }, "geometry": { "type": "Polygon", "coordinates": [ [ [ 113.904983152841183, 30.662273106356768 ], [ 113.904983152841183, 30.677726275708256 ], [ 113.88701684715879, 30.677726275708256 ], [ 113.88701684715879, 30.662273106356768 ], [ 113.904983152841183, 30.662273106356768 ] ] ] } },
{ "type": "Feature", "properties": { "北京时间": "2026-04-30 19:00" }, "geometry": { "type": "Polygon", "coordinates": [ [ [ 113.923983152841203, 30.705276547211806 ], [ 113.923983152841203, 30.720722834346972 ], [ 113.90601684715881, 30.720722834346972 ], [ 113.90601684715881, 30.705276547211806 ], [ 113.923983152841203, 30.705276547211806 ] ] ] } },
{ "type": "Feature", "properties": { "北京时间": "2026-04-30 20:00" }, "geometry": { "type": "Polygon", "coordinates": [ [ [ 114.292983152841188, 31.412333743665656 ], [ 114.292983152841188, 31.42766562976988 ], [ 114.275016847158795, 31.42766562976988 ], [ 114.275016847158795, 31.412333743665656 ], [ 114.292983152841188, 31.412333743665656 ] ] ] } },
{ "type": "Feature", "properties": { "北京时间": "2026-04-30 20:00" }, "geometry": { "type": "Polygon", "coordinates": [ [ [ 114.386983152841182, 31.410333580214527 ], [ 114.386983152841182, 31.425665793243461 ], [ 114.369016847158804, 31.425665793243461 ], [ 114.369016847158804, 31.410333580214527 ], [ 114.386983152841182, 31.410333580214527 ] ] ] } },
{ "type": "Feature", "properties": { "北京时间": "2026-04-30 20:00" }, "geometry": { "type": "Polygon", "coordinates": [ [ [ 114.137983152841187, 30.816285449525161 ], [ 114.137983152841187, 30.831713930733198 ], [ 114.120016847158794, 30.831713930733198 ], [ 114.120016847158794, 30.816285449525161 ], [ 114.137983152841187, 30.816285449525161 ] ] ] } },
{ "type": "Feature", "properties": { "北京时间": "2026-04-30 20:00" }, "geometry": { "type": "Polygon", "coordinates": [ [ [ 113.916983152841198, 30.710276947593616 ], [ 113.916983152841198, 30.725722433906373 ], [ 113.899016847158805, 30.725722433906373 ], [ 113.899016847158805, 30.710276947593616 ], [ 113.916983152841198, 30.710276947593616 ] ] ] } },
{ "type": "Feature", "properties": { "北京时间": "2026-04-30 20:00" }, "geometry": { "type": "Polygon", "coordinates": [ [ [ 113.928983152841184, 30.766281435887937 ], [ 113.928983152841184, 30.781717944955048 ], [ 113.911016847158805, 30.781717944955048 ], [ 113.911016847158805, 30.766281435887937 ], [ 113.928983152841184, 30.766281435887937 ] ] ] } },
{ "type": "Feature", "properties": { "北京时间": "2026-04-30 21:00" }, "geometry": { "type": "Polygon", "coordinates": [ [ [ 114.148983152841183, 30.962297202962301 ], [ 114.148983152841183, 30.977702175599777 ], [ 114.13101684715879, 30.977702175599777 ], [ 114.13101684715879, 30.962297202962301 ], [ 114.148983152841183, 30.962297202962301 ] ] ] } },
{ "type": "Feature", "properties": { "北京时间": "2026-04-30 21:00" }, "geometry": { "type": "Polygon", "coordinates": [ [ [ 114.067983152841194, 30.832286735130168 ], [ 114.067983152841194, 30.847712644941517 ], [ 114.050016847158801, 30.847712644941517 ], [ 114.050016847158801, 30.832286735130168 ], [ 114.067983152841194, 30.832286735130168 ] ] ] } },
{ "type": "Feature", "properties": { "北京时间": "2026-04-30 21:00" }, "geometry": { "type": "Polygon", "coordinates": [ [ [ 113.9739831528412, 30.785282960377732 ], [ 113.9739831528412, 30.800716420242868 ], [ 113.956016847158807, 30.800716420242868 ], [ 113.956016847158807, 30.785282960377732 ], [ 113.9739831528412, 30.785282960377732 ] ] ] } },
{ "type": "Feature", "properties": { "北京时间": "2026-04-30 21:00" }, "geometry": { "type": "Polygon", "coordinates": [ [ [ 114.175983152841198, 31.247320290373324 ], [ 114.175983152841198, 31.262679084924063 ], [ 114.158016847158805, 31.262679084924063 ], [ 114.158016847158805, 31.247320290373324 ], [ 114.175983152841198, 31.247320290373324 ] ] ] } },
{ "type": "Feature", "properties": { "北京时间": "2026-04-30 21:00" }, "geometry": { "type": "Polygon", "coordinates": [ [ [ 113.956983152841175, 30.76928167654042 ], [ 113.956983152841175, 30.784717704267432 ], [ 113.939016847158783, 30.784717704267432 ], [ 113.939016847158783, 30.76928167654042 ], [ 113.956983152841175, 30.76928167654042 ] ] ] } },
{ "type": "Feature", "properties": { "北京时间": "2026-04-30 21:00" }, "geometry": { "type": "Polygon", "coordinates": [ [ [ 113.940983152841198, 30.767281516103075 ], [ 113.940983152841198, 30.782717864728188 ], [ 113.923016847158792, 30.782717864728188 ], [ 113.923016847158792, 30.767281516103075 ], [ 113.940983152841198, 30.767281516103075 ] ] ] } },
{ "type": "Feature", "properties": { "北京时间": "2026-04-30 21:00" }, "geometry": { "type": "Polygon", "coordinates": [ [ [ 113.934983152841198, 30.818285610192891 ], [ 113.934983152841198, 30.833713770042131 ], [ 113.917016847158806, 30.833713770042131 ], [ 113.917016847158806, 30.818285610192891 ], [ 113.934983152841198, 30.818285610192891 ] ] ] } },
{ "type": "Feature", "properties": { "北京时间": "2026-04-30 22:00" }, "geometry": { "type": "Polygon", "coordinates": [ [ [ 113.94898315284118, 30.830286574396638 ], [ 113.94898315284118, 30.845712805698366 ], [ 113.931016847158787, 30.845712805698366 ], [ 113.931016847158787, 30.830286574396638 ], [ 113.94898315284118, 30.830286574396638 ] ] ] } },
{ "type": "Feature", "properties": { "北京时间": "2026-04-30 22:00" }, "geometry": { "type": "Polygon", "coordinates": [ [ [ 113.941983152841203, 30.858288825521274 ], [ 113.941983152841203, 30.873710554247456 ], [ 113.924016847158811, 30.873710554247456 ], [ 113.924016847158811, 30.858288825521274 ], [ 113.941983152841203, 30.858288825521274 ] ] ] } },
{ "type": "Feature", "properties": { "北京时间": "2026-04-30 22:00" }, "geometry": { "type": "Polygon", "coordinates": [ [ [ 114.054983152841203, 31.069305848550606 ], [ 114.054983152841203, 31.084693528778558 ], [ 114.03701684715881, 31.084693528778558 ], [ 114.03701684715881, 31.069305848550606 ], [ 114.054983152841203, 31.069305848550606 ] ] ] } },
{ "type": "Feature", "properties": { "北京时间": "2026-04-30 22:00" }, "geometry": { "type": "Polygon", "coordinates": [ [ [ 113.967983152841185, 30.844287699728696 ], [ 113.967983152841185, 30.859711680203102 ], [ 113.950016847158807, 30.859711680203102 ], [ 113.950016847158807, 30.844287699728696 ], [ 113.967983152841185, 30.844287699728696 ] ] ] } },
{ "type": "Feature", "properties": { "北京时间": "2026-04-30 22:00" }, "geometry": { "type": "Polygon", "coordinates": [ [ [ 113.986983152841205, 30.81128504789698 ], [ 113.986983152841205, 30.826714332419751 ], [ 113.969016847158798, 30.826714332419751 ], [ 113.969016847158798, 30.81128504789698 ], [ 113.986983152841205, 30.81128504789698 ] ] ] } },
{ "type": "Feature", "properties": { "北京时间": "2026-04-30 22:00" }, "geometry": { "type": "Polygon", "coordinates": [ [ [ 114.006983152841201, 30.862289147260878 ], [ 114.006983152841201, 30.877710232461293 ], [ 113.989016847158808, 30.877710232461293 ], [ 113.989016847158808, 30.862289147260878 ], [ 114.006983152841201, 30.862289147260878 ] ] ] } },
{ "type": "Feature", "properties": { "北京时间": "2026-04-30 22:00" }, "geometry": { "type": "Polygon", "coordinates": [ [ [ 113.958983152841199, 30.830286574396638 ], [ 113.958983152841199, 30.845712805698366 ], [ 113.941016847158807, 30.845712805698366 ], [ 113.941016847158807, 30.830286574396638 ], [ 113.958983152841199, 30.830286574396638 ] ] ] } },
{ "type": "Feature", "properties": { "北京时间": "2026-04-30 22:00" }, "geometry": { "type": "Polygon", "coordinates": [ [ [ 114.043983152841179, 30.915293413858322 ], [ 114.043983152841179, 30.930705965248041 ], [ 114.0260168471588, 30.930705965248041 ], [ 114.0260168471588, 30.915293413858322 ], [ 114.043983152841179, 30.915293413858322 ] ] ] } },
{ "type": "Feature", "properties": { "北京时间": "2026-04-30 22:00" }, "geometry": { "type": "Polygon", "coordinates": [ [ [ 114.067983152841194, 31.049304230512551 ], [ 114.067983152841194, 31.064695147046397 ], [ 114.050016847158801, 31.064695147046397 ], [ 114.050016847158801, 31.049304230512551 ], [ 114.067983152841194, 31.049304230512551 ] ] ] } },
{ "type": "Feature", "properties": { "北京时间": "2026-04-30 22:00" }, "geometry": { "type": "Polygon", "coordinates": [ [ [ 114.082983152841209, 31.003300512584389 ], [ 114.082983152841209, 31.018698865504241 ], [ 114.065016847158802, 31.018698865504241 ], [ 114.065016847158802, 31.003300512584389 ], [ 114.082983152841209, 31.003300512584389 ] ] ] } },
{ "type": "Feature", "properties": { "北京时间": "2026-04-30 23:00" }, "geometry": { "type": "Polygon", "coordinates": [ [ [ 113.950983152841175, 30.899292125133776 ], [ 113.950983152841175, 30.914707254158273 ], [ 113.933016847158797, 30.914707254158273 ], [ 113.933016847158797, 30.899292125133776 ], [ 113.950983152841175, 30.899292125133776 ] ] ] } }
]
}
