{
"type": "FeatureCollection",
"name": "天仙南路",
"crs": { "type": "name", "properties": { "name": "urn:ogc:def:crs:OGC:1.3:CRS84" } },
"features": [
{ "type": "Feature", "properties": { "北京时间": "2026-05-17 06:00" }, "geometry": { "type": "Polygon", "coordinates": [ [ [ 113.95498315284118, 30.892291561505822 ], [ 113.95498315284118, 30.907707817867532 ], [ 113.937016847158787, 30.907707817867532 ], [ 113.937016847158787, 30.892291561505822 ], [ 113.95498315284118, 30.892291561505822 ] ] ] } },
{ "type": "Feature", "properties": { "北京时间": "2026-05-17 05:00" }, "geometry": { "type": "Polygon", "coordinates": [ [ [ 114.036983152841202, 30.90729276942092 ], [ 114.036983152841202, 30.922706609778277 ], [ 114.019016847158795, 30.922706609778277 ], [ 114.019016847158795, 30.90729276942092 ], [ 114.036983152841202, 30.90729276942092 ] ] ] } },
{ "type": "Feature", "properties": { "北京时间": "2026-05-17 05:00" }, "geometry": { "type": "Polygon", "coordinates": [ [ [ 114.001983152841191, 31.000300270283191 ], [ 114.001983152841191, 31.015699107840035 ], [ 113.984016847158799, 31.015699107840035 ], [ 113.984016847158799, 31.000300270283191 ], [ 114.001983152841191, 31.000300270283191 ] ] ] } },
{ "type": "Feature", "properties": { "北京时间": "2026-05-17 05:00" }, "geometry": { "type": "Polygon", "coordinates": [ [ [ 114.147983152841192, 30.805284566020731 ], [ 114.147983152841192, 30.820714814366074 ], [ 114.130016847158799, 30.820714814366074 ], [ 114.130016847158799, 30.805284566020731 ], [ 114.147983152841192, 30.805284566020731 ] ] ] } },
{ "type": "Feature", "properties": { "北京时间": "2026-05-17 05:00" }, "geometry": { "type": "Polygon", "coordinates": [ [ [ 114.013983152841178, 30.887291158984866 ], [ 114.013983152841178, 30.902708220446581 ], [ 113.996016847158785, 30.902708220446581 ], [ 113.996016847158785, 30.887291158984866 ], [ 114.013983152841178, 30.887291158984866 ] ] ] } },
{ "type": "Feature", "properties": { "北京时间": "2026-05-17 05:00" }, "geometry": { "type": "Polygon", "coordinates": [ [ [ 113.959983152841176, 30.951296315685994 ], [ 113.959983152841176, 30.966703063003326 ], [ 113.942016847158783, 30.966703063003326 ], [ 113.942016847158783, 30.951296315685994 ], [ 113.959983152841176, 30.951296315685994 ] ] ] } },
{ "type": "Feature", "properties": { "北京时间": "2026-05-17 05:00" }, "geometry": { "type": "Polygon", "coordinates": [ [ [ 114.018983152841187, 30.915293413858322 ], [ 114.018983152841187, 30.930705965248041 ], [ 114.001016847158809, 30.930705965248041 ], [ 114.001016847158809, 30.915293413858322 ], [ 114.018983152841187, 30.915293413858322 ] ] ] } },
{ "type": "Feature", "properties": { "北京时间": "2026-05-17 05:00" }, "geometry": { "type": "Polygon", "coordinates": [ [ [ 113.999983152841196, 30.919293736133383 ], [ 113.999983152841196, 30.934705642926605 ], [ 113.982016847158789, 30.934705642926605 ], [ 113.982016847158789, 30.919293736133383 ], [ 113.999983152841196, 30.919293736133383 ] ] ] } },
{ "type": "Feature", "properties": { "北京时间": "2026-05-17 05:00" }, "geometry": { "type": "Polygon", "coordinates": [ [ [ 114.042983152841188, 30.915293413858322 ], [ 114.042983152841188, 30.930705965248041 ], [ 114.025016847158795, 30.930705965248041 ], [ 114.025016847158795, 30.915293413858322 ], [ 114.042983152841188, 30.915293413858322 ] ] ] } },
{ "type": "Feature", "properties": { "北京时间": "2026-05-17 05:00" }, "geometry": { "type": "Polygon", "coordinates": [ [ [ 114.152983152841202, 30.840287378158255 ], [ 114.152983152841202, 30.855712001820155 ], [ 114.135016847158809, 30.855712001820155 ], [ 114.135016847158809, 30.840287378158255 ], [ 114.152983152841202, 30.840287378158255 ] ] ] } },
{ "type": "Feature", "properties": { "北京时间": "2026-05-17 05:00" }, "geometry": { "type": "Polygon", "coordinates": [ [ [ 114.022983152841178, 30.90929293051618 ], [ 114.022983152841178, 30.924706448659798 ], [ 114.005016847158785, 30.924706448659798 ], [ 114.005016847158785, 30.90929293051618 ], [ 114.022983152841178, 30.90929293051618 ] ] ] } },
{ "type": "Feature", "properties": { "北京时间": "2026-05-17 05:00" }, "geometry": { "type": "Polygon", "coordinates": [ [ [ 114.045983152841202, 30.910293011067342 ], [ 114.045983152841202, 30.925706368097046 ], [ 114.02801684715881, 30.925706368097046 ], [ 114.02801684715881, 30.910293011067342 ], [ 114.045983152841202, 30.910293011067342 ] ] ] } },
{ "type": "Feature", "properties": { "北京时间": "2026-05-17 05:00" }, "geometry": { "type": "Polygon", "coordinates": [ [ [ 114.129983152841177, 30.773281997443313 ], [ 114.129983152841177, 30.788717383317692 ], [ 114.112016847158785, 30.788717383317692 ], [ 114.112016847158785, 30.773281997443313 ], [ 114.129983152841177, 30.773281997443313 ] ] ] } },
{ "type": "Feature", "properties": { "北京时间": "2026-05-17 05:00" }, "geometry": { "type": "Polygon", "coordinates": [ [ [ 114.067983152841194, 30.91629349442357 ], [ 114.067983152841194, 30.93170588467121 ], [ 114.050016847158801, 30.93170588467121 ], [ 114.050016847158801, 30.91629349442357 ], [ 114.067983152841194, 30.91629349442357 ] ] ] } },
{ "type": "Feature", "properties": { "北京时间": "2026-05-17 05:00" }, "geometry": { "type": "Polygon", "coordinates": [ [ [ 114.112983152841196, 30.845287780127176 ], [ 114.112983152841196, 30.86071159979296 ], [ 114.095016847158789, 30.86071159979296 ], [ 114.095016847158789, 30.845287780127176 ], [ 114.112983152841196, 30.845287780127176 ] ] ] } },
{ "type": "Feature", "properties": { "北京时间": "2026-05-17 05:00" }, "geometry": { "type": "Polygon", "coordinates": [ [ [ 114.161983152841202, 30.752280313122846 ], [ 114.161983152841202, 30.767719067884151 ], [ 114.144016847158809, 30.767719067884151 ], [ 114.144016847158809, 30.752280313122846 ], [ 114.161983152841202, 30.752280313122846 ] ] ] } },
{ "type": "Feature", "properties": { "北京时间": "2026-05-17 05:00" }, "geometry": { "type": "Polygon", "coordinates": [ [ [ 114.112983152841196, 30.871289871312399 ], [ 114.112983152841196, 30.886709508305067 ], [ 114.095016847158789, 30.886709508305067 ], [ 114.095016847158789, 30.871289871312399 ], [ 114.112983152841196, 30.871289871312399 ] ] ] } },
{ "type": "Feature", "properties": { "北京时间": "2026-05-17 05:00" }, "geometry": { "type": "Polygon", "coordinates": [ [ [ 114.176983152841188, 30.831286654762224 ], [ 114.176983152841188, 30.846712725321122 ], [ 114.159016847158796, 30.846712725321122 ], [ 114.159016847158796, 30.831286654762224 ], [ 114.176983152841188, 30.831286654762224 ] ] ] } },
{ "type": "Feature", "properties": { "北京时间": "2026-05-17 05:00" }, "geometry": { "type": "Polygon", "coordinates": [ [ [ 114.172983152841198, 30.750280152765466 ], [ 114.172983152841198, 30.765719228264995 ], [ 114.155016847158805, 30.765719228264995 ], [ 114.155016847158805, 30.750280152765466 ], [ 114.172983152841198, 30.750280152765466 ] ] ] } },
{ "type": "Feature", "properties": { "北京时间": "2026-05-17 04:00" }, "geometry": { "type": "Polygon", "coordinates": [ [ [ 114.086983152841199, 31.118309816706041 ], [ 114.086983152841199, 31.133689560061391 ], [ 114.069016847158807, 31.133689560061391 ], [ 114.069016847158807, 31.118309816706041 ], [ 114.086983152841199, 31.118309816706041 ] ] ] } },
{ "type": "Feature", "properties": { "北京时间": "2026-05-17 04:00" }, "geometry": { "type": "Polygon", "coordinates": [ [ [ 114.109983152841181, 30.924294139030021 ], [ 114.109983152841181, 30.939705239971985 ], [ 114.092016847158789, 30.939705239971985 ], [ 114.092016847158789, 30.924294139030021 ], [ 114.109983152841181, 30.924294139030021 ] ] ] } },
{ "type": "Feature", "properties": { "北京时间": "2026-05-17 04:00" }, "geometry": { "type": "Polygon", "coordinates": [ [ [ 114.082983152841209, 30.880290595554179 ], [ 114.082983152841209, 30.895708783958622 ], [ 114.065016847158802, 30.895708783958622 ], [ 114.065016847158802, 30.880290595554179 ], [ 114.082983152841209, 30.880290595554179 ] ] ] } },
{ "type": "Feature", "properties": { "北京时间": "2026-05-17 04:00" }, "geometry": { "type": "Polygon", "coordinates": [ [ [ 114.08598315284118, 30.932294783786734 ], [ 114.08598315284118, 30.947704595122588 ], [ 114.068016847158802, 30.947704595122588 ], [ 114.068016847158802, 30.932294783786734 ], [ 114.08598315284118, 30.932294783786734 ] ] ] } },
{ "type": "Feature", "properties": { "北京时间": "2026-05-17 04:00" }, "geometry": { "type": "Polygon", "coordinates": [ [ [ 114.056983152841198, 30.951296315685994 ], [ 114.056983152841198, 30.966703063003326 ], [ 114.039016847158805, 30.966703063003326 ], [ 114.039016847158805, 30.951296315685994 ], [ 114.056983152841198, 30.951296315685994 ] ] ] } },
{ "type": "Feature", "properties": { "北京时间": "2026-05-17 04:00" }, "geometry": { "type": "Polygon", "coordinates": [ [ [ 114.118983152841196, 30.919293736133383 ], [ 114.118983152841196, 30.934705642926605 ], [ 114.101016847158803, 30.934705642926605 ], [ 114.101016847158803, 30.919293736133383 ], [ 114.118983152841196, 30.919293736133383 ] ] ] } },
{ "type": "Feature", "properties": { "北京时间": "2026-05-17 04:00" }, "geometry": { "type": "Polygon", "coordinates": [ [ [ 113.937983152841184, 31.017301643602416 ], [ 113.937983152841184, 31.032697734324824 ], [ 113.920016847158792, 31.032697734324824 ], [ 113.920016847158792, 31.017301643602416 ], [ 113.937983152841184, 31.017301643602416 ] ] ] } },
{ "type": "Feature", "properties": { "北京时间": "2026-05-17 04:00" }, "geometry": { "type": "Polygon", "coordinates": [ [ [ 114.132983152841192, 30.917293574991167 ], [ 114.132983152841192, 30.932705804092027 ], [ 114.115016847158799, 30.932705804092027 ], [ 114.115016847158799, 30.917293574991167 ], [ 114.132983152841192, 30.917293574991167 ] ] ] } },
{ "type": "Feature", "properties": { "北京时间": "2026-05-17 04:00" }, "geometry": { "type": "Polygon", "coordinates": [ [ [ 114.08598315284118, 30.929294541985371 ], [ 114.08598315284118, 30.944704836958724 ], [ 114.068016847158802, 30.944704836958724 ], [ 114.068016847158802, 30.929294541985371 ], [ 114.08598315284118, 30.929294541985371 ] ] ] } },
{ "type": "Feature", "properties": { "北京时间": "2026-05-17 03:00" }, "geometry": { "type": "Polygon", "coordinates": [ [ [ 114.159983152841178, 30.877290354119115 ], [ 114.159983152841178, 30.892709025428566 ], [ 114.142016847158786, 30.892709025428566 ], [ 114.142016847158786, 30.877290354119115 ], [ 114.159983152841178, 30.877290354119115 ] ] ] } },
{ "type": "Feature", "properties": { "北京时间": "2026-05-17 03:00" }, "geometry": { "type": "Polygon", "coordinates": [ [ [ 114.163983152841197, 30.918293655561101 ], [ 114.163983152841197, 30.933705723510489 ], [ 114.146016847158805, 30.933705723510489 ], [ 114.146016847158805, 30.918293655561101 ], [ 114.163983152841197, 30.918293655561101 ] ] ] } },
{ "type": "Feature", "properties": { "北京时间": "2026-05-17 03:00" }, "geometry": { "type": "Polygon", "coordinates": [ [ [ 113.925983152841198, 31.103308601367022 ], [ 113.925983152841198, 31.118690775572173 ], [ 113.908016847158805, 31.118690775572173 ], [ 113.908016847158805, 31.103308601367022 ], [ 113.925983152841198, 31.103308601367022 ] ] ] } },
{ "type": "Feature", "properties": { "北京时间": "2026-05-17 03:00" }, "geometry": { "type": "Polygon", "coordinates": [ [ [ 114.154983152841197, 30.938295267452855 ], [ 114.154983152841197, 30.953704111386966 ], [ 114.137016847158804, 30.953704111386966 ], [ 114.137016847158804, 30.938295267452855 ], [ 114.154983152841197, 30.938295267452855 ] ] ] } },
{ "type": "Feature", "properties": { "北京时间": "2026-05-17 03:00" }, "geometry": { "type": "Polygon", "coordinates": [ [ [ 114.187983152841184, 31.217317851160406 ], [ 114.187983152841184, 31.232681524477737 ], [ 114.170016847158792, 31.232681524477737 ], [ 114.170016847158792, 31.217317851160406 ], [ 114.187983152841184, 31.217317851160406 ] ] ] } },
{ "type": "Feature", "properties": { "北京时间": "2026-05-17 03:00" }, "geometry": { "type": "Polygon", "coordinates": [ [ [ 114.144983152841178, 30.950296235038593 ], [ 114.144983152841178, 30.965703143662296 ], [ 114.127016847158799, 30.965703143662296 ], [ 114.127016847158799, 30.950296235038593 ], [ 114.144983152841178, 30.950296235038593 ] ] ] } },
{ "type": "Feature", "properties": { "北京时间": "2026-05-17 03:00" }, "geometry": { "type": "Polygon", "coordinates": [ [ [ 114.134983152841201, 30.993299704995838 ], [ 114.134983152841201, 31.008699673208138 ], [ 114.117016847158794, 31.008699673208138 ], [ 114.117016847158794, 30.993299704995838 ], [ 114.134983152841201, 30.993299704995838 ] ] ] } },
{ "type": "Feature", "properties": { "北京时间": "2026-05-17 02:00" }, "geometry": { "type": "Polygon", "coordinates": [ [ [ 113.979983152841186, 31.21431760735495 ], [ 113.979983152841186, 31.229681768317295 ], [ 113.962016847158807, 31.229681768317295 ], [ 113.962016847158807, 31.21431760735495 ], [ 113.979983152841186, 31.21431760735495 ] ] ] } },
{ "type": "Feature", "properties": { "北京时间": "2026-05-17 01:00" }, "geometry": { "type": "Polygon", "coordinates": [ [ [ 114.132983152841192, 31.347328436287064 ], [ 114.132983152841192, 31.362670937879464 ], [ 114.115016847158799, 31.362670937879464 ], [ 114.115016847158799, 31.347328436287064 ], [ 114.132983152841192, 31.347328436287064 ] ] ] } },
{ "type": "Feature", "properties": { "北京时间": "2026-05-17 01:00" }, "geometry": { "type": "Polygon", "coordinates": [ [ [ 114.310983152841203, 31.387331701198043 ], [ 114.310983152841203, 31.402667672518259 ], [ 114.29301684715881, 31.402667672518259 ], [ 114.29301684715881, 31.387331701198043 ], [ 114.310983152841203, 31.387331701198043 ] ] ] } },
{ "type": "Feature", "properties": { "北京时间": "2026-05-17 00:00" }, "geometry": { "type": "Polygon", "coordinates": [ [ [ 114.371983152841182, 31.469338405949401 ], [ 114.371983152841182, 31.484660966847784 ], [ 114.354016847158789, 31.484660966847784 ], [ 114.354016847158789, 31.469338405949401 ], [ 114.371983152841182, 31.469338405949401 ] ] ] } },
{ "type": "Feature", "properties": { "北京时间": "2026-05-17 00:00" }, "geometry": { "type": "Polygon", "coordinates": [ [ [ 114.331983152841175, 31.505341354457318 ], [ 114.331983152841175, 31.520658017937983 ], [ 114.314016847158783, 31.520658017937983 ], [ 114.314016847158783, 31.505341354457318 ], [ 114.331983152841175, 31.505341354457318 ] ] ] } },
{ "type": "Feature", "properties": { "北京时间": "2026-05-16 23:00" }, "geometry": { "type": "Polygon", "coordinates": [ [ [ 114.418983152841179, 31.540344223961284 ], [ 114.418983152841179, 31.555655148044227 ], [ 114.401016847158786, 31.555655148044227 ], [ 114.401016847158786, 31.540344223961284 ], [ 114.418983152841179, 31.540344223961284 ] ] ] } },
{ "type": "Feature", "properties": { "北京时间": "2026-05-16 23:00" }, "geometry": { "type": "Polygon", "coordinates": [ [ [ 114.492983152841191, 31.670354907125081 ], [ 114.492983152841191, 31.685644463440891 ], [ 114.475016847158798, 31.685644463440891 ], [ 114.475016847158798, 31.670354907125081 ], [ 114.492983152841191, 31.670354907125081 ] ] ] } },
{ "type": "Feature", "properties": { "北京时间": "2026-05-16 22:00" }, "geometry": { "type": "Polygon", "coordinates": [ [ [ 114.444983152841189, 31.607349724980544 ], [ 114.444983152841189, 31.622649646281431 ], [ 114.427016847158797, 31.622649646281431 ], [ 114.427016847158797, 31.607349724980544 ], [ 114.444983152841189, 31.607349724980544 ] ] ] } },
{ "type": "Feature", "properties": { "北京时间": "2026-05-16 21:00" }, "geometry": { "type": "Polygon", "coordinates": [ [ [ 114.466983152841181, 31.679355648186224 ], [ 114.466983152841181, 31.694643722280574 ], [ 114.449016847158788, 31.694643722280574 ], [ 114.449016847158788, 31.679355648186224 ], [ 114.466983152841181, 31.679355648186224 ] ] ] } },
{ "type": "Feature", "properties": { "北京时间": "2026-05-16 10:00" }, "geometry": { "type": "Polygon", "coordinates": [ [ [ 114.162983152841193, 31.815366869395852 ], [ 114.162983152841193, 31.830632499579778 ], [ 114.145016847158786, 31.830632499579778 ], [ 114.145016847158786, 31.815366869395852 ], [ 114.162983152841193, 31.815366869395852 ] ] ] } },
{ "type": "Feature", "properties": { "北京时间": "2026-05-16 09:00" }, "geometry": { "type": "Polygon", "coordinates": [ [ [ 114.159983152841178, 31.711358284597917 ], [ 114.159983152841178, 31.72664108551675 ], [ 114.142016847158786, 31.72664108551675 ], [ 114.142016847158786, 31.711358284597917 ], [ 114.159983152841178, 31.711358284597917 ] ] ] } },
{ "type": "Feature", "properties": { "北京时间": "2026-05-16 08:00" }, "geometry": { "type": "Polygon", "coordinates": [ [ [ 114.181983152841184, 31.587348081789482 ], [ 114.181983152841184, 31.602651289694087 ], [ 114.164016847158805, 31.602651289694087 ], [ 114.164016847158805, 31.587348081789482 ], [ 114.181983152841184, 31.587348081789482 ] ] ] } },
{ "type": "Feature", "properties": { "北京时间": "2026-05-16 07:00" }, "geometry": { "type": "Polygon", "coordinates": [ [ [ 114.245983152841205, 31.443336278352721 ], [ 114.245983152841205, 31.458663094735329 ], [ 114.228016847158798, 31.458663094735329 ], [ 114.228016847158798, 31.443336278352721 ], [ 114.245983152841205, 31.443336278352721 ] ] ] } }
]
}
