{
"type": "FeatureCollection",
"name": "天仙南路",
"crs": { "type": "name", "properties": { "name": "urn:ogc:def:crs:OGC:1.3:CRS84" } },
"features": [
{ "type": "Feature", "properties": { "北京时间": "2026-05-07 23:00" }, "geometry": { "type": "Polygon", "coordinates": [ [ [ 113.950983152841175, 30.899292125133776 ], [ 113.950983152841175, 30.914707254158273 ], [ 113.933016847158797, 30.914707254158273 ], [ 113.933016847158797, 30.899292125133776 ], [ 113.950983152841175, 30.899292125133776 ] ] ] } },
{ "type": "Feature", "properties": { "北京时间": "2026-05-07 22:00" }, "geometry": { "type": "Polygon", "coordinates": [ [ [ 113.979983152841186, 31.095307953401786 ], [ 113.979983152841186, 31.110691423629099 ], [ 113.962016847158807, 31.110691423629099 ], [ 113.962016847158807, 31.095307953401786 ], [ 113.979983152841186, 31.095307953401786 ] ] ] } },
{ "type": "Feature", "properties": { "北京时间": "2026-05-07 22:00" }, "geometry": { "type": "Polygon", "coordinates": [ [ [ 113.915983152841179, 30.749280072590306 ], [ 113.915983152841179, 30.76471930845188 ], [ 113.898016847158786, 30.76471930845188 ], [ 113.898016847158786, 30.749280072590306 ], [ 113.915983152841179, 30.749280072590306 ] ] ] } },
{ "type": "Feature", "properties": { "北京时间": "2026-05-07 22:00" }, "geometry": { "type": "Polygon", "coordinates": [ [ [ 113.924983152841193, 30.765281355675139 ], [ 113.924983152841193, 30.780718025179539 ], [ 113.9070168471588, 30.780718025179539 ], [ 113.9070168471588, 30.765281355675139 ], [ 113.924983152841193, 30.765281355675139 ] ] ] } },
{ "type": "Feature", "properties": { "北京时间": "2026-05-07 22:00" }, "geometry": { "type": "Polygon", "coordinates": [ [ [ 114.006983152841201, 31.151312492307323 ], [ 114.006983152841201, 31.166686884082857 ], [ 113.989016847158808, 31.166686884082857 ], [ 113.989016847158808, 31.151312492307323 ], [ 114.006983152841201, 31.151312492307323 ] ] ] } },
{ "type": "Feature", "properties": { "北京时间": "2026-05-07 22:00" }, "geometry": { "type": "Polygon", "coordinates": [ [ [ 114.033983152841188, 30.778282398624846 ], [ 114.033983152841188, 30.793716982077655 ], [ 114.016016847158795, 30.793716982077655 ], [ 114.016016847158795, 30.778282398624846 ], [ 114.033983152841188, 30.778282398624846 ] ] ] } },
{ "type": "Feature", "properties": { "北京时间": "2026-05-07 22:00" }, "geometry": { "type": "Polygon", "coordinates": [ [ [ 113.9889831528412, 30.780282559113914 ], [ 113.9889831528412, 30.795716821565179 ], [ 113.971016847158793, 30.795716821565179 ], [ 113.971016847158793, 30.780282559113914 ], [ 113.9889831528412, 30.780282559113914 ] ] ] } },
{ "type": "Feature", "properties": { "北京时间": "2026-05-07 22:00" }, "geometry": { "type": "Polygon", "coordinates": [ [ [ 113.909983152841178, 30.712277107762809 ], [ 113.909983152841178, 30.727722273713667 ], [ 113.892016847158786, 30.727722273713667 ], [ 113.892016847158786, 30.712277107762809 ], [ 113.909983152841178, 30.712277107762809 ] ] ] } },
{ "type": "Feature", "properties": { "北京时间": "2026-05-07 22:00" }, "geometry": { "type": "Polygon", "coordinates": [ [ [ 114.002983152841182, 31.091307629475406 ], [ 114.002983152841182, 31.106691747601332 ], [ 113.985016847158789, 31.106691747601332 ], [ 113.985016847158789, 31.091307629475406 ], [ 114.002983152841182, 31.091307629475406 ] ] ] } },
{ "type": "Feature", "properties": { "北京时间": "2026-05-07 22:00" }, "geometry": { "type": "Polygon", "coordinates": [ [ [ 113.993983152841182, 31.050304311392175 ], [ 113.993983152841182, 31.065695066155264 ], [ 113.976016847158789, 31.065695066155264 ], [ 113.976016847158789, 31.050304311392175 ], [ 113.993983152841182, 31.050304311392175 ] ] ] } },
{ "type": "Feature", "properties": { "北京时间": "2026-05-07 22:00" }, "geometry": { "type": "Polygon", "coordinates": [ [ [ 114.027983152841188, 30.813285208541203 ], [ 114.027983152841188, 30.828714171752175 ], [ 114.010016847158809, 30.828714171752175 ], [ 114.010016847158809, 30.813285208541203 ], [ 114.027983152841188, 30.813285208541203 ] ] ] } },
{ "type": "Feature", "properties": { "北京时间": "2026-05-07 22:00" }, "geometry": { "type": "Polygon", "coordinates": [ [ [ 114.022983152841178, 30.828286413672515 ], [ 114.022983152841178, 30.843712966445818 ], [ 114.005016847158785, 30.843712966445818 ], [ 114.005016847158785, 30.828286413672515 ], [ 114.022983152841178, 30.828286413672515 ] ] ] } },
{ "type": "Feature", "properties": { "北京时间": "2026-05-07 22:00" }, "geometry": { "type": "Polygon", "coordinates": [ [ [ 114.013983152841178, 30.812285128217919 ], [ 114.013983152841178, 30.827714252087141 ], [ 113.996016847158785, 30.827714252087141 ], [ 113.996016847158785, 30.812285128217919 ], [ 114.013983152841178, 30.812285128217919 ] ] ] } },
{ "type": "Feature", "properties": { "北京时间": "2026-05-07 22:00" }, "geometry": { "type": "Polygon", "coordinates": [ [ [ 113.949983152841199, 30.780282559113914 ], [ 113.949983152841199, 30.795716821565179 ], [ 113.932016847158792, 30.795716821565179 ], [ 113.932016847158792, 30.780282559113914 ], [ 113.949983152841199, 30.780282559113914 ] ] ] } },
{ "type": "Feature", "properties": { "北京时间": "2026-05-07 22:00" }, "geometry": { "type": "Polygon", "coordinates": [ [ [ 114.033983152841188, 30.865289388590242 ], [ 114.033983152841188, 30.880709991097021 ], [ 114.016016847158795, 30.880709991097021 ], [ 114.016016847158795, 30.865289388590242 ], [ 114.033983152841188, 30.865289388590242 ] ] ] } },
{ "type": "Feature", "properties": { "北京时间": "2026-05-07 22:00" }, "geometry": { "type": "Polygon", "coordinates": [ [ [ 113.919983152841183, 30.672273906167266 ], [ 113.919983152841183, 30.687725475779892 ], [ 113.902016847158805, 30.687725475779892 ], [ 113.902016847158805, 30.672273906167266 ], [ 113.919983152841183, 30.672273906167266 ] ] ] } },
{ "type": "Feature", "properties": { "北京时间": "2026-05-07 22:00" }, "geometry": { "type": "Polygon", "coordinates": [ [ [ 113.964983152841199, 31.030302694245059 ], [ 113.964983152841199, 31.04569668353248 ], [ 113.947016847158807, 31.04569668353248 ], [ 113.947016847158807, 31.030302694245059 ], [ 113.964983152841199, 31.030302694245059 ] ] ] } },
{ "type": "Feature", "properties": { "北京时间": "2026-05-07 22:00" }, "geometry": { "type": "Polygon", "coordinates": [ [ [ 114.022983152841178, 31.097308115379033 ], [ 114.022983152841178, 31.112691261628921 ], [ 114.005016847158785, 31.112691261628921 ], [ 114.005016847158785, 31.097308115379033 ], [ 114.022983152841178, 31.097308115379033 ] ] ] } },
{ "type": "Feature", "properties": { "北京时间": "2026-05-07 21:00" }, "geometry": { "type": "Polygon", "coordinates": [ [ [ 114.08798315284119, 30.809284887262169 ], [ 114.08798315284119, 30.824714493077924 ], [ 114.070016847158797, 30.824714493077924 ], [ 114.070016847158797, 30.809284887262169 ], [ 114.08798315284119, 30.809284887262169 ] ] ] } },
{ "type": "Feature", "properties": { "北京时间": "2026-05-07 21:00" }, "geometry": { "type": "Polygon", "coordinates": [ [ [ 114.08498315284119, 31.418334234075104 ], [ 114.08498315284119, 31.433665139293122 ], [ 114.067016847158797, 31.433665139293122 ], [ 114.067016847158797, 31.418334234075104 ], [ 114.08498315284119, 31.418334234075104 ] ] ] } },
{ "type": "Feature", "properties": { "北京时间": "2026-05-07 21:00" }, "geometry": { "type": "Polygon", "coordinates": [ [ [ 113.981983152841181, 31.101308439361652 ], [ 113.981983152841181, 31.11669093760046 ], [ 113.964016847158803, 31.11669093760046 ], [ 113.964016847158803, 31.101308439361652 ], [ 113.981983152841181, 31.101308439361652 ] ] ] } },
{ "type": "Feature", "properties": { "北京时间": "2026-05-07 21:00" }, "geometry": { "type": "Polygon", "coordinates": [ [ [ 113.899983152841202, 30.59726791332756 ], [ 113.899983152841202, 30.612731469505391 ], [ 113.882016847158809, 30.612731469505391 ], [ 113.882016847158809, 30.59726791332756 ], [ 113.899983152841202, 30.59726791332756 ] ] ] } },
{ "type": "Feature", "properties": { "北京时间": "2026-05-07 21:00" }, "geometry": { "type": "Polygon", "coordinates": [ [ [ 114.068983152841199, 31.322326397616546 ], [ 114.068983152841199, 31.337672976831975 ], [ 114.051016847158806, 31.337672976831975 ], [ 114.051016847158806, 31.322326397616546 ], [ 114.068983152841199, 31.322326397616546 ] ] ] } },
{ "type": "Feature", "properties": { "北京时间": "2026-05-07 21:00" }, "geometry": { "type": "Polygon", "coordinates": [ [ [ 114.09098315284119, 31.288323627369543 ], [ 114.09098315284119, 31.30367574746327 ], [ 114.073016847158797, 31.30367574746327 ], [ 114.073016847158797, 31.288323627369543 ], [ 114.09098315284119, 31.288323627369543 ] ] ] } },
{ "type": "Feature", "properties": { "北京时间": "2026-05-07 21:00" }, "geometry": { "type": "Polygon", "coordinates": [ [ [ 113.943983152841184, 30.658272786498483 ], [ 113.943983152841184, 30.673726595613704 ], [ 113.926016847158792, 30.673726595613704 ], [ 113.926016847158792, 30.658272786498483 ], [ 113.943983152841184, 30.658272786498483 ] ] ] } },
{ "type": "Feature", "properties": { "北京时间": "2026-05-07 21:00" }, "geometry": { "type": "Polygon", "coordinates": [ [ [ 114.040983152841179, 31.290323790250422 ], [ 114.040983152841179, 31.305675584559751 ], [ 114.0230168471588, 31.305675584559751 ], [ 114.0230168471588, 31.290323790250422 ], [ 114.040983152841179, 31.290323790250422 ] ] ] } },
{ "type": "Feature", "properties": { "北京时间": "2026-05-07 21:00" }, "geometry": { "type": "Polygon", "coordinates": [ [ [ 114.057983152841203, 31.217317851160406 ], [ 114.057983152841203, 31.232681524477737 ], [ 114.04001684715881, 31.232681524477737 ], [ 114.04001684715881, 31.217317851160406 ], [ 114.057983152841203, 31.217317851160406 ] ] ] } },
{ "type": "Feature", "properties": { "北京时间": "2026-05-07 21:00" }, "geometry": { "type": "Polygon", "coordinates": [ [ [ 113.873983152841191, 30.592267514275921 ], [ 113.873983152841191, 30.607731868616227 ], [ 113.856016847158799, 30.607731868616227 ], [ 113.856016847158799, 30.592267514275921 ], [ 113.873983152841191, 30.592267514275921 ] ] ] } },
{ "type": "Feature", "properties": { "北京时间": "2026-05-07 21:00" }, "geometry": { "type": "Polygon", "coordinates": [ [ [ 113.875983152841201, 30.533262809915026 ], [ 113.875983152841201, 30.548736573677129 ], [ 113.858016847158808, 30.548736573677129 ], [ 113.858016847158808, 30.533262809915026 ], [ 113.875983152841201, 30.533262809915026 ] ] ] } },
{ "type": "Feature", "properties": { "北京时间": "2026-05-07 20:00" }, "geometry": { "type": "Polygon", "coordinates": [ [ [ 114.125983152841187, 31.515342174023981 ], [ 114.125983152841187, 31.530657198259853 ], [ 114.108016847158808, 31.530657198259853 ], [ 114.108016847158808, 31.515342174023981 ], [ 114.125983152841187, 31.515342174023981 ] ] ] } },
{ "type": "Feature", "properties": { "北京时间": "2026-05-07 20:00" }, "geometry": { "type": "Polygon", "coordinates": [ [ [ 114.049983152841193, 31.113309411534463 ], [ 114.049983152841193, 31.128689965290221 ], [ 114.0320168471588, 31.128689965290221 ], [ 114.0320168471588, 31.113309411534463 ], [ 114.049983152841193, 31.113309411534463 ] ] ] } },
{ "type": "Feature", "properties": { "北京时间": "2026-05-07 20:00" }, "geometry": { "type": "Polygon", "coordinates": [ [ [ 114.127983152841196, 31.453337096472385 ], [ 114.127983152841196, 31.468662276503746 ], [ 114.110016847158803, 31.468662276503746 ], [ 114.110016847158803, 31.453337096472385 ], [ 114.127983152841196, 31.453337096472385 ] ] ] } },
{ "type": "Feature", "properties": { "北京时间": "2026-05-07 20:00" }, "geometry": { "type": "Polygon", "coordinates": [ [ [ 114.180983152841193, 31.428335051611018 ], [ 114.180983152841193, 31.44366432164508 ], [ 114.163016847158801, 31.44366432164508 ], [ 114.163016847158801, 31.428335051611018 ], [ 114.180983152841193, 31.428335051611018 ] ] ] } },
{ "type": "Feature", "properties": { "北京时间": "2026-05-07 20:00" }, "geometry": { "type": "Polygon", "coordinates": [ [ [ 114.193983152841199, 31.557345618751334 ], [ 114.193983152841199, 31.572653753065193 ], [ 114.176016847158806, 31.572653753065193 ], [ 114.176016847158806, 31.557345618751334 ], [ 114.193983152841199, 31.557345618751334 ] ] ] } },
{ "type": "Feature", "properties": { "北京时间": "2026-05-07 20:00" }, "geometry": { "type": "Polygon", "coordinates": [ [ [ 114.219983152841195, 31.678355565836775 ], [ 114.219983152841195, 31.69364380464102 ], [ 114.202016847158788, 31.69364380464102 ], [ 114.202016847158788, 31.678355565836775 ], [ 114.219983152841195, 31.678355565836775 ] ] ] } },
{ "type": "Feature", "properties": { "北京时间": "2026-05-07 19:00" }, "geometry": { "type": "Polygon", "coordinates": [ [ [ 114.267983152841197, 31.803365877558043 ], [ 114.267983152841197, 31.818633491548582 ], [ 114.250016847158804, 31.818633491548582 ], [ 114.250016847158804, 31.803365877558043 ], [ 114.267983152841197, 31.803365877558043 ] ] ] } },
{ "type": "Feature", "properties": { "北京时间": "2026-05-07 19:00" }, "geometry": { "type": "Polygon", "coordinates": [ [ [ 114.175983152841198, 31.06330536304073 ], [ 114.175983152841198, 31.078694014357332 ], [ 114.158016847158805, 31.078694014357332 ], [ 114.158016847158805, 31.06330536304073 ], [ 114.175983152841198, 31.06330536304073 ] ] ] } },
{ "type": "Feature", "properties": { "北京时间": "2026-05-07 19:00" }, "geometry": { "type": "Polygon", "coordinates": [ [ [ 114.1079831528412, 31.588348163926891 ], [ 114.1079831528412, 31.603651207545596 ], [ 114.090016847158807, 31.603651207545596 ], [ 114.090016847158807, 31.588348163926891 ], [ 114.1079831528412, 31.588348163926891 ] ] ] } },
{ "type": "Feature", "properties": { "北京时间": "2026-05-07 19:00" }, "geometry": { "type": "Polygon", "coordinates": [ [ [ 114.330983152841199, 31.675355318802428 ], [ 114.330983152841199, 31.690644051708443 ], [ 114.313016847158806, 31.690644051708443 ], [ 114.313016847158806, 31.675355318802428 ], [ 114.330983152841199, 31.675355318802428 ] ] ] } },
{ "type": "Feature", "properties": { "北京时间": "2026-05-07 12:00" }, "geometry": { "type": "Polygon", "coordinates": [ [ [ 113.684983152841184, 31.351328762609903 ], [ 113.684983152841184, 31.366670611511541 ], [ 113.667016847158791, 31.366670611511541 ], [ 113.667016847158791, 31.351328762609903 ], [ 113.684983152841184, 31.351328762609903 ] ] ] } },
{ "type": "Feature", "properties": { "北京时间": "2026-05-07 11:00" }, "geometry": { "type": "Polygon", "coordinates": [ [ [ 113.59698315284119, 31.08630722462015 ], [ 113.59698315284119, 31.101692152513916 ], [ 113.579016847158798, 31.101692152513916 ], [ 113.579016847158798, 31.08630722462015 ], [ 113.59698315284119, 31.08630722462015 ] ] ] } },
{ "type": "Feature", "properties": { "北京时间": "2026-05-07 10:00" }, "geometry": { "type": "Polygon", "coordinates": [ [ [ 113.532983152841183, 30.815285369194822 ], [ 113.532983152841183, 30.830714011075202 ], [ 113.51501684715879, 30.830714011075202 ], [ 113.51501684715879, 30.815285369194822 ], [ 113.532983152841183, 30.815285369194822 ] ] ] } },
{ "type": "Feature", "properties": { "北京时间": "2026-05-07 09:00" }, "geometry": { "type": "Polygon", "coordinates": [ [ [ 113.462983152841176, 30.522261933738147 ], [ 113.462983152841176, 30.5377374499848 ], [ 113.445016847158783, 30.5377374499848 ], [ 113.445016847158783, 30.522261933738147 ], [ 113.462983152841176, 30.522261933738147 ] ] ] } },
{ "type": "Feature", "properties": { "北京时间": "2026-05-06 16:00" }, "geometry": { "type": "Polygon", "coordinates": [ [ [ 114.190983152841184, 30.748279992417491 ], [ 114.190983152841184, 30.763719388636417 ], [ 114.173016847158792, 30.763719388636417 ], [ 114.173016847158792, 30.748279992417491 ], [ 114.190983152841184, 30.748279992417491 ] ] ] } },
{ "type": "Feature", "properties": { "北京时间": "2026-05-06 15:00" }, "geometry": { "type": "Polygon", "coordinates": [ [ [ 114.186983152841194, 30.990299462765019 ], [ 114.186983152841194, 31.005699915473585 ], [ 114.169016847158801, 31.005699915473585 ], [ 114.169016847158801, 30.990299462765019 ], [ 114.186983152841194, 30.990299462765019 ] ] ] } },
{ "type": "Feature", "properties": { "北京时间": "2026-05-06 14:00" }, "geometry": { "type": "Polygon", "coordinates": [ [ [ 114.188983152841189, 31.242319883691586 ], [ 114.188983152841189, 31.257679491662543 ], [ 114.171016847158796, 31.257679491662543 ], [ 114.171016847158796, 31.242319883691586 ], [ 114.188983152841189, 31.242319883691586 ] ] ] } },
{ "type": "Feature", "properties": { "北京时间": "2026-05-06 13:00" }, "geometry": { "type": "Polygon", "coordinates": [ [ [ 114.497983152841186, 31.44033603296235 ], [ 114.497983152841186, 31.455663340159298 ], [ 114.480016847158794, 31.455663340159298 ], [ 114.480016847158794, 31.44033603296235 ], [ 114.497983152841186, 31.44033603296235 ] ] ] } },
{ "type": "Feature", "properties": { "北京时间": "2026-05-06 13:00" }, "geometry": { "type": "Polygon", "coordinates": [ [ [ 114.208983152841199, 31.483339552231971 ], [ 114.208983152841199, 31.498659820408804 ], [ 114.191016847158792, 31.498659820408804 ], [ 114.191016847158792, 31.483339552231971 ], [ 114.208983152841199, 31.483339552231971 ] ] ] } },
{ "type": "Feature", "properties": { "北京时间": "2026-05-06 12:00" }, "geometry": { "type": "Polygon", "coordinates": [ [ [ 114.230983152841191, 31.706357872501417 ], [ 114.230983152841191, 31.721641497668209 ], [ 114.213016847158798, 31.721641497668209 ], [ 114.213016847158798, 31.706357872501417 ], [ 114.230983152841191, 31.706357872501417 ] ] ] } }
]
}
