{
"type": "FeatureCollection",
"name": "东城",
"crs": { "type": "name", "properties": { "name": "urn:ogc:def:crs:OGC:1.3:CRS84" } },
"features": [
{ "type": "Feature", "properties": { "北京时间": "2026-05-19 06:00" }, "geometry": { "type": "Polygon", "coordinates": [ [ [ 113.950983152841175, 30.899292125133776 ], [ 113.950983152841175, 30.914707254158273 ], [ 113.933016847158797, 30.914707254158273 ], [ 113.933016847158797, 30.899292125133776 ], [ 113.950983152841175, 30.899292125133776 ] ] ] } },
{ "type": "Feature", "properties": { "北京时间": "2026-05-19 05:00" }, "geometry": { "type": "Polygon", "coordinates": [ [ [ 114.069983152841203, 30.793283602522088 ], [ 114.069983152841203, 30.808715778004945 ], [ 114.052016847158811, 30.808715778004945 ], [ 114.052016847158811, 30.793283602522088 ], [ 114.069983152841203, 30.793283602522088 ] ] ] } },
{ "type": "Feature", "properties": { "北京时间": "2026-05-19 05:00" }, "geometry": { "type": "Polygon", "coordinates": [ [ [ 114.089983152841185, 30.872289951774302 ], [ 114.089983152841185, 30.88770942783151 ], [ 114.072016847158793, 30.88770942783151 ], [ 114.072016847158793, 30.872289951774302 ], [ 114.089983152841185, 30.872289951774302 ] ] ] } },
{ "type": "Feature", "properties": { "北京时间": "2026-05-19 05:00" }, "geometry": { "type": "Polygon", "coordinates": [ [ [ 114.132983152841192, 30.834286895873088 ], [ 114.132983152841192, 30.849712484175267 ], [ 114.115016847158799, 30.849712484175267 ], [ 114.115016847158799, 30.834286895873088 ], [ 114.132983152841192, 30.834286895873088 ] ] ] } },
{ "type": "Feature", "properties": { "北京时间": "2026-05-19 05:00" }, "geometry": { "type": "Polygon", "coordinates": [ [ [ 114.138983152841192, 30.776282238145182 ], [ 114.138983152841192, 30.791717142580719 ], [ 114.121016847158799, 30.791717142580719 ], [ 114.121016847158799, 30.776282238145182 ], [ 114.138983152841192, 30.776282238145182 ] ] ] } },
{ "type": "Feature", "properties": { "北京时间": "2026-05-19 05:00" }, "geometry": { "type": "Polygon", "coordinates": [ [ [ 114.089983152841185, 30.788283201164241 ], [ 114.089983152841185, 30.803716179421276 ], [ 114.072016847158793, 30.803716179421276 ], [ 114.072016847158793, 30.788283201164241 ], [ 114.089983152841185, 30.788283201164241 ] ] ] } },
{ "type": "Feature", "properties": { "北京时间": "2026-05-19 05:00" }, "geometry": { "type": "Polygon", "coordinates": [ [ [ 114.190983152841184, 30.77728231838384 ], [ 114.190983152841184, 30.792717062330357 ], [ 114.173016847158792, 30.792717062330357 ], [ 114.173016847158792, 30.77728231838384 ], [ 114.190983152841184, 30.77728231838384 ] ] ] } },
{ "type": "Feature", "properties": { "北京时间": "2026-05-19 05:00" }, "geometry": { "type": "Polygon", "coordinates": [ [ [ 114.153983152841178, 30.829286494033393 ], [ 114.153983152841178, 30.844712886073264 ], [ 114.1360168471588, 30.844712886073264 ], [ 114.1360168471588, 30.829286494033393 ], [ 114.153983152841178, 30.829286494033393 ] ] ] } },
{ "type": "Feature", "properties": { "北京时间": "2026-05-19 05:00" }, "geometry": { "type": "Polygon", "coordinates": [ [ [ 114.076983152841194, 30.815285369194822 ], [ 114.076983152841194, 30.830714011075202 ], [ 114.059016847158802, 30.830714011075202 ], [ 114.059016847158802, 30.815285369194822 ], [ 114.076983152841194, 30.815285369194822 ] ] ] } },
{ "type": "Feature", "properties": { "北京时间": "2026-05-19 05:00" }, "geometry": { "type": "Polygon", "coordinates": [ [ [ 114.049983152841193, 30.806284646327558 ], [ 114.049983152841193, 30.821714734047561 ], [ 114.0320168471588, 30.821714734047561 ], [ 114.0320168471588, 30.806284646327558 ], [ 114.049983152841193, 30.806284646327558 ] ] ] } },
{ "type": "Feature", "properties": { "北京时间": "2026-05-19 05:00" }, "geometry": { "type": "Polygon", "coordinates": [ [ [ 114.141983152841178, 30.871289871312399 ], [ 114.141983152841178, 30.886709508305067 ], [ 114.124016847158799, 30.886709508305067 ], [ 114.124016847158799, 30.871289871312399 ], [ 114.141983152841178, 30.871289871312399 ] ] ] } },
{ "type": "Feature", "properties": { "北京时间": "2026-05-19 05:00" }, "geometry": { "type": "Polygon", "coordinates": [ [ [ 114.053983152841184, 30.853288423399633 ], [ 114.053983152841184, 30.868710956427318 ], [ 114.036016847158791, 30.868710956427318 ], [ 114.036016847158791, 30.853288423399633 ], [ 114.053983152841184, 30.853288423399633 ] ] ] } },
{ "type": "Feature", "properties": { "北京时间": "2026-05-19 05:00" }, "geometry": { "type": "Polygon", "coordinates": [ [ [ 114.010983152841192, 30.981298736199257 ], [ 114.010983152841192, 30.996700642143264 ], [ 113.993016847158799, 30.996700642143264 ], [ 113.993016847158799, 30.981298736199257 ], [ 114.010983152841192, 30.981298736199257 ] ] ] } },
{ "type": "Feature", "properties": { "北京时间": "2026-05-19 05:00" }, "geometry": { "type": "Polygon", "coordinates": [ [ [ 114.08598315284118, 30.897291964085486 ], [ 114.08598315284118, 30.9127074152298 ], [ 114.068016847158802, 30.9127074152298 ], [ 114.068016847158802, 30.897291964085486 ], [ 114.08598315284118, 30.897291964085486 ] ] ] } },
{ "type": "Feature", "properties": { "北京时间": "2026-05-19 05:00" }, "geometry": { "type": "Polygon", "coordinates": [ [ [ 113.955983152841185, 31.045303907017473 ], [ 113.955983152841185, 31.060695470587461 ], [ 113.938016847158792, 31.060695470587461 ], [ 113.938016847158792, 31.045303907017473 ], [ 113.955983152841185, 31.045303907017473 ] ] ] } },
{ "type": "Feature", "properties": { "北京时间": "2026-05-19 05:00" }, "geometry": { "type": "Polygon", "coordinates": [ [ [ 113.922983152841184, 31.022302047648839 ], [ 113.922983152841184, 31.037697330220816 ], [ 113.905016847158805, 31.037697330220816 ], [ 113.905016847158805, 31.022302047648839 ], [ 113.922983152841184, 31.022302047648839 ] ] ] } },
{ "type": "Feature", "properties": { "北京时间": "2026-05-19 05:00" }, "geometry": { "type": "Polygon", "coordinates": [ [ [ 113.984983152841195, 30.999300189520817 ], [ 113.984983152841195, 31.014699188613932 ], [ 113.967016847158803, 31.014699188613932 ], [ 113.967016847158803, 30.999300189520817 ], [ 113.984983152841195, 30.999300189520817 ] ] ] } },
{ "type": "Feature", "properties": { "北京时间": "2026-05-19 05:00" }, "geometry": { "type": "Polygon", "coordinates": [ [ [ 113.917983152841188, 31.006300754906693 ], [ 113.917983152841188, 31.021698623147341 ], [ 113.90001684715881, 31.021698623147341 ], [ 113.90001684715881, 31.006300754906693 ], [ 113.917983152841188, 31.006300754906693 ] ] ] } },
{ "type": "Feature", "properties": { "北京时间": "2026-05-19 04:00" }, "geometry": { "type": "Polygon", "coordinates": [ [ [ 113.887983152841187, 31.119309897747392 ], [ 113.887983152841187, 31.13468947900861 ], [ 113.870016847158794, 31.13468947900861 ], [ 113.870016847158794, 31.119309897747392 ], [ 113.887983152841187, 31.119309897747392 ] ] ] } },
{ "type": "Feature", "properties": { "北京时间": "2026-05-19 04:00" }, "geometry": { "type": "Polygon", "coordinates": [ [ [ 113.915983152841179, 31.149312330077066 ], [ 113.915983152841179, 31.164687046335974 ], [ 113.898016847158786, 31.164687046335974 ], [ 113.898016847158786, 31.149312330077066 ], [ 113.915983152841179, 31.149312330077066 ] ] ] } },
{ "type": "Feature", "properties": { "北京时间": "2026-05-19 04:00" }, "geometry": { "type": "Polygon", "coordinates": [ [ [ 114.037983152841178, 31.097308115379033 ], [ 114.037983152841178, 31.112691261628921 ], [ 114.0200168471588, 31.112691261628921 ], [ 114.0200168471588, 31.097308115379033 ], [ 114.037983152841178, 31.097308115379033 ] ] ] } },
{ "type": "Feature", "properties": { "北京时间": "2026-05-19 04:00" }, "geometry": { "type": "Polygon", "coordinates": [ [ [ 114.103983152841181, 31.028302532581929 ], [ 114.103983152841181, 31.043696845218626 ], [ 114.086016847158788, 31.043696845218626 ], [ 114.086016847158788, 31.028302532581929 ], [ 114.103983152841181, 31.028302532581929 ] ] ] } },
{ "type": "Feature", "properties": { "北京时间": "2026-05-19 04:00" }, "geometry": { "type": "Polygon", "coordinates": [ [ [ 113.986983152841205, 31.205316876064984 ], [ 113.986983152841205, 31.220682499709639 ], [ 113.969016847158798, 31.220682499709639 ], [ 113.969016847158798, 31.205316876064984 ], [ 113.986983152841205, 31.205316876064984 ] ] ] } },
{ "type": "Feature", "properties": { "北京时间": "2026-05-19 04:00" }, "geometry": { "type": "Polygon", "coordinates": [ [ [ 114.160983152841197, 30.803284405414121 ], [ 114.160983152841197, 30.818714974996055 ], [ 114.14301684715879, 30.818714974996055 ], [ 114.14301684715879, 30.803284405414121 ], [ 114.160983152841197, 30.803284405414121 ] ] ] } },
{ "type": "Feature", "properties": { "北京时间": "2026-05-19 03:00" }, "geometry": { "type": "Polygon", "coordinates": [ [ [ 114.066983152841189, 31.364329823417403 ], [ 114.066983152841189, 31.37966955055763 ], [ 114.049016847158811, 31.37966955055763 ], [ 114.049016847158811, 31.364329823417403 ], [ 114.066983152841189, 31.364329823417403 ] ] ] } },
{ "type": "Feature", "properties": { "北京时间": "2026-05-19 03:00" }, "geometry": { "type": "Polygon", "coordinates": [ [ [ 113.931983152841184, 31.282323138783028 ], [ 113.931983152841184, 31.29767623611767 ], [ 113.914016847158805, 31.29767623611767 ], [ 113.914016847158805, 31.282323138783028 ], [ 113.931983152841184, 31.282323138783028 ] ] ] } },
{ "type": "Feature", "properties": { "北京时间": "2026-05-19 03:00" }, "geometry": { "type": "Polygon", "coordinates": [ [ [ 113.868983152841196, 31.246320209032294 ], [ 113.868983152841196, 31.261679166276441 ], [ 113.851016847158803, 31.261679166276441 ], [ 113.851016847158803, 31.246320209032294 ], [ 113.868983152841196, 31.246320209032294 ] ] ] } },
{ "type": "Feature", "properties": { "北京时间": "2026-05-19 03:00" }, "geometry": { "type": "Polygon", "coordinates": [ [ [ 114.1079831528412, 31.208317119807244 ], [ 114.1079831528412, 31.223682255933252 ], [ 114.090016847158807, 31.223682255933252 ], [ 114.090016847158807, 31.208317119807244 ], [ 114.1079831528412, 31.208317119807244 ] ] ] } },
{ "type": "Feature", "properties": { "北京时间": "2026-05-19 02:00" }, "geometry": { "type": "Polygon", "coordinates": [ [ [ 114.176983152841188, 31.332327212909448 ], [ 114.176983152841188, 31.347672161426232 ], [ 114.159016847158796, 31.347672161426232 ], [ 114.159016847158796, 31.332327212909448 ], [ 114.176983152841188, 31.332327212909448 ] ] ] } },
{ "type": "Feature", "properties": { "北京时间": "2026-05-19 02:00" }, "geometry": { "type": "Polygon", "coordinates": [ [ [ 114.146983152841187, 31.505341354457318 ], [ 114.146983152841187, 31.520658017937983 ], [ 114.129016847158795, 31.520658017937983 ], [ 114.129016847158795, 31.505341354457318 ], [ 114.146983152841187, 31.505341354457318 ] ] ] } },
{ "type": "Feature", "properties": { "北京时间": "2026-05-19 02:00" }, "geometry": { "type": "Polygon", "coordinates": [ [ [ 113.978983152841181, 31.409333498492458 ], [ 113.978983152841181, 31.424665874976746 ], [ 113.961016847158803, 31.424665874976746 ], [ 113.961016847158803, 31.409333498492458 ], [ 113.978983152841181, 31.409333498492458 ] ] ] } },
{ "type": "Feature", "properties": { "北京时间": "2026-05-19 02:00" }, "geometry": { "type": "Polygon", "coordinates": [ [ [ 113.8519831528412, 31.399332681400303 ], [ 113.8519831528412, 31.414666692181179 ], [ 113.834016847158793, 31.414666692181179 ], [ 113.834016847158793, 31.399332681400303 ], [ 113.8519831528412, 31.399332681400303 ] ] ] } },
{ "type": "Feature", "properties": { "北京时间": "2026-05-19 01:00" }, "geometry": { "type": "Polygon", "coordinates": [ [ [ 114.242983152841191, 31.476338979033514 ], [ 114.242983152841191, 31.491660393685457 ], [ 114.225016847158798, 31.491660393685457 ], [ 114.225016847158798, 31.476338979033514 ], [ 114.242983152841191, 31.476338979033514 ] ] ] } },
{ "type": "Feature", "properties": { "北京时间": "2026-05-19 01:00" }, "geometry": { "type": "Polygon", "coordinates": [ [ [ 114.200983152841175, 31.638352273769051 ], [ 114.200983152841175, 31.653647097150071 ], [ 114.183016847158797, 31.653647097150071 ], [ 114.183016847158797, 31.638352273769051 ], [ 114.200983152841175, 31.638352273769051 ] ] ] } },
{ "type": "Feature", "properties": { "北京时间": "2026-05-19 00:00" }, "geometry": { "type": "Polygon", "coordinates": [ [ [ 114.289983152841202, 31.639352356025309 ], [ 114.289983152841202, 31.654647014882752 ], [ 114.27201684715881, 31.654647014882752 ], [ 114.27201684715881, 31.639352356025309 ], [ 114.289983152841202, 31.639352356025309 ] ] ] } },
{ "type": "Feature", "properties": { "北京时间": "2026-05-19 00:00" }, "geometry": { "type": "Polygon", "coordinates": [ [ [ 114.141983152841178, 31.656353754738308 ], [ 114.141983152841178, 31.67164561598209 ], [ 114.124016847158799, 31.67164561598209 ], [ 114.124016847158799, 31.656353754738308 ], [ 114.141983152841178, 31.656353754738308 ] ] ] } },
{ "type": "Feature", "properties": { "北京时间": "2026-05-19 00:00" }, "geometry": { "type": "Polygon", "coordinates": [ [ [ 114.2209831528412, 31.761362408763432 ], [ 114.2209831528412, 31.776636960802577 ], [ 114.203016847158807, 31.776636960802577 ], [ 114.203016847158807, 31.761362408763432 ], [ 114.2209831528412, 31.761362408763432 ] ] ] } },
{ "type": "Feature", "properties": { "北京时间": "2026-05-18 23:00" }, "geometry": { "type": "Polygon", "coordinates": [ [ [ 114.204983152841194, 31.826367778874683 ], [ 114.204983152841194, 31.841631589980963 ], [ 114.187016847158802, 31.841631589980963 ], [ 114.187016847158802, 31.826367778874683 ], [ 114.204983152841194, 31.826367778874683 ] ] ] } }
]
}
