{
"type": "FeatureCollection",
"name": "东城",
"crs": { "type": "name", "properties": { "name": "urn:ogc:def:crs:OGC:1.3:CRS84" } },
"features": [
{ "type": "Feature", "properties": { "北京时间": "2026-05-15 06:00" }, "geometry": { "type": "Polygon", "coordinates": [ [ [ 113.950983152841175, 30.899292125133776 ], [ 113.950983152841175, 30.914707254158273 ], [ 113.933016847158797, 30.914707254158273 ], [ 113.933016847158797, 30.899292125133776 ], [ 113.950983152841175, 30.899292125133776 ] ] ] } },
{ "type": "Feature", "properties": { "北京时间": "2026-05-15 05:00" }, "geometry": { "type": "Polygon", "coordinates": [ [ [ 113.999983152841196, 30.975298251927647 ], [ 113.999983152841196, 30.990701126484161 ], [ 113.982016847158789, 30.990701126484161 ], [ 113.982016847158789, 30.975298251927647 ], [ 113.999983152841196, 30.975298251927647 ] ] ] } },
{ "type": "Feature", "properties": { "北京时间": "2026-05-15 05:00" }, "geometry": { "type": "Polygon", "coordinates": [ [ [ 114.034983152841207, 30.919293736133383 ], [ 114.034983152841207, 30.934705642926605 ], [ 114.0170168471588, 30.934705642926605 ], [ 114.0170168471588, 30.919293736133383 ], [ 114.034983152841207, 30.919293736133383 ] ] ] } },
{ "type": "Feature", "properties": { "北京时间": "2026-05-15 05:00" }, "geometry": { "type": "Polygon", "coordinates": [ [ [ 113.900983152841178, 30.869289710395616 ], [ 113.900983152841178, 30.884709669245115 ], [ 113.883016847158785, 30.884709669245115 ], [ 113.883016847158785, 30.869289710395616 ], [ 113.900983152841178, 30.869289710395616 ] ] ] } },
{ "type": "Feature", "properties": { "北京时间": "2026-05-15 05:00" }, "geometry": { "type": "Polygon", "coordinates": [ [ [ 113.907983152841183, 30.825286172603953 ], [ 113.907983152841183, 30.840713207549385 ], [ 113.89001684715879, 30.840713207549385 ], [ 113.89001684715879, 30.825286172603953 ], [ 113.907983152841183, 30.825286172603953 ] ] ] } },
{ "type": "Feature", "properties": { "北京时间": "2026-05-15 05:00" }, "geometry": { "type": "Polygon", "coordinates": [ [ [ 113.760983152841177, 30.813285208541203 ], [ 113.760983152841177, 30.828714171752175 ], [ 113.743016847158785, 30.828714171752175 ], [ 113.743016847158785, 30.813285208541203 ], [ 113.760983152841177, 30.813285208541203 ] ] ] } },
{ "type": "Feature", "properties": { "北京时间": "2026-05-15 05:00" }, "geometry": { "type": "Polygon", "coordinates": [ [ [ 113.916983152841198, 30.845287780127176 ], [ 113.916983152841198, 30.86071159979296 ], [ 113.899016847158805, 30.86071159979296 ], [ 113.899016847158805, 30.845287780127176 ], [ 113.916983152841198, 30.845287780127176 ] ] ] } },
{ "type": "Feature", "properties": { "北京时间": "2026-05-15 05:00" }, "geometry": { "type": "Polygon", "coordinates": [ [ [ 114.005983152841182, 30.939295348072086 ], [ 114.005983152841182, 30.954704030756137 ], [ 113.988016847158789, 30.954704030756137 ], [ 113.988016847158789, 30.939295348072086 ], [ 114.005983152841182, 30.939295348072086 ] ] ] } },
{ "type": "Feature", "properties": { "北京时间": "2026-05-15 05:00" }, "geometry": { "type": "Polygon", "coordinates": [ [ [ 114.033983152841188, 30.94429575120348 ], [ 114.033983152841188, 30.959703627566871 ], [ 114.016016847158795, 30.959703627566871 ], [ 114.016016847158795, 30.94429575120348 ], [ 114.033983152841188, 30.94429575120348 ] ] ] } },
{ "type": "Feature", "properties": { "北京时间": "2026-05-15 05:00" }, "geometry": { "type": "Polygon", "coordinates": [ [ [ 113.984983152841195, 30.823286011903324 ], [ 113.984983152841195, 30.838713368273343 ], [ 113.967016847158803, 30.838713368273343 ], [ 113.967016847158803, 30.823286011903324 ], [ 113.984983152841195, 30.823286011903324 ] ] ] } },
{ "type": "Feature", "properties": { "北京时间": "2026-05-15 05:00" }, "geometry": { "type": "Polygon", "coordinates": [ [ [ 113.989983152841177, 30.805284566020731 ], [ 113.989983152841177, 30.820714814366074 ], [ 113.972016847158798, 30.820714814366074 ], [ 113.972016847158798, 30.805284566020731 ], [ 113.989983152841177, 30.805284566020731 ] ] ] } },
{ "type": "Feature", "properties": { "北京时间": "2026-05-15 05:00" }, "geometry": { "type": "Polygon", "coordinates": [ [ [ 114.007983152841177, 30.838287217387133 ], [ 114.007983152841177, 30.853712162614585 ], [ 113.990016847158785, 30.853712162614585 ], [ 113.990016847158785, 30.838287217387133 ], [ 114.007983152841177, 30.838287217387133 ] ] ] } },
{ "type": "Feature", "properties": { "北京时间": "2026-05-15 05:00" }, "geometry": { "type": "Polygon", "coordinates": [ [ [ 113.992983152841177, 30.934294944999376 ], [ 113.992983152841177, 30.949704433886755 ], [ 113.975016847158798, 30.949704433886755 ], [ 113.975016847158798, 30.934294944999376 ], [ 113.992983152841177, 30.934294944999376 ] ] ] } },
{ "type": "Feature", "properties": { "北京时间": "2026-05-15 05:00" }, "geometry": { "type": "Polygon", "coordinates": [ [ [ 114.004983152841177, 30.936295106221419 ], [ 114.004983152841177, 30.951704272641553 ], [ 113.987016847158785, 30.951704272641553 ], [ 113.987016847158785, 30.936295106221419 ], [ 114.004983152841177, 30.936295106221419 ] ] ] } },
{ "type": "Feature", "properties": { "北京时间": "2026-05-15 05:00" }, "geometry": { "type": "Polygon", "coordinates": [ [ [ 114.014983152841197, 30.923294058445993 ], [ 114.014983152841197, 30.938705320567607 ], [ 113.99701684715879, 30.938705320567607 ], [ 113.99701684715879, 30.923294058445993 ], [ 114.014983152841197, 30.923294058445993 ] ] ] } },
{ "type": "Feature", "properties": { "北京时间": "2026-05-15 05:00" }, "geometry": { "type": "Polygon", "coordinates": [ [ [ 114.052983152841179, 30.848288021336728 ], [ 114.052983152841179, 30.863711358548457 ], [ 114.035016847158786, 30.863711358548457 ], [ 114.035016847158786, 30.848288021336728 ], [ 114.052983152841179, 30.848288021336728 ] ] ] } },
{ "type": "Feature", "properties": { "北京时间": "2026-05-15 05:00" }, "geometry": { "type": "Polygon", "coordinates": [ [ [ 114.057983152841203, 30.893291642017058 ], [ 114.057983152841203, 30.908707737344685 ], [ 114.04001684715881, 30.908707737344685 ], [ 114.04001684715881, 30.893291642017058 ], [ 114.057983152841203, 30.893291642017058 ] ] ] } },
{ "type": "Feature", "properties": { "北京时间": "2026-05-15 05:00" }, "geometry": { "type": "Polygon", "coordinates": [ [ [ 113.956983152841175, 30.893291642017058 ], [ 113.956983152841175, 30.908707737344685 ], [ 113.939016847158783, 30.908707737344685 ], [ 113.939016847158783, 30.893291642017058 ], [ 113.956983152841175, 30.893291642017058 ] ] ] } },
{ "type": "Feature", "properties": { "北京时间": "2026-05-15 05:00" }, "geometry": { "type": "Polygon", "coordinates": [ [ [ 113.972983152841195, 30.834286895873088 ], [ 113.972983152841195, 30.849712484175267 ], [ 113.955016847158802, 30.849712484175267 ], [ 113.955016847158802, 30.834286895873088 ], [ 113.972983152841195, 30.834286895873088 ] ] ] } },
{ "type": "Feature", "properties": { "北京时间": "2026-05-15 05:00" }, "geometry": { "type": "Polygon", "coordinates": [ [ [ 114.124983152841196, 30.782282719612382 ], [ 114.124983152841196, 30.7977166610433 ], [ 114.107016847158803, 30.7977166610433 ], [ 114.107016847158803, 30.782282719612382 ], [ 114.124983152841196, 30.782282719612382 ] ] ] } },
{ "type": "Feature", "properties": { "北京时间": "2026-05-15 05:00" }, "geometry": { "type": "Polygon", "coordinates": [ [ [ 113.983983152841191, 30.931294703183923 ], [ 113.983983152841191, 30.946704675736964 ], [ 113.966016847158798, 30.946704675736964 ], [ 113.966016847158798, 30.931294703183923 ], [ 113.983983152841191, 30.931294703183923 ] ] ] } },
{ "type": "Feature", "properties": { "北京时间": "2026-05-15 04:00" }, "geometry": { "type": "Polygon", "coordinates": [ [ [ 114.1169831528412, 30.931294703183923 ], [ 114.1169831528412, 30.946704675736964 ], [ 114.099016847158808, 30.946704675736964 ], [ 114.099016847158808, 30.931294703183923 ], [ 114.1169831528412, 30.931294703183923 ] ] ] } },
{ "type": "Feature", "properties": { "北京时间": "2026-05-15 04:00" }, "geometry": { "type": "Polygon", "coordinates": [ [ [ 114.129983152841177, 30.934294944999376 ], [ 114.129983152841177, 30.949704433886755 ], [ 114.112016847158785, 30.949704433886755 ], [ 114.112016847158785, 30.934294944999376 ], [ 114.129983152841177, 30.934294944999376 ] ] ] } },
{ "type": "Feature", "properties": { "北京时间": "2026-05-15 04:00" }, "geometry": { "type": "Polygon", "coordinates": [ [ [ 114.064983152841194, 30.973298090522562 ], [ 114.064983152841194, 30.988701287912381 ], [ 114.047016847158787, 30.988701287912381 ], [ 114.047016847158787, 30.973298090522562 ], [ 114.064983152841194, 30.973298090522562 ] ] ] } },
{ "type": "Feature", "properties": { "北京时间": "2026-05-15 04:00" }, "geometry": { "type": "Polygon", "coordinates": [ [ [ 114.081983152841175, 30.941295509317605 ], [ 114.081983152841175, 30.956703869487473 ], [ 114.064016847158783, 30.956703869487473 ], [ 114.064016847158783, 30.941295509317605 ], [ 114.081983152841175, 30.941295509317605 ] ] ] } },
{ "type": "Feature", "properties": { "北京时间": "2026-05-15 04:00" }, "geometry": { "type": "Polygon", "coordinates": [ [ [ 113.860983152841214, 30.763281195256621 ], [ 113.860983152841214, 30.778718185621504 ], [ 113.843016847158822, 30.778718185621504 ], [ 113.843016847158822, 30.763281195256621 ], [ 113.860983152841214, 30.763281195256621 ] ] ] } },
{ "type": "Feature", "properties": { "北京时间": "2026-05-15 04:00" }, "geometry": { "type": "Polygon", "coordinates": [ [ [ 113.629983152841177, 30.706276627283465 ], [ 113.629983152841177, 30.721722754263556 ], [ 113.612016847158799, 30.721722754263556 ], [ 113.612016847158799, 30.706276627283465 ], [ 113.629983152841177, 30.706276627283465 ] ] ] } },
{ "type": "Feature", "properties": { "北京时间": "2026-05-15 04:00" }, "geometry": { "type": "Polygon", "coordinates": [ [ [ 114.035983152841183, 31.053304554045138 ], [ 114.035983152841183, 31.068694823467816 ], [ 114.018016847158805, 31.068694823467816 ], [ 114.018016847158805, 31.053304554045138 ], [ 114.035983152841183, 31.053304554045138 ] ] ] } },
{ "type": "Feature", "properties": { "北京时间": "2026-05-15 04:00" }, "geometry": { "type": "Polygon", "coordinates": [ [ [ 113.93998315284118, 30.862289147260878 ], [ 113.93998315284118, 30.877710232461293 ], [ 113.922016847158801, 30.877710232461293 ], [ 113.922016847158801, 30.862289147260878 ], [ 113.93998315284118, 30.862289147260878 ] ] ] } },
{ "type": "Feature", "properties": { "北京时间": "2026-05-15 04:00" }, "geometry": { "type": "Polygon", "coordinates": [ [ [ 113.850983152841181, 30.838287217387133 ], [ 113.850983152841181, 30.853712162614585 ], [ 113.833016847158788, 30.853712162614585 ], [ 113.833016847158788, 30.838287217387133 ], [ 113.850983152841181, 30.838287217387133 ] ] ] } },
{ "type": "Feature", "properties": { "北京时间": "2026-05-15 04:00" }, "geometry": { "type": "Polygon", "coordinates": [ [ [ 114.008983152841196, 30.959296960949679 ], [ 114.008983152841196, 30.974702417647062 ], [ 113.991016847158804, 30.974702417647062 ], [ 113.991016847158804, 30.959296960949679 ], [ 114.008983152841196, 30.959296960949679 ] ] ] } },
{ "type": "Feature", "properties": { "北京时间": "2026-05-15 04:00" }, "geometry": { "type": "Polygon", "coordinates": [ [ [ 114.022983152841178, 30.966297525678637 ], [ 114.022983152841178, 30.981701852837197 ], [ 114.005016847158785, 30.981701852837197 ], [ 114.005016847158785, 30.966297525678637 ], [ 114.022983152841178, 30.966297525678637 ] ] ] } },
{ "type": "Feature", "properties": { "北京时间": "2026-05-15 04:00" }, "geometry": { "type": "Polygon", "coordinates": [ [ [ 114.150983152841178, 30.810284967578397 ], [ 114.150983152841178, 30.825714412750017 ], [ 114.133016847158785, 30.825714412750017 ], [ 114.133016847158785, 30.810284967578397 ], [ 114.150983152841178, 30.810284967578397 ] ] ] } },
{ "type": "Feature", "properties": { "北京时间": "2026-05-15 04:00" }, "geometry": { "type": "Polygon", "coordinates": [ [ [ 114.073983152841194, 30.975298251927647 ], [ 114.073983152841194, 30.990701126484161 ], [ 114.056016847158787, 30.990701126484161 ], [ 114.056016847158787, 30.975298251927647 ], [ 114.073983152841194, 30.975298251927647 ] ] ] } },
{ "type": "Feature", "properties": { "北京时间": "2026-05-15 04:00" }, "geometry": { "type": "Polygon", "coordinates": [ [ [ 114.093983152841176, 30.77728231838384 ], [ 114.093983152841176, 30.792717062330357 ], [ 114.076016847158797, 30.792717062330357 ], [ 114.076016847158797, 30.77728231838384 ], [ 114.093983152841176, 30.77728231838384 ] ] ] } },
{ "type": "Feature", "properties": { "北京时间": "2026-05-15 04:00" }, "geometry": { "type": "Polygon", "coordinates": [ [ [ 114.114983152841177, 30.997300028003107 ], [ 114.114983152841177, 31.012699350154723 ], [ 114.097016847158784, 31.012699350154723 ], [ 114.097016847158784, 30.997300028003107 ], [ 114.114983152841177, 30.997300028003107 ] ] ] } },
{ "type": "Feature", "properties": { "北京时间": "2026-05-15 04:00" }, "geometry": { "type": "Polygon", "coordinates": [ [ [ 113.878983152841187, 30.737279110671782 ], [ 113.878983152841187, 30.752720270511144 ], [ 113.861016847158794, 30.752720270511144 ], [ 113.861016847158794, 30.737279110671782 ], [ 113.878983152841187, 30.737279110671782 ] ] ] } },
{ "type": "Feature", "properties": { "北京时间": "2026-05-15 03:00" }, "geometry": { "type": "Polygon", "coordinates": [ [ [ 113.876983152841191, 30.656272626583469 ], [ 113.876983152841191, 30.671726755552317 ], [ 113.859016847158799, 30.671726755552317 ], [ 113.859016847158799, 30.656272626583469 ], [ 113.876983152841191, 30.656272626583469 ] ] ] } },
{ "type": "Feature", "properties": { "北京时间": "2026-05-15 03:00" }, "geometry": { "type": "Polygon", "coordinates": [ [ [ 113.951983152841194, 30.662273106356768 ], [ 113.951983152841194, 30.677726275708256 ], [ 113.934016847158787, 30.677726275708256 ], [ 113.934016847158787, 30.662273106356768 ], [ 113.951983152841194, 30.662273106356768 ] ] ] } },
{ "type": "Feature", "properties": { "北京时间": "2026-05-15 03:00" }, "geometry": { "type": "Polygon", "coordinates": [ [ [ 113.802983152841179, 30.795283763081699 ], [ 113.802983152841179, 30.81071561742198 ], [ 113.785016847158786, 30.81071561742198 ], [ 113.785016847158786, 30.795283763081699 ], [ 113.802983152841179, 30.795283763081699 ] ] ] } },
{ "type": "Feature", "properties": { "北京时间": "2026-05-15 03:00" }, "geometry": { "type": "Polygon", "coordinates": [ [ [ 113.523983152841183, 30.577266317474372 ], [ 113.523983152841183, 30.592733065595489 ], [ 113.506016847158804, 30.592733065595489 ], [ 113.506016847158804, 30.577266317474372 ], [ 113.523983152841183, 30.577266317474372 ] ] ] } },
{ "type": "Feature", "properties": { "北京时间": "2026-05-15 03:00" }, "geometry": { "type": "Polygon", "coordinates": [ [ [ 114.150983152841178, 30.948296073750829 ], [ 114.150983152841178, 30.963703304973198 ], [ 114.133016847158785, 30.963703304973198 ], [ 114.133016847158785, 30.948296073750829 ], [ 114.150983152841178, 30.948296073750829 ] ] ] } },
{ "type": "Feature", "properties": { "北京时间": "2026-05-15 03:00" }, "geometry": { "type": "Polygon", "coordinates": [ [ [ 114.049983152841193, 30.98829930128953 ], [ 114.049983152841193, 31.003700076972137 ], [ 114.0320168471588, 31.003700076972137 ], [ 114.0320168471588, 30.98829930128953 ], [ 114.049983152841193, 30.98829930128953 ] ] ] } },
{ "type": "Feature", "properties": { "北京时间": "2026-05-15 03:00" }, "geometry": { "type": "Polygon", "coordinates": [ [ [ 114.023983152841211, 30.98829930128953 ], [ 114.023983152841211, 31.003700076972137 ], [ 114.006016847158804, 31.003700076972137 ], [ 114.006016847158804, 30.98829930128953 ], [ 114.023983152841211, 30.98829930128953 ] ] ] } },
{ "type": "Feature", "properties": { "北京时间": "2026-05-15 03:00" }, "geometry": { "type": "Polygon", "coordinates": [ [ [ 114.150983152841178, 31.02030188602323 ], [ 114.150983152841178, 31.035697491869445 ], [ 114.133016847158785, 31.035697491869445 ], [ 114.133016847158785, 31.02030188602323 ], [ 114.150983152841178, 31.02030188602323 ] ] ] } },
{ "type": "Feature", "properties": { "北京时间": "2026-05-15 03:00" }, "geometry": { "type": "Polygon", "coordinates": [ [ [ 113.764983152841211, 30.674274066157615 ], [ 113.764983152841211, 30.689725315765983 ], [ 113.747016847158804, 30.689725315765983 ], [ 113.747016847158804, 30.674274066157615 ], [ 113.764983152841211, 30.674274066157615 ] ] ] } },
{ "type": "Feature", "properties": { "北京时间": "2026-05-15 03:00" }, "geometry": { "type": "Polygon", "coordinates": [ [ [ 114.122983152841186, 31.000300270283191 ], [ 114.122983152841186, 31.015699107840035 ], [ 114.105016847158808, 31.015699107840035 ], [ 114.105016847158808, 31.000300270283191 ], [ 114.122983152841186, 31.000300270283191 ] ] ] } },
{ "type": "Feature", "properties": { "北京时间": "2026-05-15 03:00" }, "geometry": { "type": "Polygon", "coordinates": [ [ [ 114.063983152841189, 31.138311437978064 ], [ 114.063983152841189, 31.15368793856064 ], [ 114.04601684715881, 31.15368793856064 ], [ 114.04601684715881, 31.138311437978064 ], [ 114.063983152841189, 31.138311437978064 ] ] ] } },
{ "type": "Feature", "properties": { "北京时间": "2026-05-15 03:00" }, "geometry": { "type": "Polygon", "coordinates": [ [ [ 114.193983152841199, 31.066305605785121 ], [ 114.193983152841199, 31.081693771578493 ], [ 114.176016847158806, 31.081693771578493 ], [ 114.176016847158806, 31.066305605785121 ], [ 114.193983152841199, 31.066305605785121 ] ] ] } },
{ "type": "Feature", "properties": { "北京时间": "2026-05-15 03:00" }, "geometry": { "type": "Polygon", "coordinates": [ [ [ 114.152983152841202, 30.994299785744133 ], [ 114.152983152841202, 31.0096995924483 ], [ 114.135016847158809, 31.0096995924483 ], [ 114.135016847158809, 30.994299785744133 ], [ 114.152983152841202, 30.994299785744133 ] ] ] } },
{ "type": "Feature", "properties": { "北京时间": "2026-05-15 03:00" }, "geometry": { "type": "Polygon", "coordinates": [ [ [ 113.921983152841193, 30.806284646327558 ], [ 113.921983152841193, 30.821714734047561 ], [ 113.9040168471588, 30.821714734047561 ], [ 113.9040168471588, 30.806284646327558 ], [ 113.921983152841193, 30.806284646327558 ] ] ] } },
{ "type": "Feature", "properties": { "北京时间": "2026-05-15 02:00" }, "geometry": { "type": "Polygon", "coordinates": [ [ [ 114.074983152841185, 31.004300593356138 ], [ 114.074983152841185, 31.019698784720948 ], [ 114.057016847158806, 31.019698784720948 ], [ 114.057016847158806, 31.004300593356138 ], [ 114.074983152841185, 31.004300593356138 ] ] ] } },
{ "type": "Feature", "properties": { "北京时间": "2026-05-15 02:00" }, "geometry": { "type": "Polygon", "coordinates": [ [ [ 113.759983152841201, 30.727278309331762 ], [ 113.759983152841201, 30.742721071968539 ], [ 113.742016847158808, 30.742721071968539 ], [ 113.742016847158808, 30.727278309331762 ], [ 113.759983152841201, 30.727278309331762 ] ] ] } },
{ "type": "Feature", "properties": { "北京时间": "2026-05-15 02:00" }, "geometry": { "type": "Polygon", "coordinates": [ [ [ 113.611983152841191, 30.582266716349324 ], [ 113.611983152841191, 30.597732666661283 ], [ 113.594016847158784, 30.597732666661283 ], [ 113.594016847158784, 30.582266716349324 ], [ 113.611983152841191, 30.582266716349324 ] ] ] } },
{ "type": "Feature", "properties": { "北京时间": "2026-05-15 02:00" }, "geometry": { "type": "Polygon", "coordinates": [ [ [ 114.120983152841177, 31.017301643602416 ], [ 114.120983152841177, 31.032697734324824 ], [ 114.103016847158784, 31.032697734324824 ], [ 114.103016847158784, 31.017301643602416 ], [ 114.120983152841177, 31.017301643602416 ] ] ] } },
{ "type": "Feature", "properties": { "北京时间": "2026-05-15 02:00" }, "geometry": { "type": "Polygon", "coordinates": [ [ [ 113.895983152841183, 30.581266636569616 ], [ 113.895983152841183, 30.596732746452833 ], [ 113.87801684715879, 30.596732746452833 ], [ 113.87801684715879, 30.581266636569616 ], [ 113.895983152841183, 30.581266636569616 ] ] ] } },
{ "type": "Feature", "properties": { "北京时间": "2026-05-15 02:00" }, "geometry": { "type": "Polygon", "coordinates": [ [ [ 114.043983152841179, 31.022302047648839 ], [ 114.043983152841179, 31.037697330220816 ], [ 114.0260168471588, 31.037697330220816 ], [ 114.0260168471588, 31.022302047648839 ], [ 114.043983152841179, 31.022302047648839 ] ] ] } },
{ "type": "Feature", "properties": { "北京时间": "2026-05-15 02:00" }, "geometry": { "type": "Polygon", "coordinates": [ [ [ 113.920983152841188, 30.562265121202948 ], [ 113.920983152841188, 30.577734262044803 ], [ 113.90301684715881, 30.577734262044803 ], [ 113.90301684715881, 30.562265121202948 ], [ 113.920983152841188, 30.562265121202948 ] ] ] } },
{ "type": "Feature", "properties": { "北京时间": "2026-05-15 02:00" }, "geometry": { "type": "Polygon", "coordinates": [ [ [ 113.900983152841178, 30.724278068975615 ], [ 113.900983152841178, 30.73972131235989 ], [ 113.883016847158785, 30.73972131235989 ], [ 113.883016847158785, 30.724278068975615 ], [ 113.900983152841178, 30.724278068975615 ] ] ] } },
{ "type": "Feature", "properties": { "北京时间": "2026-05-15 02:00" }, "geometry": { "type": "Polygon", "coordinates": [ [ [ 114.08498315284119, 31.224318420121698 ], [ 114.08498315284119, 31.239680955436857 ], [ 114.067016847158797, 31.239680955436857 ], [ 114.067016847158797, 31.224318420121698 ], [ 114.08498315284119, 31.224318420121698 ] ] ] } },
{ "type": "Feature", "properties": { "北京时间": "2026-05-15 01:00" }, "geometry": { "type": "Polygon", "coordinates": [ [ [ 114.041983152841183, 30.987299220555318 ], [ 114.041983152841183, 31.002700157717914 ], [ 114.024016847158791, 31.002700157717914 ], [ 114.024016847158791, 30.987299220555318 ], [ 114.041983152841183, 30.987299220555318 ] ] ] } },
{ "type": "Feature", "properties": { "北京时间": "2026-05-15 01:00" }, "geometry": { "type": "Polygon", "coordinates": [ [ [ 114.098983152841186, 31.019301805213942 ], [ 114.098983152841186, 31.034697572690252 ], [ 114.081016847158793, 31.034697572690252 ], [ 114.081016847158793, 31.019301805213942 ], [ 114.098983152841186, 31.019301805213942 ] ] ] } },
{ "type": "Feature", "properties": { "北京时间": "2026-05-15 01:00" }, "geometry": { "type": "Polygon", "coordinates": [ [ [ 113.737983152841181, 30.646271827149615 ], [ 113.737983152841181, 30.661727555104139 ], [ 113.720016847158789, 30.661727555104139 ], [ 113.720016847158789, 30.646271827149615 ], [ 113.737983152841181, 30.646271827149615 ] ] ] } },
{ "type": "Feature", "properties": { "北京时间": "2026-05-15 01:00" }, "geometry": { "type": "Polygon", "coordinates": [ [ [ 114.105983152841176, 31.298324441867479 ], [ 114.105983152841176, 31.313674932852209 ], [ 114.088016847158798, 31.313674932852209 ], [ 114.088016847158798, 31.298324441867479 ], [ 114.105983152841176, 31.298324441867479 ] ] ] } },
{ "type": "Feature", "properties": { "北京时间": "2026-05-15 01:00" }, "geometry": { "type": "Polygon", "coordinates": [ [ [ 113.443983152841184, 30.477258352348912 ], [ 113.443983152841184, 30.492741031910075 ], [ 113.426016847158792, 30.492741031910075 ], [ 113.426016847158792, 30.477258352348912 ], [ 113.443983152841184, 30.477258352348912 ] ] ] } },
{ "type": "Feature", "properties": { "北京时间": "2026-05-15 01:00" }, "geometry": { "type": "Polygon", "coordinates": [ [ [ 113.856983152841181, 30.619269669854347 ], [ 113.856983152841181, 30.634729712718336 ], [ 113.839016847158788, 30.634729712718336 ], [ 113.839016847158788, 30.619269669854347 ], [ 113.856983152841181, 30.619269669854347 ] ] ] } },
{ "type": "Feature", "properties": { "北京时间": "2026-05-15 01:00" }, "geometry": { "type": "Polygon", "coordinates": [ [ [ 114.082983152841209, 31.064305443953184 ], [ 114.082983152841209, 31.079693933433393 ], [ 114.065016847158802, 31.079693933433393 ], [ 114.065016847158802, 31.064305443953184 ], [ 114.082983152841209, 31.064305443953184 ] ] ] } },
{ "type": "Feature", "properties": { "北京时间": "2026-05-15 00:00" }, "geometry": { "type": "Polygon", "coordinates": [ [ [ 114.136983152841196, 31.113309411534463 ], [ 114.136983152841196, 31.128689965290221 ], [ 114.119016847158804, 31.128689965290221 ], [ 114.119016847158804, 31.113309411534463 ], [ 114.136983152841196, 31.113309411534463 ] ] ] } },
{ "type": "Feature", "properties": { "北京时间": "2026-05-15 00:00" }, "geometry": { "type": "Polygon", "coordinates": [ [ [ 113.933983152841179, 30.919293736133383 ], [ 113.933983152841179, 30.934705642926605 ], [ 113.916016847158801, 30.934705642926605 ], [ 113.916016847158801, 30.919293736133383 ], [ 113.933983152841179, 30.919293736133383 ] ] ] } },
{ "type": "Feature", "properties": { "北京时间": "2026-05-15 00:00" }, "geometry": { "type": "Polygon", "coordinates": [ [ [ 114.355983152841176, 31.353328925785355 ], [ 114.355983152841176, 31.368670448313555 ], [ 114.338016847158798, 31.368670448313555 ], [ 114.338016847158798, 31.353328925785355 ], [ 114.355983152841176, 31.353328925785355 ] ] ] } },
{ "type": "Feature", "properties": { "北京时间": "2026-05-15 00:00" }, "geometry": { "type": "Polygon", "coordinates": [ [ [ 114.117983152841177, 31.043303745284 ], [ 114.117983152841177, 31.058695632343937 ], [ 114.100016847158784, 31.058695632343937 ], [ 114.100016847158784, 31.043303745284 ], [ 114.117983152841177, 31.043303745284 ] ] ] } },
{ "type": "Feature", "properties": { "北京时间": "2026-05-15 00:00" }, "geometry": { "type": "Polygon", "coordinates": [ [ [ 113.743983152841182, 30.56526536041482 ], [ 113.743983152841182, 30.580734022797341 ], [ 113.726016847158789, 30.580734022797341 ], [ 113.726016847158789, 30.56526536041482 ], [ 113.743983152841182, 30.56526536041482 ] ] ] } },
{ "type": "Feature", "properties": { "北京时间": "2026-05-15 00:00" }, "geometry": { "type": "Polygon", "coordinates": [ [ [ 113.822983152841175, 30.509260898624142 ], [ 113.822983152841175, 30.524738485253497 ], [ 113.805016847158782, 30.524738485253497 ], [ 113.805016847158782, 30.509260898624142 ], [ 113.822983152841175, 30.509260898624142 ] ] ] } },
{ "type": "Feature", "properties": { "北京时间": "2026-05-15 00:00" }, "geometry": { "type": "Polygon", "coordinates": [ [ [ 114.123983152841191, 31.353328925785355 ], [ 114.123983152841191, 31.368670448313555 ], [ 114.106016847158784, 31.368670448313555 ], [ 114.106016847158784, 31.353328925785355 ], [ 114.123983152841191, 31.353328925785355 ] ] ] } },
{ "type": "Feature", "properties": { "北京时间": "2026-05-14 23:00" }, "geometry": { "type": "Polygon", "coordinates": [ [ [ 114.190983152841184, 31.170314033962043 ], [ 114.190983152841184, 31.185685342211297 ], [ 114.173016847158792, 31.185685342211297 ], [ 114.173016847158792, 31.170314033962043 ], [ 114.190983152841184, 31.170314033962043 ] ] ] } },
{ "type": "Feature", "properties": { "北京时间": "2026-05-14 23:00" }, "geometry": { "type": "Polygon", "coordinates": [ [ [ 114.387983152841201, 31.467338242232099 ], [ 114.387983152841201, 31.482661130587445 ], [ 114.370016847158809, 31.482661130587445 ], [ 114.370016847158809, 31.467338242232099 ], [ 114.387983152841201, 31.467338242232099 ] ] ] } },
{ "type": "Feature", "properties": { "北京时间": "2026-05-14 23:00" }, "geometry": { "type": "Polygon", "coordinates": [ [ [ 113.764983152841211, 30.4912594660472 ], [ 113.764983152841211, 30.50673991804485 ], [ 113.747016847158804, 30.50673991804485 ], [ 113.747016847158804, 30.4912594660472 ], [ 113.764983152841211, 30.4912594660472 ] ] ] } },
{ "type": "Feature", "properties": { "北京时间": "2026-05-14 23:00" }, "geometry": { "type": "Polygon", "coordinates": [ [ [ 114.144983152841178, 31.396332436318197 ], [ 114.144983152841178, 31.411666937296975 ], [ 114.127016847158799, 31.411666937296975 ], [ 114.127016847158799, 31.396332436318197 ], [ 114.144983152841178, 31.396332436318197 ] ] ] } },
{ "type": "Feature", "properties": { "北京时间": "2026-05-14 23:00" }, "geometry": { "type": "Polygon", "coordinates": [ [ [ 114.131983152841187, 31.077306496028363 ], [ 114.131983152841187, 31.092692881208961 ], [ 114.114016847158794, 31.092692881208961 ], [ 114.114016847158794, 31.077306496028363 ], [ 114.131983152841187, 31.077306496028363 ] ] ] } },
{ "type": "Feature", "properties": { "北京时间": "2026-05-14 23:00" }, "geometry": { "type": "Polygon", "coordinates": [ [ [ 113.801983152841217, 30.838287217387133 ], [ 113.801983152841217, 30.853712162614585 ], [ 113.78401684715881, 30.853712162614585 ], [ 113.78401684715881, 30.838287217387133 ], [ 113.801983152841217, 30.838287217387133 ] ] ] } },
{ "type": "Feature", "properties": { "北京时间": "2026-05-14 22:00" }, "geometry": { "type": "Polygon", "coordinates": [ [ [ 114.148983152841183, 31.119309897747392 ], [ 114.148983152841183, 31.13468947900861 ], [ 114.13101684715879, 31.13468947900861 ], [ 114.13101684715879, 31.119309897747392 ], [ 114.148983152841183, 31.119309897747392 ] ] ] } },
{ "type": "Feature", "properties": { "北京时间": "2026-05-14 22:00" }, "geometry": { "type": "Polygon", "coordinates": [ [ [ 114.170983152841188, 31.429335133377446 ], [ 114.170983152841188, 31.444664239867432 ], [ 114.15301684715881, 31.444664239867432 ], [ 114.15301684715881, 31.429335133377446 ], [ 114.170983152841188, 31.429335133377446 ] ] ] } },
{ "type": "Feature", "properties": { "北京时间": "2026-05-14 22:00" }, "geometry": { "type": "Polygon", "coordinates": [ [ [ 113.625983152841187, 30.745279751913156 ], [ 113.625983152841187, 30.760719629175917 ], [ 113.608016847158794, 30.760719629175917 ], [ 113.608016847158794, 30.745279751913156 ], [ 113.625983152841187, 30.745279751913156 ] ] ] } },
{ "type": "Feature", "properties": { "北京时间": "2026-05-14 22:00" }, "geometry": { "type": "Polygon", "coordinates": [ [ [ 114.399983152841187, 31.594348656800296 ], [ 114.399983152841187, 31.609650714605685 ], [ 114.382016847158795, 31.609650714605685 ], [ 114.382016847158795, 31.594348656800296 ], [ 114.399983152841187, 31.594348656800296 ] ] ] } },
{ "type": "Feature", "properties": { "北京时间": "2026-05-14 22:00" }, "geometry": { "type": "Polygon", "coordinates": [ [ [ 113.784983152841178, 30.420253822779056 ], [ 113.784983152841178, 30.435745562161092 ], [ 113.7670168471588, 30.435745562161092 ], [ 113.7670168471588, 30.420253822779056 ], [ 113.784983152841178, 30.420253822779056 ] ] ] } },
{ "type": "Feature", "properties": { "北京时间": "2026-05-14 22:00" }, "geometry": { "type": "Polygon", "coordinates": [ [ [ 114.428983152841198, 31.328326886764238 ], [ 114.428983152841198, 31.343672487616562 ], [ 114.411016847158805, 31.343672487616562 ], [ 114.411016847158805, 31.328326886764238 ], [ 114.428983152841198, 31.328326886764238 ] ] ] } },
{ "type": "Feature", "properties": { "北京时间": "2026-05-14 21:00" }, "geometry": { "type": "Polygon", "coordinates": [ [ [ 113.458983152841185, 30.646271827149615 ], [ 113.458983152841185, 30.661727555104139 ], [ 113.441016847158807, 30.661727555104139 ], [ 113.441016847158807, 30.646271827149615 ], [ 113.458983152841185, 30.646271827149615 ] ] ] } },
{ "type": "Feature", "properties": { "北京时间": "2026-05-14 21:00" }, "geometry": { "type": "Polygon", "coordinates": [ [ [ 114.382983152841192, 31.71935894407336 ], [ 114.382983152841192, 31.734640425953387 ], [ 114.365016847158785, 31.734640425953387 ], [ 114.365016847158785, 31.71935894407336 ], [ 114.382983152841192, 31.71935894407336 ] ] ] } },
{ "type": "Feature", "properties": { "北京时间": "2026-05-14 21:00" }, "geometry": { "type": "Polygon", "coordinates": [ [ [ 114.202983152841185, 31.447336605572563 ], [ 114.202983152841185, 31.462662767470693 ], [ 114.185016847158792, 31.462662767470693 ], [ 114.185016847158792, 31.447336605572563 ], [ 114.202983152841185, 31.447336605572563 ] ] ] } },
{ "type": "Feature", "properties": { "北京时间": "2026-05-14 21:00" }, "geometry": { "type": "Polygon", "coordinates": [ [ [ 114.471983152841176, 31.421334479311358 ], [ 114.471983152841176, 31.43666489402322 ], [ 114.454016847158783, 31.43666489402322 ], [ 114.454016847158783, 31.421334479311358 ], [ 114.471983152841176, 31.421334479311358 ] ] ] } },
{ "type": "Feature", "properties": { "北京时间": "2026-05-14 21:00" }, "geometry": { "type": "Polygon", "coordinates": [ [ [ 114.174983152841193, 31.167313790486677 ], [ 114.174983152841193, 31.182685585720886 ], [ 114.1570168471588, 31.182685585720886 ], [ 114.1570168471588, 31.167313790486677 ], [ 114.174983152841193, 31.167313790486677 ] ] ] } },
{ "type": "Feature", "properties": { "北京时间": "2026-05-14 20:00" }, "geometry": { "type": "Polygon", "coordinates": [ [ [ 114.331983152841175, 31.372330476418306 ], [ 114.331983152841175, 31.387668897466693 ], [ 114.314016847158783, 31.387668897466693 ], [ 114.314016847158783, 31.372330476418306 ], [ 114.331983152841175, 31.372330476418306 ] ] ] } },
{ "type": "Feature", "properties": { "北京时间": "2026-05-14 20:00" }, "geometry": { "type": "Polygon", "coordinates": [ [ [ 114.238983152841186, 31.446336523764106 ], [ 114.238983152841186, 31.461662849290363 ], [ 114.221016847158793, 31.461662849290363 ], [ 114.221016847158793, 31.446336523764106 ], [ 114.238983152841186, 31.446336523764106 ] ] ] } },
{ "type": "Feature", "properties": { "北京时间": "2026-05-14 20:00" }, "geometry": { "type": "Polygon", "coordinates": [ [ [ 114.20198315284118, 31.220318094986919 ], [ 114.20198315284118, 31.235681280617108 ], [ 114.184016847158787, 31.235681280617108 ], [ 114.184016847158787, 31.220318094986919 ], [ 114.20198315284118, 31.220318094986919 ] ] ] } },
{ "type": "Feature", "properties": { "北京时间": "2026-05-14 20:00" }, "geometry": { "type": "Polygon", "coordinates": [ [ [ 114.505983152841182, 31.535343813857192 ], [ 114.505983152841182, 31.550655558203939 ], [ 114.488016847158789, 31.550655558203939 ], [ 114.488016847158789, 31.535343813857192 ], [ 114.505983152841182, 31.535343813857192 ] ] ] } },
{ "type": "Feature", "properties": { "北京时间": "2026-05-14 19:00" }, "geometry": { "type": "Polygon", "coordinates": [ [ [ 114.389983152841211, 31.468338324089594 ], [ 114.389983152841211, 31.48366104871878 ], [ 114.372016847158804, 31.48366104871878 ], [ 114.372016847158804, 31.468338324089594 ], [ 114.389983152841211, 31.468338324089594 ] ] ] } },
{ "type": "Feature", "properties": { "北京时间": "2026-05-14 19:00" }, "geometry": { "type": "Polygon", "coordinates": [ [ [ 114.275983152841178, 31.426334888085151 ], [ 114.275983152841178, 31.44166448519336 ], [ 114.258016847158785, 31.44166448519336 ], [ 114.258016847158785, 31.426334888085151 ], [ 114.275983152841178, 31.426334888085151 ] ] ] } },
{ "type": "Feature", "properties": { "北京时间": "2026-05-14 19:00" }, "geometry": { "type": "Polygon", "coordinates": [ [ [ 114.500983152841201, 31.68935647180874 ], [ 114.500983152841201, 31.704642898547927 ], [ 114.483016847158794, 31.704642898547927 ], [ 114.483016847158794, 31.68935647180874 ], [ 114.500983152841201, 31.68935647180874 ] ] ] } },
{ "type": "Feature", "properties": { "北京时间": "2026-05-14 18:00" }, "geometry": { "type": "Polygon", "coordinates": [ [ [ 114.313983152841217, 31.387331701198043 ], [ 114.313983152841217, 31.402667672518259 ], [ 114.29601684715881, 31.402667672518259 ], [ 114.29601684715881, 31.387331701198043 ], [ 114.313983152841217, 31.387331701198043 ] ] ] } },
{ "type": "Feature", "properties": { "北京时间": "2026-05-14 18:00" }, "geometry": { "type": "Polygon", "coordinates": [ [ [ 114.266983152841178, 31.357329252164288 ], [ 114.266983152841178, 31.372670121889559 ], [ 114.249016847158785, 31.372670121889559 ], [ 114.249016847158785, 31.357329252164288 ], [ 114.266983152841178, 31.357329252164288 ] ] ] } },
{ "type": "Feature", "properties": { "北京时间": "2026-05-14 18:00" }, "geometry": { "type": "Polygon", "coordinates": [ [ [ 114.438983152841189, 31.577347260543611 ], [ 114.438983152841189, 31.592652111050871 ], [ 114.421016847158796, 31.592652111050871 ], [ 114.421016847158796, 31.577347260543611 ], [ 114.438983152841189, 31.577347260543611 ] ] ] } },
{ "type": "Feature", "properties": { "北京时间": "2026-05-14 17:00" }, "geometry": { "type": "Polygon", "coordinates": [ [ [ 114.45398315284119, 31.710358202173946 ], [ 114.45398315284119, 31.725641167951686 ], [ 114.436016847158797, 31.725641167951686 ], [ 114.436016847158797, 31.710358202173946 ], [ 114.45398315284119, 31.710358202173946 ] ] ] } },
{ "type": "Feature", "properties": { "北京时间": "2026-05-14 17:00" }, "geometry": { "type": "Polygon", "coordinates": [ [ [ 114.34998315284119, 31.326326723705659 ], [ 114.34998315284119, 31.341672650697717 ], [ 114.332016847158798, 31.341672650697717 ], [ 114.332016847158798, 31.326326723705659 ], [ 114.34998315284119, 31.326326723705659 ] ] ] } },
{ "type": "Feature", "properties": { "北京时间": "2026-05-14 17:00" }, "geometry": { "type": "Polygon", "coordinates": [ [ [ 114.310983152841203, 31.439335951170229 ], [ 114.310983152841203, 31.454663421962611 ], [ 114.29301684715881, 31.454663421962611 ], [ 114.29301684715881, 31.439335951170229 ], [ 114.310983152841203, 31.439335951170229 ] ] ] } },
{ "type": "Feature", "properties": { "北京时间": "2026-05-14 16:00" }, "geometry": { "type": "Polygon", "coordinates": [ [ [ 114.357983152841186, 31.530343403811415 ], [ 114.357983152841186, 31.545655968305368 ], [ 114.340016847158793, 31.545655968305368 ], [ 114.340016847158793, 31.530343403811415 ], [ 114.357983152841186, 31.530343403811415 ] ] ] } },
{ "type": "Feature", "properties": { "北京时间": "2026-05-14 15:00" }, "geometry": { "type": "Polygon", "coordinates": [ [ [ 114.399983152841187, 31.631351698040422 ], [ 114.399983152841187, 31.646647672956053 ], [ 114.382016847158795, 31.646647672956053 ], [ 114.382016847158795, 31.631351698040422 ], [ 114.399983152841187, 31.631351698040422 ] ] ] } },
{ "type": "Feature", "properties": { "北京时间": "2026-05-13 20:00" }, "geometry": { "type": "Polygon", "coordinates": [ [ [ 114.218983152841176, 31.812366621405005 ], [ 114.218983152841176, 31.82763274760336 ], [ 114.201016847158783, 31.82763274760336 ], [ 114.201016847158783, 31.812366621405005 ], [ 114.218983152841176, 31.812366621405005 ] ] ] } },
{ "type": "Feature", "properties": { "北京时间": "2026-05-13 19:00" }, "geometry": { "type": "Polygon", "coordinates": [ [ [ 114.129983152841177, 31.74136075839899 ], [ 114.129983152841177, 31.756638611386229 ], [ 114.112016847158785, 31.756638611386229 ], [ 114.112016847158785, 31.74136075839899 ], [ 114.129983152841177, 31.74136075839899 ] ] ] } },
{ "type": "Feature", "properties": { "北京时间": "2026-05-13 15:00" }, "geometry": { "type": "Polygon", "coordinates": [ [ [ 113.499983152841196, 31.338327702197383 ], [ 113.499983152841196, 31.353671672070615 ], [ 113.482016847158803, 31.353671672070615 ], [ 113.482016847158803, 31.338327702197383 ], [ 113.499983152841196, 31.338327702197383 ] ] ] } }
]
}
