{
"type": "FeatureCollection",
"name": "东城",
"crs": { "type": "name", "properties": { "name": "urn:ogc:def:crs:OGC:1.3:CRS84" } },
"features": [
{ "type": "Feature", "properties": { "北京时间": "2026-05-16 06:00" }, "geometry": { "type": "Polygon", "coordinates": [ [ [ 113.950983152841175, 30.899292125133776 ], [ 113.950983152841175, 30.914707254158273 ], [ 113.933016847158797, 30.914707254158273 ], [ 113.933016847158797, 30.899292125133776 ], [ 113.950983152841175, 30.899292125133776 ] ] ] } },
{ "type": "Feature", "properties": { "北京时间": "2026-05-16 05:00" }, "geometry": { "type": "Polygon", "coordinates": [ [ [ 114.062983152841198, 30.943295670572503 ], [ 114.062983152841198, 30.958703708209409 ], [ 114.045016847158806, 30.958703708209409 ], [ 114.045016847158806, 30.943295670572503 ], [ 114.062983152841198, 30.943295670572503 ] ] ] } },
{ "type": "Feature", "properties": { "北京时间": "2026-05-16 05:00" }, "geometry": { "type": "Polygon", "coordinates": [ [ [ 113.989983152841177, 30.805284566020731 ], [ 113.989983152841177, 30.820714814366074 ], [ 113.972016847158798, 30.820714814366074 ], [ 113.972016847158798, 30.805284566020731 ], [ 113.989983152841177, 30.805284566020731 ] ] ] } },
{ "type": "Feature", "properties": { "北京时间": "2026-05-16 05:00" }, "geometry": { "type": "Polygon", "coordinates": [ [ [ 114.177983152841193, 30.827286333313971 ], [ 114.177983152841193, 30.842713046816026 ], [ 114.160016847158801, 30.842713046816026 ], [ 114.160016847158801, 30.827286333313971 ], [ 114.177983152841193, 30.827286333313971 ] ] ] } },
{ "type": "Feature", "properties": { "北京时间": "2026-05-16 05:00" }, "geometry": { "type": "Polygon", "coordinates": [ [ [ 114.032983152841197, 30.914293333295433 ], [ 114.032983152841197, 30.929706045822542 ], [ 114.015016847158805, 30.929706045822542 ], [ 114.015016847158805, 30.914293333295433 ], [ 114.032983152841197, 30.914293333295433 ] ] ] } },
{ "type": "Feature", "properties": { "北京时间": "2026-05-16 05:00" }, "geometry": { "type": "Polygon", "coordinates": [ [ [ 114.014983152841197, 30.922293977864317 ], [ 114.014983152841197, 30.937705401160873 ], [ 113.99701684715879, 30.937705401160873 ], [ 113.99701684715879, 30.922293977864317 ], [ 114.014983152841197, 30.922293977864317 ] ] ] } },
{ "type": "Feature", "properties": { "北京时间": "2026-05-16 05:00" }, "geometry": { "type": "Polygon", "coordinates": [ [ [ 113.956983152841175, 30.893291642017058 ], [ 113.956983152841175, 30.908707737344685 ], [ 113.939016847158783, 30.908707737344685 ], [ 113.939016847158783, 30.893291642017058 ], [ 113.956983152841175, 30.893291642017058 ] ] ] } },
{ "type": "Feature", "properties": { "北京时间": "2026-05-16 05:00" }, "geometry": { "type": "Polygon", "coordinates": [ [ [ 114.124983152841196, 30.781282639361979 ], [ 114.124983152841196, 30.796716741305413 ], [ 114.107016847158803, 30.796716741305413 ], [ 114.107016847158803, 30.781282639361979 ], [ 114.124983152841196, 30.781282639361979 ] ] ] } },
{ "type": "Feature", "properties": { "北京时间": "2026-05-16 05:00" }, "geometry": { "type": "Polygon", "coordinates": [ [ [ 114.088983152841195, 30.877290354119115 ], [ 114.088983152841195, 30.892709025428566 ], [ 114.071016847158802, 30.892709025428566 ], [ 114.071016847158802, 30.877290354119115 ], [ 114.088983152841195, 30.877290354119115 ] ] ] } },
{ "type": "Feature", "properties": { "北京时间": "2026-05-16 05:00" }, "geometry": { "type": "Polygon", "coordinates": [ [ [ 114.069983152841203, 30.939295348072086 ], [ 114.069983152841203, 30.954704030756137 ], [ 114.052016847158811, 30.954704030756137 ], [ 114.052016847158811, 30.939295348072086 ], [ 114.069983152841203, 30.939295348072086 ] ] ] } },
{ "type": "Feature", "properties": { "北京时间": "2026-05-16 05:00" }, "geometry": { "type": "Polygon", "coordinates": [ [ [ 114.057983152841203, 30.893291642017058 ], [ 114.057983152841203, 30.908707737344685 ], [ 114.04001684715881, 30.908707737344685 ], [ 114.04001684715881, 30.893291642017058 ], [ 114.057983152841203, 30.893291642017058 ] ] ] } },
{ "type": "Feature", "properties": { "北京时间": "2026-05-16 05:00" }, "geometry": { "type": "Polygon", "coordinates": [ [ [ 114.114983152841177, 30.88829123948436 ], [ 114.114983152841177, 30.903708139935461 ], [ 114.097016847158784, 30.903708139935461 ], [ 114.097016847158784, 30.88829123948436 ], [ 114.114983152841177, 30.88829123948436 ] ] ] } },
{ "type": "Feature", "properties": { "北京时间": "2026-05-16 05:00" }, "geometry": { "type": "Polygon", "coordinates": [ [ [ 113.916983152841198, 30.845287780127176 ], [ 113.916983152841198, 30.86071159979296 ], [ 113.899016847158805, 30.86071159979296 ], [ 113.899016847158805, 30.845287780127176 ], [ 113.916983152841198, 30.845287780127176 ] ] ] } },
{ "type": "Feature", "properties": { "北京时间": "2026-05-16 05:00" }, "geometry": { "type": "Polygon", "coordinates": [ [ [ 113.760983152841177, 30.813285208541203 ], [ 113.760983152841177, 30.828714171752175 ], [ 113.743016847158785, 30.828714171752175 ], [ 113.743016847158785, 30.813285208541203 ], [ 113.760983152841177, 30.813285208541203 ] ] ] } },
{ "type": "Feature", "properties": { "北京时间": "2026-05-16 05:00" }, "geometry": { "type": "Polygon", "coordinates": [ [ [ 114.008983152841196, 30.895291803046565 ], [ 114.008983152841196, 30.910707576291937 ], [ 113.991016847158804, 30.910707576291937 ], [ 113.991016847158804, 30.895291803046565 ], [ 114.008983152841196, 30.895291803046565 ] ] ] } },
{ "type": "Feature", "properties": { "北京时间": "2026-05-16 05:00" }, "geometry": { "type": "Polygon", "coordinates": [ [ [ 114.109983152841181, 30.889291319986199 ], [ 114.109983152841181, 30.904708059421992 ], [ 114.092016847158789, 30.904708059421992 ], [ 114.092016847158789, 30.889291319986199 ], [ 114.109983152841181, 30.889291319986199 ] ] ] } },
{ "type": "Feature", "properties": { "北京时间": "2026-05-16 05:00" }, "geometry": { "type": "Polygon", "coordinates": [ [ [ 114.061983152841179, 31.001300351047917 ], [ 114.061983152841179, 31.016699027063776 ], [ 114.044016847158787, 31.016699027063776 ], [ 114.044016847158787, 31.001300351047917 ], [ 114.061983152841179, 31.001300351047917 ] ] ] } },
{ "type": "Feature", "properties": { "北京时间": "2026-05-16 05:00" }, "geometry": { "type": "Polygon", "coordinates": [ [ [ 114.029983152841183, 30.929294541985371 ], [ 114.029983152841183, 30.944704836958724 ], [ 114.012016847158804, 30.944704836958724 ], [ 114.012016847158804, 30.929294541985371 ], [ 114.029983152841183, 30.929294541985371 ] ] ] } },
{ "type": "Feature", "properties": { "北京时间": "2026-05-16 05:00" }, "geometry": { "type": "Polygon", "coordinates": [ [ [ 114.017983152841197, 30.919293736133383 ], [ 114.017983152841197, 30.934705642926605 ], [ 114.000016847158804, 30.934705642926605 ], [ 114.000016847158804, 30.919293736133383 ], [ 114.017983152841197, 30.919293736133383 ] ] ] } },
{ "type": "Feature", "properties": { "北京时间": "2026-05-16 05:00" }, "geometry": { "type": "Polygon", "coordinates": [ [ [ 114.064983152841194, 30.942295589943882 ], [ 114.064983152841194, 30.957703788849624 ], [ 114.047016847158787, 30.957703788849624 ], [ 114.047016847158787, 30.942295589943882 ], [ 114.064983152841194, 30.942295589943882 ] ] ] } },
{ "type": "Feature", "properties": { "北京时间": "2026-05-16 05:00" }, "geometry": { "type": "Polygon", "coordinates": [ [ [ 114.059983152841198, 30.849288101744612 ], [ 114.059983152841198, 30.864711278128933 ], [ 114.042016847158806, 30.864711278128933 ], [ 114.042016847158806, 30.849288101744612 ], [ 114.059983152841198, 30.849288101744612 ] ] ] } },
{ "type": "Feature", "properties": { "北京时间": "2026-05-16 04:00" }, "geometry": { "type": "Polygon", "coordinates": [ [ [ 113.940983152841198, 30.862289147260878 ], [ 113.940983152841198, 30.877710232461293 ], [ 113.923016847158792, 30.877710232461293 ], [ 113.923016847158792, 30.862289147260878 ], [ 113.940983152841198, 30.862289147260878 ] ] ] } },
{ "type": "Feature", "properties": { "北京时间": "2026-05-16 04:00" }, "geometry": { "type": "Polygon", "coordinates": [ [ [ 114.194983152841189, 31.098308196371182 ], [ 114.194983152841189, 31.113691180625324 ], [ 114.177016847158797, 31.113691180625324 ], [ 114.177016847158797, 31.098308196371182 ], [ 114.194983152841189, 31.098308196371182 ] ] ] } },
{ "type": "Feature", "properties": { "北京时间": "2026-05-16 04:00" }, "geometry": { "type": "Polygon", "coordinates": [ [ [ 114.129983152841177, 30.934294944999376 ], [ 114.129983152841177, 30.949704433886755 ], [ 114.112016847158785, 30.949704433886755 ], [ 114.112016847158785, 30.934294944999376 ], [ 114.129983152841177, 30.934294944999376 ] ] ] } },
{ "type": "Feature", "properties": { "北京时间": "2026-05-16 04:00" }, "geometry": { "type": "Polygon", "coordinates": [ [ [ 114.160983152841197, 30.794283682800717 ], [ 114.160983152841197, 30.80971569771464 ], [ 114.14301684715879, 30.80971569771464 ], [ 114.14301684715879, 30.794283682800717 ], [ 114.160983152841197, 30.794283682800717 ] ] ] } },
{ "type": "Feature", "properties": { "北京时间": "2026-05-16 04:00" }, "geometry": { "type": "Polygon", "coordinates": [ [ [ 113.860983152841214, 30.763281195256621 ], [ 113.860983152841214, 30.778718185621504 ], [ 113.843016847158822, 30.778718185621504 ], [ 113.843016847158822, 30.763281195256621 ], [ 113.860983152841214, 30.763281195256621 ] ] ] } },
{ "type": "Feature", "properties": { "北京时间": "2026-05-16 04:00" }, "geometry": { "type": "Polygon", "coordinates": [ [ [ 114.159983152841178, 30.979298574766005 ], [ 114.159983152841178, 30.99470080359961 ], [ 114.142016847158786, 30.99470080359961 ], [ 114.142016847158786, 30.979298574766005 ], [ 114.159983152841178, 30.979298574766005 ] ] ] } },
{ "type": "Feature", "properties": { "北京时间": "2026-05-16 04:00" }, "geometry": { "type": "Polygon", "coordinates": [ [ [ 114.135983152841192, 31.012301239614636 ], [ 114.135983152841192, 31.027698138370241 ], [ 114.118016847158799, 31.027698138370241 ], [ 114.118016847158799, 31.012301239614636 ], [ 114.135983152841192, 31.012301239614636 ] ] ] } },
{ "type": "Feature", "properties": { "北京时间": "2026-05-16 04:00" }, "geometry": { "type": "Polygon", "coordinates": [ [ [ 114.081983152841175, 30.941295509317605 ], [ 114.081983152841175, 30.956703869487473 ], [ 114.064016847158783, 30.956703869487473 ], [ 114.064016847158783, 30.941295509317605 ], [ 114.081983152841175, 30.941295509317605 ] ] ] } },
{ "type": "Feature", "properties": { "北京时间": "2026-05-16 04:00" }, "geometry": { "type": "Polygon", "coordinates": [ [ [ 114.174983152841193, 30.976298332633725 ], [ 114.174983152841193, 30.99170104576655 ], [ 114.1570168471588, 30.99170104576655 ], [ 114.1570168471588, 30.976298332633725 ], [ 114.174983152841193, 30.976298332633725 ] ] ] } },
{ "type": "Feature", "properties": { "北京时间": "2026-05-16 04:00" }, "geometry": { "type": "Polygon", "coordinates": [ [ [ 114.186983152841194, 30.981298736199257 ], [ 114.186983152841194, 30.996700642143264 ], [ 114.169016847158801, 30.996700642143264 ], [ 114.169016847158801, 30.981298736199257 ], [ 114.186983152841194, 30.981298736199257 ] ] ] } },
{ "type": "Feature", "properties": { "北京时间": "2026-05-16 04:00" }, "geometry": { "type": "Polygon", "coordinates": [ [ [ 114.114983152841177, 30.926294300205114 ], [ 114.114983152841177, 30.941705078773722 ], [ 114.097016847158784, 30.941705078773722 ], [ 114.097016847158784, 30.926294300205114 ], [ 114.114983152841177, 30.926294300205114 ] ] ] } },
{ "type": "Feature", "properties": { "北京时间": "2026-05-16 04:00" }, "geometry": { "type": "Polygon", "coordinates": [ [ [ 114.073983152841194, 30.925294219616401 ], [ 114.073983152841194, 30.94070515937403 ], [ 114.056016847158787, 30.94070515937403 ], [ 114.056016847158787, 30.925294219616401 ], [ 114.073983152841194, 30.925294219616401 ] ] ] } },
{ "type": "Feature", "properties": { "北京时间": "2026-05-16 04:00" }, "geometry": { "type": "Polygon", "coordinates": [ [ [ 113.629983152841177, 30.706276627283465 ], [ 113.629983152841177, 30.721722754263556 ], [ 113.612016847158799, 30.721722754263556 ], [ 113.612016847158799, 30.706276627283465 ], [ 113.629983152841177, 30.706276627283465 ] ] ] } },
{ "type": "Feature", "properties": { "北京时间": "2026-05-16 04:00" }, "geometry": { "type": "Polygon", "coordinates": [ [ [ 114.076983152841194, 30.88829123948436 ], [ 114.076983152841194, 30.903708139935461 ], [ 114.059016847158802, 30.903708139935461 ], [ 114.059016847158802, 30.88829123948436 ], [ 114.076983152841194, 30.88829123948436 ] ] ] } },
{ "type": "Feature", "properties": { "北京时间": "2026-05-16 03:00" }, "geometry": { "type": "Polygon", "coordinates": [ [ [ 113.764983152841211, 30.674274066157615 ], [ 113.764983152841211, 30.689725315765983 ], [ 113.747016847158804, 30.689725315765983 ], [ 113.747016847158804, 30.674274066157615 ], [ 113.764983152841211, 30.674274066157615 ] ] ] } },
{ "type": "Feature", "properties": { "北京时间": "2026-05-16 03:00" }, "geometry": { "type": "Polygon", "coordinates": [ [ [ 114.152983152841202, 30.994299785744133 ], [ 114.152983152841202, 31.0096995924483 ], [ 114.135016847158809, 31.0096995924483 ], [ 114.135016847158809, 30.994299785744133 ], [ 114.152983152841202, 30.994299785744133 ] ] ] } },
{ "type": "Feature", "properties": { "北京时间": "2026-05-16 03:00" }, "geometry": { "type": "Polygon", "coordinates": [ [ [ 114.123983152841191, 30.920293816708021 ], [ 114.123983152841191, 30.935705562340374 ], [ 114.106016847158784, 30.935705562340374 ], [ 114.106016847158784, 30.920293816708021 ], [ 114.123983152841191, 30.920293816708021 ] ] ] } },
{ "type": "Feature", "properties": { "北京时间": "2026-05-16 03:00" }, "geometry": { "type": "Polygon", "coordinates": [ [ [ 113.523983152841183, 30.577266317474372 ], [ 113.523983152841183, 30.592733065595489 ], [ 113.506016847158804, 30.592733065595489 ], [ 113.506016847158804, 30.577266317474372 ], [ 113.523983152841183, 30.577266317474372 ] ] ] } },
{ "type": "Feature", "properties": { "北京时间": "2026-05-16 03:00" }, "geometry": { "type": "Polygon", "coordinates": [ [ [ 114.151983152841183, 30.884290917500479 ], [ 114.151983152841183, 30.899708461965826 ], [ 114.13401684715879, 30.899708461965826 ], [ 114.13401684715879, 30.884290917500479 ], [ 114.151983152841183, 30.884290917500479 ] ] ] } },
{ "type": "Feature", "properties": { "北京时间": "2026-05-16 03:00" }, "geometry": { "type": "Polygon", "coordinates": [ [ [ 114.150983152841178, 30.948296073750829 ], [ 114.150983152841178, 30.963703304973198 ], [ 114.133016847158785, 30.963703304973198 ], [ 114.133016847158785, 30.948296073750829 ], [ 114.150983152841178, 30.948296073750829 ] ] ] } },
{ "type": "Feature", "properties": { "北京时间": "2026-05-16 03:00" }, "geometry": { "type": "Polygon", "coordinates": [ [ [ 113.923983152841203, 30.806284646327558 ], [ 113.923983152841203, 30.821714734047561 ], [ 113.90601684715881, 30.821714734047561 ], [ 113.90601684715881, 30.806284646327558 ], [ 113.923983152841203, 30.806284646327558 ] ] ] } },
{ "type": "Feature", "properties": { "北京时间": "2026-05-16 02:00" }, "geometry": { "type": "Polygon", "coordinates": [ [ [ 113.904983152841183, 30.724278068975615 ], [ 113.904983152841183, 30.73972131235989 ], [ 113.88701684715879, 30.73972131235989 ], [ 113.88701684715879, 30.724278068975615 ], [ 113.904983152841183, 30.724278068975615 ] ] ] } },
{ "type": "Feature", "properties": { "北京时间": "2026-05-16 02:00" }, "geometry": { "type": "Polygon", "coordinates": [ [ [ 114.120983152841177, 31.017301643602416 ], [ 114.120983152841177, 31.032697734324824 ], [ 114.103016847158784, 31.032697734324824 ], [ 114.103016847158784, 31.017301643602416 ], [ 114.120983152841177, 31.017301643602416 ] ] ] } },
{ "type": "Feature", "properties": { "北京时间": "2026-05-16 02:00" }, "geometry": { "type": "Polygon", "coordinates": [ [ [ 113.611983152841191, 30.582266716349324 ], [ 113.611983152841191, 30.597732666661283 ], [ 113.594016847158784, 30.597732666661283 ], [ 113.594016847158784, 30.582266716349324 ], [ 113.611983152841191, 30.582266716349324 ] ] ] } },
{ "type": "Feature", "properties": { "北京时间": "2026-05-16 01:00" }, "geometry": { "type": "Polygon", "coordinates": [ [ [ 113.443983152841184, 30.477258352348912 ], [ 113.443983152841184, 30.492741031910075 ], [ 113.426016847158792, 30.492741031910075 ], [ 113.426016847158792, 30.477258352348912 ], [ 113.443983152841184, 30.477258352348912 ] ] ] } },
{ "type": "Feature", "properties": { "北京时间": "2026-05-16 01:00" }, "geometry": { "type": "Polygon", "coordinates": [ [ [ 113.860983152841214, 30.618269589987491 ], [ 113.860983152841214, 30.633729792597023 ], [ 113.843016847158822, 30.633729792597023 ], [ 113.843016847158822, 30.618269589987491 ], [ 113.860983152841214, 30.618269589987491 ] ] ] } },
{ "type": "Feature", "properties": { "北京时间": "2026-05-16 01:00" }, "geometry": { "type": "Polygon", "coordinates": [ [ [ 114.041983152841183, 30.987299220555318 ], [ 114.041983152841183, 31.002700157717914 ], [ 114.024016847158791, 31.002700157717914 ], [ 114.024016847158791, 30.987299220555318 ], [ 114.041983152841183, 30.987299220555318 ] ] ] } },
{ "type": "Feature", "properties": { "北京时间": "2026-05-16 00:00" }, "geometry": { "type": "Polygon", "coordinates": [ [ [ 113.933983152841179, 30.919293736133383 ], [ 113.933983152841179, 30.934705642926605 ], [ 113.916016847158801, 30.934705642926605 ], [ 113.916016847158801, 30.919293736133383 ], [ 113.933983152841179, 30.919293736133383 ] ] ] } },
{ "type": "Feature", "properties": { "北京时间": "2026-05-16 00:00" }, "geometry": { "type": "Polygon", "coordinates": [ [ [ 113.827983152841199, 30.509260898624142 ], [ 113.827983152841199, 30.524738485253497 ], [ 113.810016847158806, 30.524738485253497 ], [ 113.810016847158806, 30.509260898624142 ], [ 113.827983152841199, 30.509260898624142 ] ] ] } },
{ "type": "Feature", "properties": { "北京时间": "2026-05-15 23:00" }, "geometry": { "type": "Polygon", "coordinates": [ [ [ 113.801983152841217, 30.838287217387133 ], [ 113.801983152841217, 30.853712162614585 ], [ 113.78401684715881, 30.853712162614585 ], [ 113.78401684715881, 30.838287217387133 ], [ 113.801983152841217, 30.838287217387133 ] ] ] } },
{ "type": "Feature", "properties": { "北京时间": "2026-05-15 22:00" }, "geometry": { "type": "Polygon", "coordinates": [ [ [ 113.625983152841187, 30.745279751913156 ], [ 113.625983152841187, 30.760719629175917 ], [ 113.608016847158794, 30.760719629175917 ], [ 113.608016847158794, 30.745279751913156 ], [ 113.625983152841187, 30.745279751913156 ] ] ] } },
{ "type": "Feature", "properties": { "北京时间": "2026-05-15 21:00" }, "geometry": { "type": "Polygon", "coordinates": [ [ [ 113.458983152841185, 30.646271827149615 ], [ 113.458983152841185, 30.661727555104139 ], [ 113.441016847158807, 30.661727555104139 ], [ 113.441016847158807, 30.646271827149615 ], [ 113.458983152841185, 30.646271827149615 ] ] ] } },
{ "type": "Feature", "properties": { "北京时间": "2026-05-15 10:00" }, "geometry": { "type": "Polygon", "coordinates": [ [ [ 114.392983152841182, 31.712358367024184 ], [ 114.392983152841182, 31.727641003079466 ], [ 114.375016847158804, 31.727641003079466 ], [ 114.375016847158804, 31.712358367024184 ], [ 114.392983152841182, 31.712358367024184 ] ] ] } },
{ "type": "Feature", "properties": { "北京时间": "2026-05-15 09:00" }, "geometry": { "type": "Polygon", "coordinates": [ [ [ 114.382983152841192, 31.599349067592239 ], [ 114.382983152841192, 31.614650303758335 ], [ 114.365016847158785, 31.614650303758335 ], [ 114.365016847158785, 31.599349067592239 ], [ 114.382983152841192, 31.599349067592239 ] ] ] } },
{ "type": "Feature", "properties": { "北京时间": "2026-05-15 08:00" }, "geometry": { "type": "Polygon", "coordinates": [ [ [ 114.395983152841183, 31.47533889715735 ], [ 114.395983152841183, 31.490660475572785 ], [ 114.378016847158804, 31.490660475572785 ], [ 114.378016847158804, 31.47533889715735 ], [ 114.395983152841183, 31.47533889715735 ] ] ] } },
{ "type": "Feature", "properties": { "北京时间": "2026-05-15 07:00" }, "geometry": { "type": "Polygon", "coordinates": [ [ [ 114.428983152841198, 31.331327131369633 ], [ 114.428983152841198, 31.346672242977309 ], [ 114.411016847158805, 31.346672242977309 ], [ 114.411016847158805, 31.331327131369633 ], [ 114.428983152841198, 31.331327131369633 ] ] ] } }
]
}
