{
"type": "FeatureCollection",
"name": "天仙南路",
"crs": { "type": "name", "properties": { "name": "urn:ogc:def:crs:OGC:1.3:CRS84" } },
"features": [
{ "type": "Feature", "properties": { "北京时间": "2026-04-29 23:00" }, "geometry": { "type": "Polygon", "coordinates": [ [ [ 113.95498315284118, 30.892291561505822 ], [ 113.95498315284118, 30.907707817867532 ], [ 113.937016847158787, 30.907707817867532 ], [ 113.937016847158787, 30.892291561505822 ], [ 113.95498315284118, 30.892291561505822 ] ] ] } },
{ "type": "Feature", "properties": { "北京时间": "2026-04-29 22:00" }, "geometry": { "type": "Polygon", "coordinates": [ [ [ 114.126983152841191, 31.151312492307323 ], [ 114.126983152841191, 31.166686884082857 ], [ 114.109016847158799, 31.166686884082857 ], [ 114.109016847158799, 31.151312492307323 ], [ 114.126983152841191, 31.151312492307323 ] ] ] } },
{ "type": "Feature", "properties": { "北京时间": "2026-04-29 22:00" }, "geometry": { "type": "Polygon", "coordinates": [ [ [ 114.088983152841195, 31.060305120317437 ], [ 114.088983152841195, 31.075694257115089 ], [ 114.071016847158802, 31.075694257115089 ], [ 114.071016847158802, 31.060305120317437 ], [ 114.088983152841195, 31.060305120317437 ] ] ] } },
{ "type": "Feature", "properties": { "北京时间": "2026-04-29 22:00" }, "geometry": { "type": "Polygon", "coordinates": [ [ [ 114.1049831528412, 31.009300997250108 ], [ 114.1049831528412, 31.024698380769333 ], [ 114.087016847158807, 31.024698380769333 ], [ 114.087016847158807, 31.009300997250108 ], [ 114.1049831528412, 31.009300997250108 ] ] ] } },
{ "type": "Feature", "properties": { "北京时间": "2026-04-29 22:00" }, "geometry": { "type": "Polygon", "coordinates": [ [ [ 114.000983152841201, 31.080306738871204 ], [ 114.000983152841201, 31.095692638331695 ], [ 113.983016847158808, 31.095692638331695 ], [ 113.983016847158808, 31.080306738871204 ], [ 114.000983152841201, 31.080306738871204 ] ] ] } },
{ "type": "Feature", "properties": { "北京时间": "2026-04-29 22:00" }, "geometry": { "type": "Polygon", "coordinates": [ [ [ 114.153983152841178, 31.095307953401786 ], [ 114.153983152841178, 31.110691423629099 ], [ 114.1360168471588, 31.110691423629099 ], [ 114.1360168471588, 31.095307953401786 ], [ 114.153983152841178, 31.095307953401786 ] ] ] } },
{ "type": "Feature", "properties": { "北京时间": "2026-04-29 22:00" }, "geometry": { "type": "Polygon", "coordinates": [ [ [ 114.092983152841185, 30.979298574766005 ], [ 114.092983152841185, 30.99470080359961 ], [ 114.075016847158793, 30.99470080359961 ], [ 114.075016847158793, 30.979298574766005 ], [ 114.092983152841185, 30.979298574766005 ] ] ] } },
{ "type": "Feature", "properties": { "北京时间": "2026-04-29 22:00" }, "geometry": { "type": "Polygon", "coordinates": [ [ [ 113.968983152841176, 31.064305443953184 ], [ 113.968983152841176, 31.079693933433393 ], [ 113.951016847158783, 31.079693933433393 ], [ 113.951016847158783, 31.064305443953184 ], [ 113.968983152841176, 31.064305443953184 ] ] ] } },
{ "type": "Feature", "properties": { "北京时间": "2026-04-29 22:00" }, "geometry": { "type": "Polygon", "coordinates": [ [ [ 114.061983152841179, 30.90129228619147 ], [ 114.061983152841179, 30.916707093077353 ], [ 114.044016847158787, 30.916707093077353 ], [ 114.044016847158787, 30.90129228619147 ], [ 114.061983152841179, 30.90129228619147 ] ] ] } },
{ "type": "Feature", "properties": { "北京时间": "2026-04-29 22:00" }, "geometry": { "type": "Polygon", "coordinates": [ [ [ 114.064983152841194, 31.091307629475406 ], [ 114.064983152841194, 31.106691747601332 ], [ 114.047016847158787, 31.106691747601332 ], [ 114.047016847158787, 31.091307629475406 ], [ 114.064983152841194, 31.091307629475406 ] ] ] } },
{ "type": "Feature", "properties": { "北京时间": "2026-04-29 22:00" }, "geometry": { "type": "Polygon", "coordinates": [ [ [ 114.029983152841183, 31.033302936757334 ], [ 114.029983152841183, 31.048696440985672 ], [ 114.012016847158804, 31.048696440985672 ], [ 114.012016847158804, 31.033302936757334 ], [ 114.029983152841183, 31.033302936757334 ] ] ] } },
{ "type": "Feature", "properties": { "北京时间": "2026-04-29 21:00" }, "geometry": { "type": "Polygon", "coordinates": [ [ [ 114.396983152841187, 31.321326316100112 ], [ 114.396983152841187, 31.336673058359697 ], [ 114.379016847158795, 31.336673058359697 ], [ 114.379016847158795, 31.321326316100112 ], [ 114.396983152841187, 31.321326316100112 ] ] ] } },
{ "type": "Feature", "properties": { "北京时间": "2026-04-29 21:00" }, "geometry": { "type": "Polygon", "coordinates": [ [ [ 114.151983152841183, 31.2003164698747 ], [ 114.151983152841183, 31.215682905956825 ], [ 114.13401684715879, 31.215682905956825 ], [ 114.13401684715879, 31.2003164698747 ], [ 114.151983152841183, 31.2003164698747 ] ] ] } },
{ "type": "Feature", "properties": { "北京时间": "2026-04-29 21:00" }, "geometry": { "type": "Polygon", "coordinates": [ [ [ 114.199983152841185, 31.311325501064385 ], [ 114.199983152841185, 31.326673873508362 ], [ 114.182016847158792, 31.326673873508362 ], [ 114.182016847158792, 31.311325501064385 ], [ 114.199983152841185, 31.311325501064385 ] ] ] } },
{ "type": "Feature", "properties": { "北京时间": "2026-04-29 21:00" }, "geometry": { "type": "Polygon", "coordinates": [ [ [ 114.330983152841199, 31.368330149899155 ], [ 114.330983152841199, 31.383669224030839 ], [ 114.313016847158806, 31.383669224030839 ], [ 114.313016847158806, 31.368330149899155 ], [ 114.330983152841199, 31.368330149899155 ] ] ] } },
{ "type": "Feature", "properties": { "北京时间": "2026-04-29 21:00" }, "geometry": { "type": "Polygon", "coordinates": [ [ [ 114.042983152841188, 31.251320615760818 ], [ 114.042983152841188, 31.266678759491189 ], [ 114.025016847158795, 31.266678759491189 ], [ 114.025016847158795, 31.251320615760818 ], [ 114.042983152841188, 31.251320615760818 ] ] ] } },
{ "type": "Feature", "properties": { "北京时间": "2026-04-29 21:00" }, "geometry": { "type": "Polygon", "coordinates": [ [ [ 114.062983152841198, 31.29432411604024 ], [ 114.062983152841198, 31.309675258724674 ], [ 114.045016847158806, 31.309675258724674 ], [ 114.045016847158806, 31.29432411604024 ], [ 114.062983152841198, 31.29432411604024 ] ] ] } },
{ "type": "Feature", "properties": { "北京时间": "2026-04-29 21:00" }, "geometry": { "type": "Polygon", "coordinates": [ [ [ 114.171983152841193, 30.939295348072086 ], [ 114.171983152841193, 30.954704030756137 ], [ 114.154016847158786, 30.954704030756137 ], [ 114.154016847158786, 30.939295348072086 ], [ 114.171983152841193, 30.939295348072086 ] ] ] } },
{ "type": "Feature", "properties": { "北京时间": "2026-04-29 20:00" }, "geometry": { "type": "Polygon", "coordinates": [ [ [ 114.32398315284118, 31.385331537863703 ], [ 114.32398315284118, 31.400667835875083 ], [ 114.306016847158787, 31.400667835875083 ], [ 114.306016847158787, 31.385331537863703 ], [ 114.32398315284118, 31.385331537863703 ] ] ] } },
{ "type": "Feature", "properties": { "北京时间": "2026-04-29 20:00" }, "geometry": { "type": "Polygon", "coordinates": [ [ [ 114.19298315284118, 31.443336278352721 ], [ 114.19298315284118, 31.458663094735329 ], [ 114.175016847158801, 31.458663094735329 ], [ 114.175016847158801, 31.443336278352721 ], [ 114.19298315284118, 31.443336278352721 ] ] ] } },
{ "type": "Feature", "properties": { "北京时间": "2026-04-29 20:00" }, "geometry": { "type": "Polygon", "coordinates": [ [ [ 114.393983152841187, 31.525342993823955 ], [ 114.393983152841187, 31.540656378348494 ], [ 114.376016847158795, 31.540656378348494 ], [ 114.376016847158795, 31.525342993823955 ], [ 114.393983152841187, 31.525342993823955 ] ] ] } },
{ "type": "Feature", "properties": { "北京时间": "2026-04-29 20:00" }, "geometry": { "type": "Polygon", "coordinates": [ [ [ 114.180983152841193, 31.515342174023981 ], [ 114.180983152841193, 31.530657198259853 ], [ 114.163016847158801, 31.530657198259853 ], [ 114.163016847158801, 31.515342174023981 ], [ 114.180983152841193, 31.515342174023981 ] ] ] } },
{ "type": "Feature", "properties": { "北京时间": "2026-04-29 20:00" }, "geometry": { "type": "Polygon", "coordinates": [ [ [ 114.34998315284119, 31.413333825394727 ], [ 114.34998315284119, 31.428665548029588 ], [ 114.332016847158798, 31.428665548029588 ], [ 114.332016847158798, 31.413333825394727 ], [ 114.34998315284119, 31.413333825394727 ] ] ] } },
{ "type": "Feature", "properties": { "北京时间": "2026-04-29 20:00" }, "geometry": { "type": "Polygon", "coordinates": [ [ [ 114.446983152841185, 31.305325012155176 ], [ 114.446983152841185, 31.320674362485377 ], [ 114.429016847158792, 31.320674362485377 ], [ 114.429016847158792, 31.305325012155176 ], [ 114.446983152841185, 31.305325012155176 ] ] ] } },
{ "type": "Feature", "properties": { "北京时间": "2026-04-29 20:00" }, "geometry": { "type": "Polygon", "coordinates": [ [ [ 114.511983152841196, 31.569346603714777 ], [ 114.511983152841196, 31.584652767968482 ], [ 114.494016847158804, 31.584652767968482 ], [ 114.494016847158804, 31.569346603714777 ], [ 114.511983152841196, 31.569346603714777 ] ] ] } },
{ "type": "Feature", "properties": { "北京时间": "2026-04-29 19:00" }, "geometry": { "type": "Polygon", "coordinates": [ [ [ 114.539983152841202, 31.582347671137406 ], [ 114.539983152841202, 31.597651700401613 ], [ 114.52201684715881, 31.597651700401613 ], [ 114.52201684715881, 31.582347671137406 ], [ 114.539983152841202, 31.582347671137406 ] ] ] } },
{ "type": "Feature", "properties": { "北京时间": "2026-04-29 19:00" }, "geometry": { "type": "Polygon", "coordinates": [ [ [ 114.377983152841196, 31.636352109263505 ], [ 114.377983152841196, 31.651647261677713 ], [ 114.360016847158803, 31.651647261677713 ], [ 114.360016847158803, 31.636352109263505 ], [ 114.377983152841196, 31.636352109263505 ] ] ] } },
{ "type": "Feature", "properties": { "北京时间": "2026-04-29 19:00" }, "geometry": { "type": "Polygon", "coordinates": [ [ [ 114.365983152841196, 31.738360510924622 ], [ 114.365983152841196, 31.753638858893524 ], [ 114.348016847158803, 31.753638858893524 ], [ 114.348016847158803, 31.738360510924622 ], [ 114.365983152841196, 31.738360510924622 ] ] ] } },
{ "type": "Feature", "properties": { "北京时间": "2026-04-29 19:00" }, "geometry": { "type": "Polygon", "coordinates": [ [ [ 114.48798315284121, 31.601349231925333 ], [ 114.48798315284121, 31.616650139403099 ], [ 114.470016847158803, 31.616650139403099 ], [ 114.470016847158803, 31.601349231925333 ], [ 114.48798315284121, 31.601349231925333 ] ] ] } }
]
}
