{
"type": "FeatureCollection",
"name": "天仙南路",
"crs": { "type": "name", "properties": { "name": "urn:ogc:def:crs:OGC:1.3:CRS84" } },
"features": [
{ "type": "Feature", "properties": { "北京时间": "2026-04-30 17:00" }, "geometry": { "type": "Polygon", "coordinates": [ [ [ 113.931983152841184, 30.579266477017288 ], [ 113.931983152841184, 30.594732906028877 ], [ 113.914016847158805, 30.594732906028877 ], [ 113.914016847158805, 30.579266477017288 ], [ 113.931983152841184, 30.579266477017288 ] ] ] } },
{ "type": "Feature", "properties": { "北京时间": "2026-04-30 17:00" }, "geometry": { "type": "Polygon", "coordinates": [ [ [ 113.904983152841183, 30.576266237706452 ], [ 113.904983152841183, 30.591733145375269 ], [ 113.88701684715879, 30.591733145375269 ], [ 113.88701684715879, 30.576266237706452 ], [ 113.904983152841183, 30.576266237706452 ] ] ] } },
{ "type": "Feature", "properties": { "北京时间": "2026-04-30 18:00" }, "geometry": { "type": "Polygon", "coordinates": [ [ [ 113.925983152841198, 30.636271027951214 ], [ 113.925983152841198, 30.651728354420598 ], [ 113.908016847158805, 30.651728354420598 ], [ 113.908016847158805, 30.636271027951214 ], [ 113.925983152841198, 30.636271027951214 ] ] ] } },
{ "type": "Feature", "properties": { "北京时间": "2026-04-30 18:00" }, "geometry": { "type": "Polygon", "coordinates": [ [ [ 113.903983152841192, 30.616269430260836 ], [ 113.903983152841192, 30.631729952347314 ], [ 113.886016847158785, 30.631729952347314 ], [ 113.886016847158785, 30.616269430260836 ], [ 113.903983152841192, 30.616269430260836 ] ] ] } },
{ "type": "Feature", "properties": { "北京时间": "2026-04-30 19:00" }, "geometry": { "type": "Polygon", "coordinates": [ [ [ 113.927983152841193, 30.699276066831271 ], [ 113.927983152841193, 30.714723314798054 ], [ 113.910016847158801, 30.714723314798054 ], [ 113.910016847158801, 30.699276066831271 ], [ 113.927983152841193, 30.699276066831271 ] ] ] } },
{ "type": "Feature", "properties": { "北京时间": "2026-04-30 19:00" }, "geometry": { "type": "Polygon", "coordinates": [ [ [ 113.906983152841178, 30.656272626583469 ], [ 113.906983152841178, 30.671726755552317 ], [ 113.889016847158786, 30.671726755552317 ], [ 113.889016847158786, 30.656272626583469 ], [ 113.906983152841178, 30.656272626583469 ] ] ] } },
{ "type": "Feature", "properties": { "北京时间": "2026-04-30 20:00" }, "geometry": { "type": "Polygon", "coordinates": [ [ [ 114.137983152841187, 30.807284726636745 ], [ 114.137983152841187, 30.822714653726695 ], [ 114.120016847158794, 30.822714653726695 ], [ 114.120016847158794, 30.807284726636745 ], [ 114.137983152841187, 30.807284726636745 ] ] ] } },
{ "type": "Feature", "properties": { "北京时间": "2026-04-30 20:00" }, "geometry": { "type": "Polygon", "coordinates": [ [ [ 114.386983152841182, 31.403333008209138 ], [ 114.386983152841182, 31.418666365327425 ], [ 114.369016847158804, 31.418666365327425 ], [ 114.369016847158804, 31.403333008209138 ], [ 114.386983152841182, 31.403333008209138 ] ] ] } },
{ "type": "Feature", "properties": { "北京时间": "2026-04-30 20:00" }, "geometry": { "type": "Polygon", "coordinates": [ [ [ 113.933983152841179, 30.760280954646461 ], [ 113.933983152841179, 30.775718426266803 ], [ 113.916016847158801, 30.775718426266803 ], [ 113.916016847158801, 30.760280954646461 ], [ 113.933983152841179, 30.760280954646461 ] ] ] } },
{ "type": "Feature", "properties": { "北京时间": "2026-04-30 20:00" }, "geometry": { "type": "Polygon", "coordinates": [ [ [ 114.295983152841188, 31.402332926503419 ], [ 114.295983152841188, 31.417666447044372 ], [ 114.278016847158796, 31.417666447044372 ], [ 114.278016847158796, 31.402332926503419 ], [ 114.295983152841188, 31.402332926503419 ] ] ] } },
{ "type": "Feature", "properties": { "北京时间": "2026-04-30 20:00" }, "geometry": { "type": "Polygon", "coordinates": [ [ [ 113.918983152841179, 30.704276467142492 ], [ 113.918983152841179, 30.719722914428033 ], [ 113.901016847158786, 30.719722914428033 ], [ 113.901016847158786, 30.704276467142492 ], [ 113.918983152841179, 30.704276467142492 ] ] ] } },
{ "type": "Feature", "properties": { "北京时间": "2026-04-30 21:00" }, "geometry": { "type": "Polygon", "coordinates": [ [ [ 113.938983152841203, 30.81128504789698 ], [ 113.938983152841203, 30.826714332419751 ], [ 113.921016847158796, 30.826714332419751 ], [ 113.921016847158796, 30.81128504789698 ], [ 113.938983152841203, 30.81128504789698 ] ] ] } },
{ "type": "Feature", "properties": { "北京时间": "2026-04-30 21:00" }, "geometry": { "type": "Polygon", "coordinates": [ [ [ 113.94298315284118, 30.760280954646461 ], [ 113.94298315284118, 30.775718426266803 ], [ 113.925016847158801, 30.775718426266803 ], [ 113.925016847158801, 30.760280954646461 ], [ 113.94298315284118, 30.760280954646461 ] ] ] } },
{ "type": "Feature", "properties": { "北京时间": "2026-04-30 21:00" }, "geometry": { "type": "Polygon", "coordinates": [ [ [ 114.153983152841178, 30.956296718958203 ], [ 114.153983152841178, 30.971702659673269 ], [ 114.1360168471588, 30.971702659673269 ], [ 114.1360168471588, 30.956296718958203 ], [ 114.153983152841178, 30.956296718958203 ] ] ] } },
{ "type": "Feature", "properties": { "北京时间": "2026-04-30 21:00" }, "geometry": { "type": "Polygon", "coordinates": [ [ [ 114.068983152841199, 30.823286011903324 ], [ 114.068983152841199, 30.838713368273343 ], [ 114.051016847158806, 30.838713368273343 ], [ 114.051016847158806, 30.823286011903324 ], [ 114.068983152841199, 30.823286011903324 ] ] ] } },
{ "type": "Feature", "properties": { "北京时间": "2026-04-30 21:00" }, "geometry": { "type": "Polygon", "coordinates": [ [ [ 114.179983152841189, 31.239319639710619 ], [ 114.179983152841189, 31.254679735677563 ], [ 114.162016847158796, 31.254679735677563 ], [ 114.162016847158796, 31.239319639710619 ], [ 114.179983152841189, 31.239319639710619 ] ] ] } },
{ "type": "Feature", "properties": { "北京时间": "2026-04-30 21:00" }, "geometry": { "type": "Polygon", "coordinates": [ [ [ 113.975983152841209, 30.776282238145182 ], [ 113.975983152841209, 30.791717142580719 ], [ 113.958016847158802, 30.791717142580719 ], [ 113.958016847158802, 30.776282238145182 ], [ 113.975983152841209, 30.776282238145182 ] ] ] } },
{ "type": "Feature", "properties": { "北京时间": "2026-04-30 22:00" }, "geometry": { "type": "Polygon", "coordinates": [ [ [ 113.94598315284118, 30.851288262567429 ], [ 113.94598315284118, 30.866711117282819 ], [ 113.928016847158787, 30.866711117282819 ], [ 113.928016847158787, 30.851288262567429 ], [ 113.94598315284118, 30.851288262567429 ] ] ] } },
{ "type": "Feature", "properties": { "北京时间": "2026-04-30 22:00" }, "geometry": { "type": "Polygon", "coordinates": [ [ [ 114.047983152841198, 30.908292849967374 ], [ 114.047983152841198, 30.923706529220212 ], [ 114.030016847158791, 30.923706529220212 ], [ 114.030016847158791, 30.908292849967374 ], [ 114.047983152841198, 30.908292849967374 ] ] ] } },
{ "type": "Feature", "properties": { "北京时间": "2026-04-30 22:00" }, "geometry": { "type": "Polygon", "coordinates": [ [ [ 113.990983152841196, 30.803284405414121 ], [ 113.990983152841196, 30.818714974996055 ], [ 113.973016847158803, 30.818714974996055 ], [ 113.973016847158803, 30.803284405414121 ], [ 113.990983152841196, 30.803284405414121 ] ] ] } },
{ "type": "Feature", "properties": { "北京时间": "2026-04-30 22:00" }, "geometry": { "type": "Polygon", "coordinates": [ [ [ 114.008983152841196, 30.854288503819255 ], [ 114.008983152841196, 30.869710875996034 ], [ 113.991016847158804, 30.869710875996034 ], [ 113.991016847158804, 30.854288503819255 ], [ 114.008983152841196, 30.854288503819255 ] ] ] } },
{ "type": "Feature", "properties": { "北京时间": "2026-04-30 22:00" }, "geometry": { "type": "Polygon", "coordinates": [ [ [ 113.970983152841185, 30.836287056625402 ], [ 113.970983152841185, 30.851712323399624 ], [ 113.953016847158807, 30.851712323399624 ], [ 113.953016847158807, 30.836287056625402 ], [ 113.970983152841185, 30.836287056625402 ] ] ] } },
{ "type": "Feature", "properties": { "北京时间": "2026-04-30 22:00" }, "geometry": { "type": "Polygon", "coordinates": [ [ [ 113.952983152841199, 30.823286011903324 ], [ 113.952983152841199, 30.838713368273343 ], [ 113.935016847158806, 30.838713368273343 ], [ 113.935016847158806, 30.823286011903324 ], [ 113.952983152841199, 30.823286011903324 ] ] ] } },
{ "type": "Feature", "properties": { "北京时间": "2026-04-30 22:00" }, "geometry": { "type": "Polygon", "coordinates": [ [ [ 114.058983152841193, 31.062305282130612 ], [ 114.058983152841193, 31.077694095278925 ], [ 114.041016847158801, 31.077694095278925 ], [ 114.041016847158801, 31.062305282130612 ], [ 114.058983152841193, 31.062305282130612 ] ] ] } },
{ "type": "Feature", "properties": { "北京时间": "2026-04-30 22:00" }, "geometry": { "type": "Polygon", "coordinates": [ [ [ 113.961983152841199, 30.822285931556536 ], [ 113.961983152841199, 30.837713448631792 ], [ 113.944016847158807, 30.837713448631792 ], [ 113.944016847158807, 30.822285931556536 ], [ 113.961983152841199, 30.822285931556536 ] ] ] } },
{ "type": "Feature", "properties": { "北京时间": "2026-04-30 22:00" }, "geometry": { "type": "Polygon", "coordinates": [ [ [ 114.070983152841194, 31.042303664420785 ], [ 114.070983152841194, 31.057695713218674 ], [ 114.053016847158801, 31.057695713218674 ], [ 114.053016847158801, 31.042303664420785 ], [ 114.070983152841194, 31.042303664420785 ] ] ] } },
{ "type": "Feature", "properties": { "北京时间": "2026-04-30 22:00" }, "geometry": { "type": "Polygon", "coordinates": [ [ [ 114.086983152841199, 30.99629994724777 ], [ 114.086983152841199, 31.011699430921599 ], [ 114.069016847158807, 31.011699430921599 ], [ 114.069016847158807, 30.99629994724777 ], [ 114.086983152841199, 30.99629994724777 ] ] ] } },
{ "type": "Feature", "properties": { "北京时间": "2026-04-30 23:00" }, "geometry": { "type": "Polygon", "coordinates": [ [ [ 113.95498315284118, 30.892291561505822 ], [ 113.95498315284118, 30.907707817867532 ], [ 113.937016847158787, 30.907707817867532 ], [ 113.937016847158787, 30.892291561505822 ], [ 113.95498315284118, 30.892291561505822 ] ] ] } }
]
}
