{
"type": "FeatureCollection",
"name": "天仙南路",
"crs": { "type": "name", "properties": { "name": "urn:ogc:def:crs:OGC:1.3:CRS84" } },
"features": [
{ "type": "Feature", "properties": { "北京时间": "2026-05-18 06:00" }, "geometry": { "type": "Polygon", "coordinates": [ [ [ 113.95498315284118, 30.892291561505822 ], [ 113.95498315284118, 30.907707817867532 ], [ 113.937016847158787, 30.907707817867532 ], [ 113.937016847158787, 30.892291561505822 ], [ 113.95498315284118, 30.892291561505822 ] ] ] } },
{ "type": "Feature", "properties": { "北京时间": "2026-05-18 05:00" }, "geometry": { "type": "Polygon", "coordinates": [ [ [ 114.045983152841202, 30.910293011067342 ], [ 114.045983152841202, 30.925706368097046 ], [ 114.02801684715881, 30.925706368097046 ], [ 114.02801684715881, 30.910293011067342 ], [ 114.045983152841202, 30.910293011067342 ] ] ] } },
{ "type": "Feature", "properties": { "北京时间": "2026-05-18 05:00" }, "geometry": { "type": "Polygon", "coordinates": [ [ [ 114.022983152841178, 30.90929293051618 ], [ 114.022983152841178, 30.924706448659798 ], [ 114.005016847158785, 30.924706448659798 ], [ 114.005016847158785, 30.90929293051618 ], [ 114.022983152841178, 30.90929293051618 ] ] ] } },
{ "type": "Feature", "properties": { "北京时间": "2026-05-18 05:00" }, "geometry": { "type": "Polygon", "coordinates": [ [ [ 114.066983152841189, 30.917293574991167 ], [ 114.066983152841189, 30.932705804092027 ], [ 114.049016847158811, 30.932705804092027 ], [ 114.049016847158811, 30.917293574991167 ], [ 114.066983152841189, 30.917293574991167 ] ] ] } },
{ "type": "Feature", "properties": { "北京时间": "2026-05-18 05:00" }, "geometry": { "type": "Polygon", "coordinates": [ [ [ 113.999983152841196, 30.919293736133383 ], [ 113.999983152841196, 30.934705642926605 ], [ 113.982016847158789, 30.934705642926605 ], [ 113.982016847158789, 30.919293736133383 ], [ 113.999983152841196, 30.919293736133383 ] ] ] } },
{ "type": "Feature", "properties": { "北京时间": "2026-05-18 05:00" }, "geometry": { "type": "Polygon", "coordinates": [ [ [ 114.079983152841194, 30.892291561505822 ], [ 114.079983152841194, 30.907707817867532 ], [ 114.062016847158802, 30.907707817867532 ], [ 114.062016847158802, 30.892291561505822 ], [ 114.079983152841194, 30.892291561505822 ] ] ] } },
{ "type": "Feature", "properties": { "北京时间": "2026-05-18 05:00" }, "geometry": { "type": "Polygon", "coordinates": [ [ [ 114.09098315284119, 30.890291400490394 ], [ 114.09098315284119, 30.905707978906193 ], [ 114.073016847158797, 30.905707978906193 ], [ 114.073016847158797, 30.890291400490394 ], [ 114.09098315284119, 30.890291400490394 ] ] ] } },
{ "type": "Feature", "properties": { "北京时间": "2026-05-18 05:00" }, "geometry": { "type": "Polygon", "coordinates": [ [ [ 114.09998315284119, 30.893291642017058 ], [ 114.09998315284119, 30.908707737344685 ], [ 114.082016847158798, 30.908707737344685 ], [ 114.082016847158798, 30.893291642017058 ], [ 114.09998315284119, 30.893291642017058 ] ] ] } },
{ "type": "Feature", "properties": { "北京时间": "2026-05-18 05:00" }, "geometry": { "type": "Polygon", "coordinates": [ [ [ 114.103983152841181, 30.808284806948279 ], [ 114.103983152841181, 30.823714573403496 ], [ 114.086016847158788, 30.823714573403496 ], [ 114.086016847158788, 30.808284806948279 ], [ 114.103983152841181, 30.808284806948279 ] ] ] } },
{ "type": "Feature", "properties": { "北京时间": "2026-05-18 05:00" }, "geometry": { "type": "Polygon", "coordinates": [ [ [ 114.147983152841192, 30.863289227701646 ], [ 114.147983152841192, 30.878710152008889 ], [ 114.130016847158799, 30.878710152008889 ], [ 114.130016847158799, 30.863289227701646 ], [ 114.147983152841192, 30.863289227701646 ] ] ] } },
{ "type": "Feature", "properties": { "北京时间": "2026-05-18 05:00" }, "geometry": { "type": "Polygon", "coordinates": [ [ [ 114.150983152841178, 30.802284325114332 ], [ 114.150983152841178, 30.817715055307513 ], [ 114.133016847158785, 30.817715055307513 ], [ 114.133016847158785, 30.802284325114332 ], [ 114.150983152841178, 30.802284325114332 ] ] ] } },
{ "type": "Feature", "properties": { "北京时间": "2026-05-18 05:00" }, "geometry": { "type": "Polygon", "coordinates": [ [ [ 114.1049831528412, 30.862289147260878 ], [ 114.1049831528412, 30.877710232461293 ], [ 114.087016847158807, 30.877710232461293 ], [ 114.087016847158807, 30.862289147260878 ], [ 114.1049831528412, 30.862289147260878 ] ] ] } },
{ "type": "Feature", "properties": { "北京时间": "2026-05-18 05:00" }, "geometry": { "type": "Polygon", "coordinates": [ [ [ 114.147983152841192, 30.843287619332568 ], [ 114.147983152841192, 30.858711760610881 ], [ 114.130016847158799, 30.858711760610881 ], [ 114.130016847158799, 30.843287619332568 ], [ 114.147983152841192, 30.843287619332568 ] ] ] } },
{ "type": "Feature", "properties": { "北京时间": "2026-05-18 05:00" }, "geometry": { "type": "Polygon", "coordinates": [ [ [ 114.082983152841209, 30.804284485716256 ], [ 114.082983152841209, 30.819714894682253 ], [ 114.065016847158802, 30.819714894682253 ], [ 114.065016847158802, 30.804284485716256 ], [ 114.082983152841209, 30.804284485716256 ] ] ] } },
{ "type": "Feature", "properties": { "北京时间": "2026-05-18 05:00" }, "geometry": { "type": "Polygon", "coordinates": [ [ [ 114.045983152841202, 30.791283441971903 ], [ 114.045983152841202, 30.806715938578538 ], [ 114.02801684715881, 30.806715938578538 ], [ 114.02801684715881, 30.791283441971903 ], [ 114.045983152841202, 30.791283441971903 ] ] ] } },
{ "type": "Feature", "properties": { "北京时间": "2026-05-18 05:00" }, "geometry": { "type": "Polygon", "coordinates": [ [ [ 114.132983152841192, 30.869289710395616 ], [ 114.132983152841192, 30.884709669245115 ], [ 114.115016847158799, 30.884709669245115 ], [ 114.115016847158799, 30.869289710395616 ], [ 114.132983152841192, 30.869289710395616 ] ] ] } },
{ "type": "Feature", "properties": { "北京时间": "2026-05-18 05:00" }, "geometry": { "type": "Polygon", "coordinates": [ [ [ 114.120983152841177, 30.833286815500447 ], [ 114.120983152841177, 30.848712564559566 ], [ 114.103016847158784, 30.848712564559566 ], [ 114.103016847158784, 30.833286815500447 ], [ 114.120983152841177, 30.833286815500447 ] ] ] } },
{ "type": "Feature", "properties": { "北京时间": "2026-05-18 04:00" }, "geometry": { "type": "Polygon", "coordinates": [ [ [ 114.172983152841198, 30.929294541985371 ], [ 114.172983152841198, 30.944704836958724 ], [ 114.155016847158805, 30.944704836958724 ], [ 114.155016847158805, 30.929294541985371 ], [ 114.172983152841198, 30.929294541985371 ] ] ] } },
{ "type": "Feature", "properties": { "北京时间": "2026-05-18 04:00" }, "geometry": { "type": "Polygon", "coordinates": [ [ [ 114.132983152841192, 30.917293574991167 ], [ 114.132983152841192, 30.932705804092027 ], [ 114.115016847158799, 30.932705804092027 ], [ 114.115016847158799, 30.917293574991167 ], [ 114.132983152841192, 30.917293574991167 ] ] ] } },
{ "type": "Feature", "properties": { "北京时间": "2026-05-18 04:00" }, "geometry": { "type": "Polygon", "coordinates": [ [ [ 114.08598315284118, 30.929294541985371 ], [ 114.08598315284118, 30.944704836958724 ], [ 114.068016847158802, 30.944704836958724 ], [ 114.068016847158802, 30.929294541985371 ], [ 114.08598315284118, 30.929294541985371 ] ] ] } },
{ "type": "Feature", "properties": { "北京时间": "2026-05-18 04:00" }, "geometry": { "type": "Polygon", "coordinates": [ [ [ 114.056983152841198, 30.951296315685994 ], [ 114.056983152841198, 30.966703063003326 ], [ 114.039016847158805, 30.966703063003326 ], [ 114.039016847158805, 30.951296315685994 ], [ 114.056983152841198, 30.951296315685994 ] ] ] } },
{ "type": "Feature", "properties": { "北京时间": "2026-05-18 03:00" }, "geometry": { "type": "Polygon", "coordinates": [ [ [ 114.144983152841178, 30.950296235038593 ], [ 114.144983152841178, 30.965703143662296 ], [ 114.127016847158799, 30.965703143662296 ], [ 114.127016847158799, 30.950296235038593 ], [ 114.144983152841178, 30.950296235038593 ] ] ] } },
{ "type": "Feature", "properties": { "北京时间": "2026-05-18 03:00" }, "geometry": { "type": "Polygon", "coordinates": [ [ [ 114.134983152841201, 30.993299704995838 ], [ 114.134983152841201, 31.008699673208138 ], [ 114.117016847158794, 31.008699673208138 ], [ 114.117016847158794, 30.993299704995838 ], [ 114.134983152841201, 30.993299704995838 ] ] ] } }
]
}
