{
"type": "FeatureCollection",
"name": "天仙南路",
"crs": { "type": "name", "properties": { "name": "urn:ogc:def:crs:OGC:1.3:CRS84" } },
"features": [
{ "type": "Feature", "properties": { "北京时间": "2026-05-19 06:00" }, "geometry": { "type": "Polygon", "coordinates": [ [ [ 113.95498315284118, 30.892291561505822 ], [ 113.95498315284118, 30.907707817867532 ], [ 113.937016847158787, 30.907707817867532 ], [ 113.937016847158787, 30.892291561505822 ], [ 113.95498315284118, 30.892291561505822 ] ] ] } },
{ "type": "Feature", "properties": { "北京时间": "2026-05-19 05:00" }, "geometry": { "type": "Polygon", "coordinates": [ [ [ 114.052983152841179, 30.798284003938729 ], [ 114.052983152841179, 30.813715376529888 ], [ 114.035016847158786, 30.813715376529888 ], [ 114.035016847158786, 30.798284003938729 ], [ 114.052983152841179, 30.798284003938729 ] ] ] } },
{ "type": "Feature", "properties": { "北京时间": "2026-05-19 05:00" }, "geometry": { "type": "Polygon", "coordinates": [ [ [ 114.147983152841192, 30.863289227701646 ], [ 114.147983152841192, 30.878710152008889 ], [ 114.130016847158799, 30.878710152008889 ], [ 114.130016847158799, 30.863289227701646 ], [ 114.147983152841192, 30.863289227701646 ] ] ] } },
{ "type": "Feature", "properties": { "北京时间": "2026-05-19 05:00" }, "geometry": { "type": "Polygon", "coordinates": [ [ [ 114.142983152841182, 30.768281596320573 ], [ 114.142983152841182, 30.783717784498979 ], [ 114.12501684715879, 30.783717784498979 ], [ 114.12501684715879, 30.768281596320573 ], [ 114.142983152841182, 30.768281596320573 ] ] ] } },
{ "type": "Feature", "properties": { "北京时间": "2026-05-19 05:00" }, "geometry": { "type": "Polygon", "coordinates": [ [ [ 114.072983152841175, 30.785282960377732 ], [ 114.072983152841175, 30.800716420242868 ], [ 114.055016847158782, 30.800716420242868 ], [ 114.055016847158782, 30.785282960377732 ], [ 114.072983152841175, 30.785282960377732 ] ] ] } },
{ "type": "Feature", "properties": { "北京时间": "2026-05-19 05:00" }, "geometry": { "type": "Polygon", "coordinates": [ [ [ 114.093983152841176, 30.865289388590242 ], [ 114.093983152841176, 30.880709991097021 ], [ 114.076016847158797, 30.880709991097021 ], [ 114.076016847158797, 30.865289388590242 ], [ 114.093983152841176, 30.865289388590242 ] ] ] } },
{ "type": "Feature", "properties": { "北京时间": "2026-05-19 05:00" }, "geometry": { "type": "Polygon", "coordinates": [ [ [ 113.925983152841198, 31.014301401202708 ], [ 113.925983152841198, 31.029697976759106 ], [ 113.908016847158805, 31.029697976759106 ], [ 113.908016847158805, 31.014301401202708 ], [ 113.925983152841198, 31.014301401202708 ] ] ] } },
{ "type": "Feature", "properties": { "北京时间": "2026-05-19 05:00" }, "geometry": { "type": "Polygon", "coordinates": [ [ [ 114.135983152841192, 30.826286252957775 ], [ 114.135983152841192, 30.841713127183869 ], [ 114.118016847158799, 30.841713127183869 ], [ 114.118016847158799, 30.826286252957775 ], [ 114.135983152841192, 30.826286252957775 ] ] ] } },
{ "type": "Feature", "properties": { "北京时间": "2026-05-19 05:00" }, "geometry": { "type": "Polygon", "coordinates": [ [ [ 114.094983152841181, 30.780282559113914 ], [ 114.094983152841181, 30.795716821565179 ], [ 114.077016847158802, 30.795716821565179 ], [ 114.077016847158802, 30.780282559113914 ], [ 114.094983152841181, 30.780282559113914 ] ] ] } },
{ "type": "Feature", "properties": { "北京时间": "2026-05-19 05:00" }, "geometry": { "type": "Polygon", "coordinates": [ [ [ 114.156983152841192, 30.822285931556536 ], [ 114.156983152841192, 30.837713448631792 ], [ 114.1390168471588, 30.837713448631792 ], [ 114.1390168471588, 30.822285931556536 ], [ 114.156983152841192, 30.822285931556536 ] ] ] } },
{ "type": "Feature", "properties": { "北京时间": "2026-05-19 05:00" }, "geometry": { "type": "Polygon", "coordinates": [ [ [ 114.078983152841175, 30.809284887262169 ], [ 114.078983152841175, 30.824714493077924 ], [ 114.061016847158783, 30.824714493077924 ], [ 114.061016847158783, 30.809284887262169 ], [ 114.078983152841175, 30.809284887262169 ] ] ] } },
{ "type": "Feature", "properties": { "北京时间": "2026-05-19 05:00" }, "geometry": { "type": "Polygon", "coordinates": [ [ [ 114.056983152841198, 30.845287780127176 ], [ 114.056983152841198, 30.86071159979296 ], [ 114.039016847158805, 30.86071159979296 ], [ 114.039016847158805, 30.845287780127176 ], [ 114.056983152841198, 30.845287780127176 ] ] ] } },
{ "type": "Feature", "properties": { "北京时间": "2026-05-19 05:00" }, "geometry": { "type": "Polygon", "coordinates": [ [ [ 114.09098315284119, 30.890291400490394 ], [ 114.09098315284119, 30.905707978906193 ], [ 114.073016847158797, 30.905707978906193 ], [ 114.073016847158797, 30.890291400490394 ], [ 114.09098315284119, 30.890291400490394 ] ] ] } },
{ "type": "Feature", "properties": { "北京时间": "2026-05-19 05:00" }, "geometry": { "type": "Polygon", "coordinates": [ [ [ 114.011983152841196, 30.968297687050875 ], [ 114.011983152841196, 30.98370169144183 ], [ 113.994016847158804, 30.98370169144183 ], [ 113.994016847158804, 30.968297687050875 ], [ 114.011983152841196, 30.968297687050875 ] ] ] } },
{ "type": "Feature", "properties": { "北京时间": "2026-05-19 05:00" }, "geometry": { "type": "Polygon", "coordinates": [ [ [ 113.921983152841193, 30.998300108760791 ], [ 113.921983152841193, 31.013699269385501 ], [ 113.9040168471588, 31.013699269385501 ], [ 113.9040168471588, 30.998300108760791 ], [ 113.921983152841193, 30.998300108760791 ] ] ] } },
{ "type": "Feature", "properties": { "北京时间": "2026-05-19 05:00" }, "geometry": { "type": "Polygon", "coordinates": [ [ [ 113.989983152841177, 30.990299462765019 ], [ 113.989983152841177, 31.005699915473585 ], [ 113.972016847158798, 31.005699915473585 ], [ 113.972016847158798, 30.990299462765019 ], [ 113.989983152841177, 30.990299462765019 ] ] ] } },
{ "type": "Feature", "properties": { "北京时间": "2026-05-19 05:00" }, "geometry": { "type": "Polygon", "coordinates": [ [ [ 113.959983152841176, 31.036303179290712 ], [ 113.959983152841176, 31.051696198417762 ], [ 113.942016847158783, 31.051696198417762 ], [ 113.942016847158783, 31.036303179290712 ], [ 113.959983152841176, 31.036303179290712 ] ] ] } },
{ "type": "Feature", "properties": { "北京时间": "2026-05-19 04:00" }, "geometry": { "type": "Polygon", "coordinates": [ [ [ 114.1049831528412, 31.011301158824118 ], [ 114.1049831528412, 31.026698219172278 ], [ 114.087016847158807, 31.026698219172278 ], [ 114.087016847158807, 31.011301158824118 ], [ 114.1049831528412, 31.011301158824118 ] ] ] } },
{ "type": "Feature", "properties": { "北京时间": "2026-05-19 04:00" }, "geometry": { "type": "Polygon", "coordinates": [ [ [ 113.891983152841178, 31.110309168459629 ], [ 113.891983152841178, 31.125690208399398 ], [ 113.874016847158799, 31.125690208399398 ], [ 113.874016847158799, 31.110309168459629 ], [ 113.891983152841178, 31.110309168459629 ] ] ] } },
{ "type": "Feature", "properties": { "北京时间": "2026-05-19 04:00" }, "geometry": { "type": "Polygon", "coordinates": [ [ [ 113.987983152841181, 31.195316063742929 ], [ 113.987983152841181, 31.210683312145505 ], [ 113.970016847158803, 31.210683312145505 ], [ 113.970016847158803, 31.195316063742929 ], [ 113.987983152841181, 31.195316063742929 ] ] ] } },
{ "type": "Feature", "properties": { "北京时间": "2026-05-19 04:00" }, "geometry": { "type": "Polygon", "coordinates": [ [ [ 113.918983152841179, 31.140311600156799 ], [ 113.918983152841179, 31.155687776359038 ], [ 113.901016847158786, 31.155687776359038 ], [ 113.901016847158786, 31.140311600156799 ], [ 113.918983152841179, 31.140311600156799 ] ] ] } },
{ "type": "Feature", "properties": { "北京时间": "2026-05-19 04:00" }, "geometry": { "type": "Polygon", "coordinates": [ [ [ 114.162983152841193, 30.794283682800717 ], [ 114.162983152841193, 30.80971569771464 ], [ 114.145016847158786, 30.80971569771464 ], [ 114.145016847158786, 30.794283682800717 ], [ 114.162983152841193, 30.794283682800717 ] ] ] } },
{ "type": "Feature", "properties": { "北京时间": "2026-05-19 04:00" }, "geometry": { "type": "Polygon", "coordinates": [ [ [ 114.040983152841179, 31.088307386555233 ], [ 114.040983152841179, 31.103691990555912 ], [ 114.0230168471588, 31.103691990555912 ], [ 114.0230168471588, 31.088307386555233 ], [ 114.040983152841179, 31.088307386555233 ] ] ] } },
{ "type": "Feature", "properties": { "北京时间": "2026-05-19 03:00" }, "geometry": { "type": "Polygon", "coordinates": [ [ [ 113.933983152841179, 31.273322406061137 ], [ 113.933983152841179, 31.288676968941481 ], [ 113.916016847158801, 31.288676968941481 ], [ 113.916016847158801, 31.273322406061137 ], [ 113.933983152841179, 31.273322406061137 ] ] ] } },
{ "type": "Feature", "properties": { "北京时间": "2026-05-19 03:00" }, "geometry": { "type": "Polygon", "coordinates": [ [ [ 114.065983152841198, 31.354329007376581 ], [ 114.065983152841198, 31.369670366711059 ], [ 114.048016847158806, 31.369670366711059 ], [ 114.048016847158806, 31.354329007376581 ], [ 114.065983152841198, 31.354329007376581 ] ] ] } },
{ "type": "Feature", "properties": { "北京时间": "2026-05-19 03:00" }, "geometry": { "type": "Polygon", "coordinates": [ [ [ 114.1109831528412, 31.199316388643673 ], [ 114.1109831528412, 31.214682987199247 ], [ 114.093016847158808, 31.214682987199247 ], [ 114.093016847158808, 31.199316388643673 ], [ 114.1109831528412, 31.199316388643673 ] ] ] } },
{ "type": "Feature", "properties": { "北京时间": "2026-05-19 03:00" }, "geometry": { "type": "Polygon", "coordinates": [ [ [ 113.871983152841182, 31.236319395750716 ], [ 113.871983152841182, 31.251679979671529 ], [ 113.854016847158803, 31.251679979671529 ], [ 113.854016847158803, 31.236319395750716 ], [ 113.871983152841182, 31.236319395750716 ] ] ] } },
{ "type": "Feature", "properties": { "北京时间": "2026-05-19 02:00" }, "geometry": { "type": "Polygon", "coordinates": [ [ [ 113.980983152841191, 31.400332763099005 ], [ 113.980983152841191, 31.415666610471245 ], [ 113.963016847158798, 31.415666610471245 ], [ 113.963016847158798, 31.400332763099005 ], [ 113.980983152841191, 31.400332763099005 ] ] ] } },
{ "type": "Feature", "properties": { "北京时间": "2026-05-19 02:00" }, "geometry": { "type": "Polygon", "coordinates": [ [ [ 114.146983152841187, 31.494340453203471 ], [ 114.146983152841187, 31.509658919314518 ], [ 114.129016847158795, 31.509658919314518 ], [ 114.129016847158795, 31.494340453203471 ], [ 114.146983152841187, 31.494340453203471 ] ] ] } },
{ "type": "Feature", "properties": { "北京时间": "2026-05-19 02:00" }, "geometry": { "type": "Polygon", "coordinates": [ [ [ 113.8549831528412, 31.388331782868718 ], [ 113.8549831528412, 31.40366759083636 ], [ 113.837016847158807, 31.40366759083636 ], [ 113.837016847158807, 31.388331782868718 ], [ 113.8549831528412, 31.388331782868718 ] ] ] } },
{ "type": "Feature", "properties": { "北京时间": "2026-05-19 02:00" }, "geometry": { "type": "Polygon", "coordinates": [ [ [ 114.179983152841189, 31.323326479135318 ], [ 114.179983152841189, 31.338672895301908 ], [ 114.162016847158796, 31.338672895301908 ], [ 114.162016847158796, 31.323326479135318 ], [ 114.179983152841189, 31.323326479135318 ] ] ] } },
{ "type": "Feature", "properties": { "北京时间": "2026-05-19 01:00" }, "geometry": { "type": "Polygon", "coordinates": [ [ [ 114.202983152841185, 31.625351204649611 ], [ 114.202983152841185, 31.64064816641319 ], [ 114.185016847158792, 31.64064816641319 ], [ 114.185016847158792, 31.625351204649611 ], [ 114.202983152841185, 31.625351204649611 ] ] ] } },
{ "type": "Feature", "properties": { "北京时间": "2026-05-19 01:00" }, "geometry": { "type": "Polygon", "coordinates": [ [ [ 114.244983152841186, 31.466338160376939 ], [ 114.244983152841186, 31.481661212453766 ], [ 114.227016847158794, 31.481661212453766 ], [ 114.227016847158794, 31.466338160376939 ], [ 114.244983152841186, 31.466338160376939 ] ] ] } },
{ "type": "Feature", "properties": { "北京时间": "2026-05-19 00:00" }, "geometry": { "type": "Polygon", "coordinates": [ [ [ 114.225983152841195, 31.745361088397424 ], [ 114.225983152841195, 31.760638281343947 ], [ 114.208016847158802, 31.760638281343947 ], [ 114.208016847158802, 31.745361088397424 ], [ 114.225983152841195, 31.745361088397424 ] ] ] } },
{ "type": "Feature", "properties": { "北京时间": "2026-05-19 00:00" }, "geometry": { "type": "Polygon", "coordinates": [ [ [ 114.141983152841178, 31.644352767341609 ], [ 114.141983152841178, 31.659646603511259 ], [ 114.124016847158799, 31.659646603511259 ], [ 114.124016847158799, 31.644352767341609 ], [ 114.141983152841178, 31.644352767341609 ] ] ] } },
{ "type": "Feature", "properties": { "北京时间": "2026-05-19 00:00" }, "geometry": { "type": "Polygon", "coordinates": [ [ [ 114.292983152841188, 31.630351615802802 ], [ 114.292983152841188, 31.645647755204738 ], [ 114.275016847158795, 31.645647755204738 ], [ 114.275016847158795, 31.630351615802802 ], [ 114.292983152841188, 31.630351615802802 ] ] ] } },
{ "type": "Feature", "properties": { "北京时间": "2026-05-18 23:00" }, "geometry": { "type": "Polygon", "coordinates": [ [ [ 114.205983152841185, 31.811366538746039 ], [ 114.205983152841185, 31.82663283027324 ], [ 114.188016847158792, 31.82663283027324 ], [ 114.188016847158792, 31.811366538746039 ], [ 114.205983152841185, 31.811366538746039 ] ] ] } }
]
}
