{
"type": "FeatureCollection",
"name": "天仙南路",
"crs": { "type": "name", "properties": { "name": "urn:ogc:def:crs:OGC:1.3:CRS84" } },
"features": [
{ "type": "Feature", "properties": { "北京时间": "2026-05-11 23:00" }, "geometry": { "type": "Polygon", "coordinates": [ [ [ 113.95498315284118, 30.892291561505822 ], [ 113.95498315284118, 30.907707817867532 ], [ 113.937016847158787, 30.907707817867532 ], [ 113.937016847158787, 30.892291561505822 ], [ 113.95498315284118, 30.892291561505822 ] ] ] } },
{ "type": "Feature", "properties": { "北京时间": "2026-05-11 22:00" }, "geometry": { "type": "Polygon", "coordinates": [ [ [ 113.882983152841177, 30.836287056625402 ], [ 113.882983152841177, 30.851712323399624 ], [ 113.865016847158799, 30.851712323399624 ], [ 113.865016847158799, 30.836287056625402 ], [ 113.882983152841177, 30.836287056625402 ] ] ] } },
{ "type": "Feature", "properties": { "北京时间": "2026-05-11 22:00" }, "geometry": { "type": "Polygon", "coordinates": [ [ [ 113.898983152841183, 30.731278629839544 ], [ 113.898983152841183, 30.746720751413793 ], [ 113.88101684715879, 30.746720751413793 ], [ 113.88101684715879, 30.731278629839544 ], [ 113.898983152841183, 30.731278629839544 ] ] ] } },
{ "type": "Feature", "properties": { "北京时间": "2026-05-11 22:00" }, "geometry": { "type": "Polygon", "coordinates": [ [ [ 113.951983152841194, 30.779282478868211 ], [ 113.951983152841194, 30.794716901822593 ], [ 113.934016847158787, 30.794716901822593 ], [ 113.934016847158787, 30.779282478868211 ], [ 113.951983152841194, 30.779282478868211 ] ] ] } },
{ "type": "Feature", "properties": { "北京时间": "2026-05-11 22:00" }, "geometry": { "type": "Polygon", "coordinates": [ [ [ 113.944983152841203, 30.787283120899716 ], [ 113.944983152841203, 30.802716259697487 ], [ 113.927016847158811, 30.802716259697487 ], [ 113.927016847158811, 30.787283120899716 ], [ 113.944983152841203, 30.787283120899716 ] ] ] } },
{ "type": "Feature", "properties": { "北京时间": "2026-05-11 22:00" }, "geometry": { "type": "Polygon", "coordinates": [ [ [ 113.839983152841185, 30.726278229210692 ], [ 113.839983152841185, 30.741721152101338 ], [ 113.822016847158793, 30.741721152101338 ], [ 113.822016847158793, 30.726278229210692 ], [ 113.839983152841185, 30.726278229210692 ] ] ] } },
{ "type": "Feature", "properties": { "北京时间": "2026-05-11 22:00" }, "geometry": { "type": "Polygon", "coordinates": [ [ [ 113.959983152841176, 30.926294300205114 ], [ 113.959983152841176, 30.941705078773722 ], [ 113.942016847158783, 30.941705078773722 ], [ 113.942016847158783, 30.926294300205114 ], [ 113.959983152841176, 30.926294300205114 ] ] ] } },
{ "type": "Feature", "properties": { "北京时间": "2026-05-11 22:00" }, "geometry": { "type": "Polygon", "coordinates": [ [ [ 113.900983152841178, 30.799284084229107 ], [ 113.900983152841178, 30.814715296227821 ], [ 113.883016847158785, 30.814715296227821 ], [ 113.883016847158785, 30.799284084229107 ], [ 113.900983152841178, 30.799284084229107 ] ] ] } },
{ "type": "Feature", "properties": { "北京时间": "2026-05-11 22:00" }, "geometry": { "type": "Polygon", "coordinates": [ [ [ 113.937983152841184, 30.783282799865159 ], [ 113.937983152841184, 30.798716580778851 ], [ 113.920016847158792, 30.798716580778851 ], [ 113.920016847158792, 30.783282799865159 ], [ 113.937983152841184, 30.783282799865159 ] ] ] } },
{ "type": "Feature", "properties": { "北京时间": "2026-05-11 22:00" }, "geometry": { "type": "Polygon", "coordinates": [ [ [ 113.8669831528412, 30.807284726636745 ], [ 113.8669831528412, 30.822714653726695 ], [ 113.849016847158808, 30.822714653726695 ], [ 113.849016847158808, 30.807284726636745 ], [ 113.8669831528412, 30.807284726636745 ] ] ] } },
{ "type": "Feature", "properties": { "北京时间": "2026-05-11 22:00" }, "geometry": { "type": "Polygon", "coordinates": [ [ [ 113.884983152841201, 30.747279912247024 ], [ 113.884983152841201, 30.762719468818595 ], [ 113.867016847158808, 30.762719468818595 ], [ 113.867016847158808, 30.747279912247024 ], [ 113.884983152841201, 30.747279912247024 ] ] ] } },
{ "type": "Feature", "properties": { "北京时间": "2026-05-11 22:00" }, "geometry": { "type": "Polygon", "coordinates": [ [ [ 113.940983152841198, 30.801284244816912 ], [ 113.940983152841198, 30.816715135616644 ], [ 113.923016847158792, 30.816715135616644 ], [ 113.923016847158792, 30.801284244816912 ], [ 113.940983152841198, 30.801284244816912 ] ] ] } },
{ "type": "Feature", "properties": { "北京时间": "2026-05-11 22:00" }, "geometry": { "type": "Polygon", "coordinates": [ [ [ 113.874983152841182, 30.761281034847489 ], [ 113.874983152841182, 30.776718346054043 ], [ 113.857016847158803, 30.776718346054043 ], [ 113.857016847158803, 30.761281034847489 ], [ 113.874983152841182, 30.761281034847489 ] ] ] } },
{ "type": "Feature", "properties": { "北京时间": "2026-05-11 22:00" }, "geometry": { "type": "Polygon", "coordinates": [ [ [ 113.897983152841178, 30.754280473489644 ], [ 113.897983152841178, 30.769718907493925 ], [ 113.880016847158785, 30.769718907493925 ], [ 113.880016847158785, 30.754280473489644 ], [ 113.897983152841178, 30.754280473489644 ] ] ] } },
{ "type": "Feature", "properties": { "北京时间": "2026-05-11 22:00" }, "geometry": { "type": "Polygon", "coordinates": [ [ [ 113.909983152841178, 30.774282077674926 ], [ 113.909983152841178, 30.789717303074394 ], [ 113.892016847158786, 30.789717303074394 ], [ 113.892016847158786, 30.774282077674926 ], [ 113.909983152841178, 30.774282077674926 ] ] ] } },
{ "type": "Feature", "properties": { "北京时间": "2026-05-11 22:00" }, "geometry": { "type": "Polygon", "coordinates": [ [ [ 113.925983152841198, 30.782282719612382 ], [ 113.925983152841198, 30.7977166610433 ], [ 113.908016847158805, 30.7977166610433 ], [ 113.908016847158805, 30.782282719612382 ], [ 113.925983152841198, 30.782282719612382 ] ] ] } },
{ "type": "Feature", "properties": { "北京时间": "2026-05-11 22:00" }, "geometry": { "type": "Polygon", "coordinates": [ [ [ 113.916983152841198, 30.840287378158255 ], [ 113.916983152841198, 30.855712001820155 ], [ 113.899016847158805, 30.855712001820155 ], [ 113.899016847158805, 30.840287378158255 ], [ 113.916983152841198, 30.840287378158255 ] ] ] } },
{ "type": "Feature", "properties": { "北京时间": "2026-05-11 22:00" }, "geometry": { "type": "Polygon", "coordinates": [ [ [ 113.885983152841192, 30.878290434595108 ], [ 113.885983152841192, 30.893708944940936 ], [ 113.868016847158799, 30.893708944940936 ], [ 113.868016847158799, 30.878290434595108 ], [ 113.885983152841192, 30.878290434595108 ] ] ] } },
{ "type": "Feature", "properties": { "北京时间": "2026-05-11 22:00" }, "geometry": { "type": "Polygon", "coordinates": [ [ [ 113.898983152841183, 30.766281435887937 ], [ 113.898983152841183, 30.781717944955048 ], [ 113.88101684715879, 30.781717944955048 ], [ 113.88101684715879, 30.766281435887937 ], [ 113.898983152841183, 30.766281435887937 ] ] ] } },
{ "type": "Feature", "properties": { "北京时间": "2026-05-11 22:00" }, "geometry": { "type": "Polygon", "coordinates": [ [ [ 113.893983152841201, 30.822285931556536 ], [ 113.893983152841201, 30.837713448631792 ], [ 113.876016847158809, 30.837713448631792 ], [ 113.876016847158809, 30.822285931556536 ], [ 113.893983152841201, 30.822285931556536 ] ] ] } },
{ "type": "Feature", "properties": { "北京时间": "2026-05-11 22:00" }, "geometry": { "type": "Polygon", "coordinates": [ [ [ 113.94898315284118, 30.791283441971903 ], [ 113.94898315284118, 30.806715938578538 ], [ 113.931016847158787, 30.806715938578538 ], [ 113.931016847158787, 30.791283441971903 ], [ 113.94898315284118, 30.791283441971903 ] ] ] } },
{ "type": "Feature", "properties": { "北京时间": "2026-05-11 21:00" }, "geometry": { "type": "Polygon", "coordinates": [ [ [ 113.840983152841204, 30.759280874447779 ], [ 113.840983152841204, 30.7747185064772 ], [ 113.823016847158797, 30.7747185064772 ], [ 113.823016847158797, 30.759280874447779 ], [ 113.840983152841204, 30.759280874447779 ] ] ] } },
{ "type": "Feature", "properties": { "北京时间": "2026-05-11 21:00" }, "geometry": { "type": "Polygon", "coordinates": [ [ [ 113.827983152841199, 30.872289951774302 ], [ 113.827983152841199, 30.88770942783151 ], [ 113.810016847158806, 30.88770942783151 ], [ 113.810016847158806, 30.872289951774302 ], [ 113.827983152841199, 30.872289951774302 ] ] ] } },
{ "type": "Feature", "properties": { "北京时间": "2026-05-11 21:00" }, "geometry": { "type": "Polygon", "coordinates": [ [ [ 113.82898315284119, 30.608268791448459 ], [ 113.82898315284119, 30.623730591254322 ], [ 113.811016847158797, 30.623730591254322 ], [ 113.811016847158797, 30.608268791448459 ], [ 113.82898315284119, 30.608268791448459 ] ] ] } },
{ "type": "Feature", "properties": { "北京时间": "2026-05-11 21:00" }, "geometry": { "type": "Polygon", "coordinates": [ [ [ 113.83298315284118, 30.705276547211806 ], [ 113.83298315284118, 30.720722834346972 ], [ 113.815016847158802, 30.720722834346972 ], [ 113.815016847158802, 30.705276547211806 ], [ 113.83298315284118, 30.705276547211806 ] ] ] } },
{ "type": "Feature", "properties": { "北京时间": "2026-05-11 21:00" }, "geometry": { "type": "Polygon", "coordinates": [ [ [ 113.933983152841179, 30.691275426455675 ], [ 113.933983152841179, 30.706723955267773 ], [ 113.916016847158801, 30.706723955267773 ], [ 113.916016847158801, 30.691275426455675 ], [ 113.933983152841179, 30.691275426455675 ] ] ] } },
{ "type": "Feature", "properties": { "北京时间": "2026-05-11 21:00" }, "geometry": { "type": "Polygon", "coordinates": [ [ [ 113.916983152841198, 30.692275506494383 ], [ 113.916983152841198, 30.70772387521729 ], [ 113.899016847158805, 30.70772387521729 ], [ 113.899016847158805, 30.692275506494383 ], [ 113.916983152841198, 30.692275506494383 ] ] ] } },
{ "type": "Feature", "properties": { "北京时间": "2026-05-11 21:00" }, "geometry": { "type": "Polygon", "coordinates": [ [ [ 113.779983152841197, 30.733278790107541 ], [ 113.779983152841197, 30.748720591122314 ], [ 113.762016847158804, 30.748720591122314 ], [ 113.762016847158804, 30.733278790107541 ], [ 113.779983152841197, 30.733278790107541 ] ] ] } },
{ "type": "Feature", "properties": { "北京时间": "2026-05-11 21:00" }, "geometry": { "type": "Polygon", "coordinates": [ [ [ 113.867983152841177, 30.799284084229107 ], [ 113.867983152841177, 30.814715296227821 ], [ 113.850016847158784, 30.814715296227821 ], [ 113.850016847158784, 30.799284084229107 ], [ 113.867983152841177, 30.799284084229107 ] ] ] } },
{ "type": "Feature", "properties": { "北京时间": "2026-05-11 21:00" }, "geometry": { "type": "Polygon", "coordinates": [ [ [ 114.000983152841201, 30.98329889764188 ], [ 114.000983152841201, 30.99870048067752 ], [ 113.983016847158808, 30.99870048067752 ], [ 113.983016847158808, 30.98329889764188 ], [ 114.000983152841201, 30.98329889764188 ] ] ] } },
{ "type": "Feature", "properties": { "北京时间": "2026-05-11 21:00" }, "geometry": { "type": "Polygon", "coordinates": [ [ [ 113.805983152841193, 30.787283120899716 ], [ 113.805983152841193, 30.802716259697487 ], [ 113.788016847158787, 30.802716259697487 ], [ 113.788016847158787, 30.787283120899716 ], [ 113.805983152841193, 30.787283120899716 ] ] ] } },
{ "type": "Feature", "properties": { "北京时间": "2026-05-11 21:00" }, "geometry": { "type": "Polygon", "coordinates": [ [ [ 113.950983152841175, 30.670273746186332 ], [ 113.950983152841175, 30.685725635784387 ], [ 113.933016847158797, 30.685725635784387 ], [ 113.933016847158797, 30.670273746186332 ], [ 113.950983152841175, 30.670273746186332 ] ] ] } },
{ "type": "Feature", "properties": { "北京时间": "2026-05-11 21:00" }, "geometry": { "type": "Polygon", "coordinates": [ [ [ 113.860983152841214, 30.591267434472666 ], [ 113.860983152841214, 30.606731948431342 ], [ 113.843016847158822, 30.606731948431342 ], [ 113.843016847158822, 30.591267434472666 ], [ 113.860983152841214, 30.591267434472666 ] ] ] } },
{ "type": "Feature", "properties": { "北京时间": "2026-05-11 21:00" }, "geometry": { "type": "Polygon", "coordinates": [ [ [ 113.882983152841177, 30.664273266300047 ], [ 113.882983152841177, 30.679726115741413 ], [ 113.865016847158799, 30.679726115741413 ], [ 113.865016847158799, 30.664273266300047 ], [ 113.882983152841177, 30.664273266300047 ] ] ] } },
{ "type": "Feature", "properties": { "北京时间": "2026-05-11 21:00" }, "geometry": { "type": "Polygon", "coordinates": [ [ [ 113.930983152841179, 30.676274226157386 ], [ 113.930983152841179, 30.691725155742667 ], [ 113.913016847158801, 30.691725155742667 ], [ 113.913016847158801, 30.676274226157386 ], [ 113.930983152841179, 30.676274226157386 ] ] ] } },
{ "type": "Feature", "properties": { "北京时间": "2026-05-11 21:00" }, "geometry": { "type": "Polygon", "coordinates": [ [ [ 113.794983152841198, 30.631270628440308 ], [ 113.794983152841198, 30.646728753990548 ], [ 113.777016847158791, 30.646728753990548 ], [ 113.777016847158791, 30.631270628440308 ], [ 113.794983152841198, 30.631270628440308 ] ] ] } },
{ "type": "Feature", "properties": { "北京时间": "2026-05-11 21:00" }, "geometry": { "type": "Polygon", "coordinates": [ [ [ 113.921983152841193, 30.687275106324346 ], [ 113.921983152841193, 30.702724275446169 ], [ 113.9040168471588, 30.702724275446169 ], [ 113.9040168471588, 30.687275106324346 ], [ 113.921983152841193, 30.687275106324346 ] ] ] } },
{ "type": "Feature", "properties": { "北京时间": "2026-05-11 21:00" }, "geometry": { "type": "Polygon", "coordinates": [ [ [ 113.72498315284119, 30.555264563124396 ], [ 113.72498315284119, 30.570734820206429 ], [ 113.707016847158798, 30.570734820206429 ], [ 113.707016847158798, 30.555264563124396 ], [ 113.72498315284119, 30.555264563124396 ] ] ] } },
{ "type": "Feature", "properties": { "北京时间": "2026-05-11 21:00" }, "geometry": { "type": "Polygon", "coordinates": [ [ [ 113.836983152841199, 30.637271107860467 ], [ 113.836983152841199, 30.652728274499541 ], [ 113.819016847158807, 30.652728274499541 ], [ 113.819016847158807, 30.637271107860467 ], [ 113.836983152841199, 30.637271107860467 ] ] ] } },
{ "type": "Feature", "properties": { "北京时间": "2026-05-11 21:00" }, "geometry": { "type": "Polygon", "coordinates": [ [ [ 113.858983152841176, 30.658272786498483 ], [ 113.858983152841176, 30.673726595613704 ], [ 113.841016847158784, 30.673726595613704 ], [ 113.841016847158784, 30.658272786498483 ], [ 113.858983152841176, 30.658272786498483 ] ] ] } },
{ "type": "Feature", "properties": { "北京时间": "2026-05-11 21:00" }, "geometry": { "type": "Polygon", "coordinates": [ [ [ 113.830983152841185, 30.606268631768913 ], [ 113.830983152841185, 30.621730750957521 ], [ 113.813016847158792, 30.621730750957521 ], [ 113.813016847158792, 30.606268631768913 ], [ 113.830983152841185, 30.606268631768913 ] ] ] } },
{ "type": "Feature", "properties": { "北京时间": "2026-05-11 20:00" }, "geometry": { "type": "Polygon", "coordinates": [ [ [ 113.798983152841203, 30.538263208271527 ], [ 113.798983152841203, 30.5537361752612 ], [ 113.78101684715881, 30.5537361752612 ], [ 113.78101684715881, 30.538263208271527 ], [ 113.798983152841203, 30.538263208271527 ] ] ] } },
{ "type": "Feature", "properties": { "北京时间": "2026-05-11 20:00" }, "geometry": { "type": "Polygon", "coordinates": [ [ [ 113.797983152841184, 30.702276307010944 ], [ 113.797983152841184, 30.717723074583098 ], [ 113.780016847158791, 30.717723074583098 ], [ 113.780016847158791, 30.702276307010944 ], [ 113.797983152841184, 30.702276307010944 ] ] ] } },
{ "type": "Feature", "properties": { "北京时间": "2026-05-11 20:00" }, "geometry": { "type": "Polygon", "coordinates": [ [ [ 113.780983152841188, 30.872289951774302 ], [ 113.780983152841188, 30.88770942783151 ], [ 113.763016847158795, 30.88770942783151 ], [ 113.763016847158795, 30.872289951774302 ], [ 113.780983152841188, 30.872289951774302 ] ] ] } },
{ "type": "Feature", "properties": { "北京时间": "2026-05-11 20:00" }, "geometry": { "type": "Polygon", "coordinates": [ [ [ 113.833983152841185, 30.546263845764496 ], [ 113.833983152841185, 30.561735537673187 ], [ 113.816016847158792, 30.561735537673187 ], [ 113.816016847158792, 30.546263845764496 ], [ 113.833983152841185, 30.546263845764496 ] ] ] } },
{ "type": "Feature", "properties": { "北京时间": "2026-05-11 20:00" }, "geometry": { "type": "Polygon", "coordinates": [ [ [ 113.884983152841201, 30.567265519901184 ], [ 113.884983152841201, 30.582733863287263 ], [ 113.867016847158808, 30.582733863287263 ], [ 113.867016847158808, 30.567265519901184 ], [ 113.884983152841201, 30.567265519901184 ] ] ] } },
{ "type": "Feature", "properties": { "北京时间": "2026-05-11 20:00" }, "geometry": { "type": "Polygon", "coordinates": [ [ [ 113.808983152841179, 30.761281034847489 ], [ 113.808983152841179, 30.776718346054043 ], [ 113.791016847158787, 30.776718346054043 ], [ 113.791016847158787, 30.761281034847489 ], [ 113.808983152841179, 30.761281034847489 ] ] ] } },
{ "type": "Feature", "properties": { "北京时间": "2026-05-11 20:00" }, "geometry": { "type": "Polygon", "coordinates": [ [ [ 113.728983152841181, 30.748279992417491 ], [ 113.728983152841181, 30.763719388636417 ], [ 113.711016847158803, 30.763719388636417 ], [ 113.711016847158803, 30.748279992417491 ], [ 113.728983152841181, 30.748279992417491 ] ] ] } },
{ "type": "Feature", "properties": { "北京时间": "2026-05-11 20:00" }, "geometry": { "type": "Polygon", "coordinates": [ [ [ 113.923983152841203, 30.570265759148402 ], [ 113.923983152841203, 30.585733624004465 ], [ 113.90601684715881, 30.585733624004465 ], [ 113.90601684715881, 30.570265759148402 ], [ 113.923983152841203, 30.570265759148402 ] ] ] } },
{ "type": "Feature", "properties": { "北京时间": "2026-05-11 20:00" }, "geometry": { "type": "Polygon", "coordinates": [ [ [ 113.923983152841203, 30.59526775369984 ], [ 113.923983152841203, 30.610731629156795 ], [ 113.90601684715881, 30.610731629156795 ], [ 113.90601684715881, 30.59526775369984 ], [ 113.923983152841203, 30.59526775369984 ] ] ] } },
{ "type": "Feature", "properties": { "北京时间": "2026-05-11 20:00" }, "geometry": { "type": "Polygon", "coordinates": [ [ [ 113.769983152841192, 30.510260978234161 ], [ 113.769983152841192, 30.525738405631596 ], [ 113.752016847158799, 30.525738405631596 ], [ 113.752016847158799, 30.510260978234161 ], [ 113.769983152841192, 30.510260978234161 ] ] ] } },
{ "type": "Feature", "properties": { "北京时间": "2026-05-11 20:00" }, "geometry": { "type": "Polygon", "coordinates": [ [ [ 114.072983152841175, 31.060305120317437 ], [ 114.072983152841175, 31.075694257115089 ], [ 114.055016847158782, 31.075694257115089 ], [ 114.055016847158782, 31.060305120317437 ], [ 114.072983152841175, 31.060305120317437 ] ] ] } },
{ "type": "Feature", "properties": { "北京时间": "2026-05-11 20:00" }, "geometry": { "type": "Polygon", "coordinates": [ [ [ 113.905983152841202, 30.596267833512517 ], [ 113.905983152841202, 30.611731549332266 ], [ 113.888016847158809, 30.611731549332266 ], [ 113.888016847158809, 30.596267833512517 ], [ 113.905983152841202, 30.596267833512517 ] ] ] } },
{ "type": "Feature", "properties": { "北京时间": "2026-05-11 20:00" }, "geometry": { "type": "Polygon", "coordinates": [ [ [ 113.69898315284118, 30.66827358621482 ], [ 113.69898315284118, 30.683725795779473 ], [ 113.681016847158787, 30.683725795779473 ], [ 113.681016847158787, 30.66827358621482 ], [ 113.69898315284118, 30.66827358621482 ] ] ] } },
{ "type": "Feature", "properties": { "北京时间": "2026-05-11 20:00" }, "geometry": { "type": "Polygon", "coordinates": [ [ [ 113.742983152841191, 30.44825604687307 ], [ 113.742983152841191, 30.463743337732158 ], [ 113.725016847158798, 30.463743337732158 ], [ 113.725016847158798, 30.44825604687307 ], [ 113.742983152841191, 30.44825604687307 ] ] ] } },
{ "type": "Feature", "properties": { "北京时间": "2026-05-11 20:00" }, "geometry": { "type": "Polygon", "coordinates": [ [ [ 113.713983152841195, 30.496259863908612 ], [ 113.713983152841195, 30.511739520123871 ], [ 113.696016847158802, 30.511739520123871 ], [ 113.696016847158802, 30.496259863908612 ], [ 113.713983152841195, 30.496259863908612 ] ] ] } },
{ "type": "Feature", "properties": { "北京时间": "2026-05-11 20:00" }, "geometry": { "type": "Polygon", "coordinates": [ [ [ 113.793983152841179, 30.468257636644108 ], [ 113.793983152841179, 30.483741747722256 ], [ 113.776016847158786, 30.483741747722256 ], [ 113.776016847158786, 30.468257636644108 ], [ 113.793983152841179, 30.468257636644108 ] ] ] } },
{ "type": "Feature", "properties": { "北京时间": "2026-05-11 20:00" }, "geometry": { "type": "Polygon", "coordinates": [ [ [ 113.759983152841201, 30.614269270543605 ], [ 113.759983152841201, 30.62973011208819 ], [ 113.742016847158808, 30.62973011208819 ], [ 113.742016847158808, 30.614269270543605 ], [ 113.759983152841201, 30.614269270543605 ] ] ] } },
{ "type": "Feature", "properties": { "北京时间": "2026-05-11 19:00" }, "geometry": { "type": "Polygon", "coordinates": [ [ [ 113.778983152841192, 30.430254616885986 ], [ 113.778983152841192, 30.445744767934489 ], [ 113.7610168471588, 30.445744767934489 ], [ 113.7610168471588, 30.430254616885986 ], [ 113.778983152841192, 30.430254616885986 ] ] ] } },
{ "type": "Feature", "properties": { "北京时间": "2026-05-11 19:00" }, "geometry": { "type": "Polygon", "coordinates": [ [ [ 113.653983152841178, 30.715277348034263 ], [ 113.653983152841178, 30.730722033406991 ], [ 113.636016847158785, 30.730722033406991 ], [ 113.636016847158785, 30.715277348034263 ], [ 113.653983152841178, 30.715277348034263 ] ] ] } },
{ "type": "Feature", "properties": { "北京时间": "2026-05-11 19:00" }, "geometry": { "type": "Polygon", "coordinates": [ [ [ 113.739983152841177, 30.720277748533707 ], [ 113.739983152841177, 30.735721632848787 ], [ 113.722016847158798, 30.735721632848787 ], [ 113.722016847158798, 30.720277748533707 ], [ 113.739983152841177, 30.720277748533707 ] ] ] } },
{ "type": "Feature", "properties": { "北京时间": "2026-05-11 19:00" }, "geometry": { "type": "Polygon", "coordinates": [ [ [ 114.167983152841217, 31.155312816795959 ], [ 114.167983152841217, 31.170686559548553 ], [ 114.15001684715881, 31.170686559548553 ], [ 114.15001684715881, 31.155312816795959 ], [ 114.167983152841217, 31.155312816795959 ] ] ] } },
{ "type": "Feature", "properties": { "北京时间": "2026-05-11 19:00" }, "geometry": { "type": "Polygon", "coordinates": [ [ [ 113.683983152841193, 30.529262491272245 ], [ 113.683983152841193, 30.54473689236746 ], [ 113.666016847158801, 30.54473689236746 ], [ 113.666016847158801, 30.529262491272245 ], [ 113.683983152841193, 30.529262491272245 ] ] ] } },
{ "type": "Feature", "properties": { "北京时间": "2026-05-11 19:00" }, "geometry": { "type": "Polygon", "coordinates": [ [ [ 113.692983152841194, 30.385251045263384 ], [ 113.692983152841194, 30.400748340096222 ], [ 113.675016847158801, 30.400748340096222 ], [ 113.675016847158801, 30.385251045263384 ], [ 113.692983152841194, 30.385251045263384 ] ] ] } },
{ "type": "Feature", "properties": { "北京时间": "2026-05-11 19:00" }, "geometry": { "type": "Polygon", "coordinates": [ [ [ 113.728983152841181, 30.416253505202356 ], [ 113.728983152841181, 30.431745879785673 ], [ 113.711016847158803, 30.431745879785673 ], [ 113.711016847158803, 30.416253505202356 ], [ 113.728983152841181, 30.416253505202356 ] ] ] } },
{ "type": "Feature", "properties": { "北京时间": "2026-05-11 19:00" }, "geometry": { "type": "Polygon", "coordinates": [ [ [ 113.749983152841182, 30.882290756522625 ], [ 113.749983152841182, 30.897708622966913 ], [ 113.732016847158789, 30.897708622966913 ], [ 113.732016847158789, 30.882290756522625 ], [ 113.749983152841182, 30.882290756522625 ] ] ] } },
{ "type": "Feature", "properties": { "北京时间": "2026-05-11 19:00" }, "geometry": { "type": "Polygon", "coordinates": [ [ [ 113.755983152841196, 30.65427246667787 ], [ 113.755983152841196, 30.669726915481515 ], [ 113.738016847158789, 30.669726915481515 ], [ 113.738016847158789, 30.65427246667787 ], [ 113.755983152841196, 30.65427246667787 ] ] ] } },
{ "type": "Feature", "properties": { "北京时间": "2026-05-11 19:00" }, "geometry": { "type": "Polygon", "coordinates": [ [ [ 113.621983152841182, 30.612269110835804 ], [ 113.621983152841182, 30.627730271819647 ], [ 113.604016847158803, 30.627730271819647 ], [ 113.604016847158803, 30.612269110835804 ], [ 113.621983152841182, 30.612269110835804 ] ] ] } },
{ "type": "Feature", "properties": { "北京时间": "2026-05-11 18:00" }, "geometry": { "type": "Polygon", "coordinates": [ [ [ 113.741983152841186, 30.903292447258568 ], [ 113.741983152841186, 30.918706931987071 ], [ 113.724016847158794, 30.918706931987071 ], [ 113.724016847158794, 30.903292447258568 ], [ 113.741983152841186, 30.903292447258568 ] ] ] } },
{ "type": "Feature", "properties": { "北京时间": "2026-05-11 18:00" }, "geometry": { "type": "Polygon", "coordinates": [ [ [ 113.585983152841195, 30.684274866250565 ], [ 113.585983152841195, 30.699724515555264 ], [ 113.568016847158802, 30.699724515555264 ], [ 113.568016847158802, 30.684274866250565 ], [ 113.585983152841195, 30.684274866250565 ] ] ] } },
{ "type": "Feature", "properties": { "北京时间": "2026-05-11 18:00" }, "geometry": { "type": "Polygon", "coordinates": [ [ [ 113.549983152841179, 30.564265280675173 ], [ 113.549983152841179, 30.579734102548855 ], [ 113.532016847158786, 30.579734102548855 ], [ 113.532016847158786, 30.564265280675173 ], [ 113.549983152841179, 30.564265280675173 ] ] ] } },
{ "type": "Feature", "properties": { "北京时间": "2026-05-11 18:00" }, "geometry": { "type": "Polygon", "coordinates": [ [ [ 113.664983152841202, 30.678274386166564 ], [ 113.664983152841202, 30.693724995709943 ], [ 113.647016847158824, 30.693724995709943 ], [ 113.647016847158824, 30.678274386166564 ], [ 113.664983152841202, 30.678274386166564 ] ] ] } },
{ "type": "Feature", "properties": { "北京时间": "2026-05-11 18:00" }, "geometry": { "type": "Polygon", "coordinates": [ [ [ 113.70498315284118, 30.615269350401046 ], [ 113.70498315284118, 30.630730032218924 ], [ 113.687016847158787, 30.630730032218924 ], [ 113.687016847158787, 30.615269350401046 ], [ 113.70498315284118, 30.615269350401046 ] ] ] } },
{ "type": "Feature", "properties": { "北京时间": "2026-05-11 17:00" }, "geometry": { "type": "Polygon", "coordinates": [ [ [ 114.383983152841182, 31.406333253340286 ], [ 114.383983152841182, 31.421666120162591 ], [ 114.366016847158804, 31.421666120162591 ], [ 114.366016847158804, 31.406333253340286 ], [ 114.383983152841182, 31.406333253340286 ] ] ] } },
{ "type": "Feature", "properties": { "北京时间": "2026-05-11 17:00" }, "geometry": { "type": "Polygon", "coordinates": [ [ [ 113.758983152841196, 30.937295186835961 ], [ 113.758983152841196, 30.952704192015425 ], [ 113.741016847158804, 30.952704192015425 ], [ 113.741016847158804, 30.937295186835961 ], [ 113.758983152841196, 30.937295186835961 ] ] ] } },
{ "type": "Feature", "properties": { "北京时间": "2026-05-11 17:00" }, "geometry": { "type": "Polygon", "coordinates": [ [ [ 113.589983152841185, 30.638271187772059 ], [ 113.589983152841185, 30.653728194576122 ], [ 113.572016847158793, 30.653728194576122 ], [ 113.572016847158793, 30.638271187772059 ], [ 113.589983152841185, 30.638271187772059 ] ] ] } },
{ "type": "Feature", "properties": { "北京时间": "2026-05-11 17:00" }, "geometry": { "type": "Polygon", "coordinates": [ [ [ 113.484983152841181, 30.521261854099851 ], [ 113.484983152841181, 30.536737529634998 ], [ 113.467016847158789, 30.536737529634998 ], [ 113.467016847158789, 30.521261854099851 ], [ 113.484983152841181, 30.521261854099851 ] ] ] } },
{ "type": "Feature", "properties": { "北京时间": "2026-05-11 17:00" }, "geometry": { "type": "Polygon", "coordinates": [ [ [ 113.529983152841183, 30.648271987017555 ], [ 113.529983152841183, 30.6637273952126 ], [ 113.51201684715879, 30.6637273952126 ], [ 113.51201684715879, 30.648271987017555 ], [ 113.529983152841183, 30.648271987017555 ] ] ] } },
{ "type": "Feature", "properties": { "北京时间": "2026-05-11 17:00" }, "geometry": { "type": "Polygon", "coordinates": [ [ [ 113.643983152841201, 30.584266875915802 ], [ 113.643983152841201, 30.599732507071121 ], [ 113.626016847158809, 30.599732507071121 ], [ 113.626016847158809, 30.584266875915802 ], [ 113.643983152841201, 30.584266875915802 ] ] ] } },
{ "type": "Feature", "properties": { "北京时间": "2026-05-11 16:00" }, "geometry": { "type": "Polygon", "coordinates": [ [ [ 114.483983152841176, 31.551345126395525 ], [ 114.483983152841176, 31.566654245487662 ], [ 114.466016847158784, 31.566654245487662 ], [ 114.466016847158784, 31.551345126395525 ], [ 114.483983152841176, 31.551345126395525 ] ] ] } },
{ "type": "Feature", "properties": { "北京时间": "2026-05-11 16:00" }, "geometry": { "type": "Polygon", "coordinates": [ [ [ 113.808983152841179, 30.991299543506283 ], [ 113.808983152841179, 31.006699834720781 ], [ 113.791016847158787, 31.006699834720781 ], [ 113.791016847158787, 30.991299543506283 ], [ 113.808983152841179, 30.991299543506283 ] ] ] } },
{ "type": "Feature", "properties": { "北京时间": "2026-05-11 16:00" }, "geometry": { "type": "Polygon", "coordinates": [ [ [ 113.516983152841192, 30.598267993144951 ], [ 113.516983152841192, 30.61373138967615 ], [ 113.499016847158799, 30.61373138967615 ], [ 113.499016847158799, 30.598267993144951 ], [ 113.516983152841192, 30.598267993144951 ] ] ] } },
{ "type": "Feature", "properties": { "北京时间": "2026-05-11 16:00" }, "geometry": { "type": "Polygon", "coordinates": [ [ [ 113.486983152841177, 30.609268871291757 ], [ 113.486983152841177, 30.624730511399179 ], [ 113.469016847158798, 30.624730511399179 ], [ 113.469016847158798, 30.609268871291757 ], [ 113.486983152841177, 30.609268871291757 ] ] ] } },
{ "type": "Feature", "properties": { "北京时间": "2026-05-11 16:00" }, "geometry": { "type": "Polygon", "coordinates": [ [ [ 113.572983152841189, 30.55726472256363 ], [ 113.572983152841189, 30.572734660743464 ], [ 113.555016847158782, 30.572734660743464 ], [ 113.555016847158782, 30.55726472256363 ], [ 113.572983152841189, 30.55726472256363 ] ] ] } },
{ "type": "Feature", "properties": { "北京时间": "2026-05-11 15:00" }, "geometry": { "type": "Polygon", "coordinates": [ [ [ 114.571983152841199, 31.705357790089106 ], [ 114.571983152841199, 31.720641580091524 ], [ 114.554016847158806, 31.720641580091524 ], [ 114.554016847158806, 31.705357790089106 ], [ 114.571983152841199, 31.705357790089106 ] ] ] } },
{ "type": "Feature", "properties": { "北京时间": "2026-05-11 15:00" }, "geometry": { "type": "Polygon", "coordinates": [ [ [ 113.495983152841177, 30.534262889581615 ], [ 113.495983152841177, 30.549736493998658 ], [ 113.478016847158784, 30.549736493998658 ], [ 113.478016847158784, 30.534262889581615 ], [ 113.495983152841177, 30.534262889581615 ] ] ] } },
{ "type": "Feature", "properties": { "北京时间": "2026-05-11 15:00" }, "geometry": { "type": "Polygon", "coordinates": [ [ [ 113.894983152841178, 31.069305848550606 ], [ 113.894983152841178, 31.084693528778558 ], [ 113.877016847158799, 31.084693528778558 ], [ 113.877016847158799, 31.069305848550606 ], [ 113.894983152841178, 31.069305848550606 ] ] ] } },
{ "type": "Feature", "properties": { "北京时间": "2026-05-11 15:00" }, "geometry": { "type": "Polygon", "coordinates": [ [ [ 113.456983152841175, 30.583266796131387 ], [ 113.456983152841175, 30.598732586867378 ], [ 113.439016847158783, 30.598732586867378 ], [ 113.439016847158783, 30.583266796131387 ], [ 113.456983152841175, 30.583266796131387 ] ] ] } },
{ "type": "Feature", "properties": { "北京时间": "2026-05-11 15:00" }, "geometry": { "type": "Polygon", "coordinates": [ [ [ 113.448983152841194, 30.555264563124396 ], [ 113.448983152841194, 30.570734820206429 ], [ 113.431016847158801, 30.570734820206429 ], [ 113.431016847158801, 30.555264563124396 ], [ 113.448983152841194, 30.555264563124396 ] ] ] } },
{ "type": "Feature", "properties": { "北京时间": "2026-05-11 14:00" }, "geometry": { "type": "Polygon", "coordinates": [ [ [ 114.003983152841201, 31.166313709332904 ], [ 114.003983152841201, 31.181685666886068 ], [ 113.986016847158808, 31.181685666886068 ], [ 113.986016847158808, 31.166313709332904 ], [ 114.003983152841201, 31.166313709332904 ] ] ] } },
{ "type": "Feature", "properties": { "北京时间": "2026-05-11 14:00" }, "geometry": { "type": "Polygon", "coordinates": [ [ [ 113.44298315284118, 30.589267274873201 ], [ 113.44298315284118, 30.604732108054474 ], [ 113.425016847158787, 30.604732108054474 ], [ 113.425016847158787, 30.589267274873201 ], [ 113.44298315284118, 30.589267274873201 ] ] ] } },
{ "type": "Feature", "properties": { "北京时间": "2026-05-11 13:00" }, "geometry": { "type": "Polygon", "coordinates": [ [ [ 114.118983152841196, 31.29432411604024 ], [ 114.118983152841196, 31.309675258724674 ], [ 114.101016847158803, 31.309675258724674 ], [ 114.101016847158803, 31.29432411604024 ], [ 114.118983152841196, 31.29432411604024 ] ] ] } },
{ "type": "Feature", "properties": { "北京时间": "2026-05-11 12:00" }, "geometry": { "type": "Polygon", "coordinates": [ [ [ 114.225983152841195, 31.442336196553601 ], [ 114.225983152841195, 31.457663176545655 ], [ 114.208016847158802, 31.457663176545655 ], [ 114.208016847158802, 31.442336196553601 ], [ 114.225983152841195, 31.442336196553601 ] ] ] } },
{ "type": "Feature", "properties": { "北京时间": "2026-05-11 12:00" }, "geometry": { "type": "Polygon", "coordinates": [ [ [ 113.487983152841196, 30.686275026297402 ], [ 113.487983152841196, 30.701724355484888 ], [ 113.470016847158789, 30.701724355484888 ], [ 113.470016847158789, 30.686275026297402 ], [ 113.487983152841196, 30.686275026297402 ] ] ] } },
{ "type": "Feature", "properties": { "北京时间": "2026-05-11 11:00" }, "geometry": { "type": "Polygon", "coordinates": [ [ [ 114.319983152841189, 31.605349560619484 ], [ 114.319983152841189, 31.620649810664631 ], [ 114.302016847158811, 31.620649810664631 ], [ 114.302016847158811, 31.605349560619484 ], [ 114.319983152841189, 31.605349560619484 ] ] ] } },
{ "type": "Feature", "properties": { "北京时间": "2026-05-11 11:00" }, "geometry": { "type": "Polygon", "coordinates": [ [ [ 113.571983152841185, 30.767281516103075 ], [ 113.571983152841185, 30.782717864728188 ], [ 113.554016847158792, 30.782717864728188 ], [ 113.554016847158792, 30.767281516103075 ], [ 113.571983152841185, 30.767281516103075 ] ] ] } },
{ "type": "Feature", "properties": { "北京时间": "2026-05-11 10:00" }, "geometry": { "type": "Polygon", "coordinates": [ [ [ 113.687983152841184, 30.883290837010374 ], [ 113.687983152841184, 30.898708542467542 ], [ 113.670016847158792, 30.898708542467542 ], [ 113.670016847158792, 30.883290837010374 ], [ 113.687983152841184, 30.883290837010374 ] ] ] } },
{ "type": "Feature", "properties": { "北京时间": "2026-05-11 09:00" }, "geometry": { "type": "Polygon", "coordinates": [ [ [ 113.813983152841189, 31.032302855917553 ], [ 113.813983152841189, 31.04769652183694 ], [ 113.79601684715881, 31.04769652183694 ], [ 113.79601684715881, 31.032302855917553 ], [ 113.813983152841189, 31.032302855917553 ] ] ] } },
{ "type": "Feature", "properties": { "北京时间": "2026-05-11 08:00" }, "geometry": { "type": "Polygon", "coordinates": [ [ [ 113.920983152841188, 31.190315657669696 ], [ 113.920983152841188, 31.205683718275676 ], [ 113.90301684715881, 31.205683718275676 ], [ 113.90301684715881, 31.190315657669696 ], [ 113.920983152841188, 31.190315657669696 ] ] ] } },
{ "type": "Feature", "properties": { "北京时间": "2026-05-11 07:00" }, "geometry": { "type": "Polygon", "coordinates": [ [ [ 114.019983152841192, 31.367330068275209 ], [ 114.019983152841192, 31.382669305666038 ], [ 114.002016847158799, 31.382669305666038 ], [ 114.002016847158799, 31.367330068275209 ], [ 114.019983152841192, 31.367330068275209 ] ] ] } },
{ "type": "Feature", "properties": { "北京时间": "2026-05-11 06:00" }, "geometry": { "type": "Polygon", "coordinates": [ [ [ 114.1139831528412, 31.544344552086539 ], [ 114.1139831528412, 31.559654819874481 ], [ 114.096016847158808, 31.559654819874481 ], [ 114.096016847158808, 31.544344552086539 ], [ 114.1139831528412, 31.544344552086539 ] ] ] } },
{ "type": "Feature", "properties": { "北京时间": "2026-05-11 06:00" }, "geometry": { "type": "Polygon", "coordinates": [ [ [ 113.461983152841199, 30.667273506232597 ], [ 113.461983152841199, 30.682725875773485 ], [ 113.444016847158807, 30.682725875773485 ], [ 113.444016847158807, 30.667273506232597 ], [ 113.461983152841199, 30.667273506232597 ] ] ] } },
{ "type": "Feature", "properties": { "北京时间": "2026-05-11 05:00" }, "geometry": { "type": "Polygon", "coordinates": [ [ [ 113.57998315284118, 30.788283201164241 ], [ 113.57998315284118, 30.803716179421276 ], [ 113.562016847158787, 30.803716179421276 ], [ 113.562016847158787, 30.788283201164241 ], [ 113.57998315284118, 30.788283201164241 ] ] ] } },
{ "type": "Feature", "properties": { "北京时间": "2026-05-11 05:00" }, "geometry": { "type": "Polygon", "coordinates": [ [ [ 114.20698315284119, 31.71935894407336 ], [ 114.20698315284119, 31.734640425953387 ], [ 114.189016847158797, 31.734640425953387 ], [ 114.189016847158797, 31.71935894407336 ], [ 114.20698315284119, 31.71935894407336 ] ] ] } },
{ "type": "Feature", "properties": { "北京时间": "2026-05-11 04:00" }, "geometry": { "type": "Polygon", "coordinates": [ [ [ 113.676983152841188, 30.941295509317605 ], [ 113.676983152841188, 30.956703869487473 ], [ 113.659016847158796, 30.956703869487473 ], [ 113.659016847158796, 30.941295509317605 ], [ 113.676983152841188, 30.941295509317605 ] ] ] } },
{ "type": "Feature", "properties": { "北京时间": "2026-05-11 03:00" }, "geometry": { "type": "Polygon", "coordinates": [ [ [ 113.750983152841201, 31.120309978791084 ], [ 113.750983152841201, 31.135689397953474 ], [ 113.733016847158808, 31.135689397953474 ], [ 113.733016847158808, 31.120309978791084 ], [ 113.750983152841201, 31.120309978791084 ] ] ] } },
{ "type": "Feature", "properties": { "北京时间": "2026-05-11 02:00" }, "geometry": { "type": "Polygon", "coordinates": [ [ [ 113.813983152841189, 31.305325012155176 ], [ 113.813983152841189, 31.320674362485377 ], [ 113.79601684715881, 31.320674362485377 ], [ 113.79601684715881, 31.305325012155176 ], [ 113.813983152841189, 31.305325012155176 ] ] ] } },
{ "type": "Feature", "properties": { "北京时间": "2026-05-11 00:00" }, "geometry": { "type": "Polygon", "coordinates": [ [ [ 113.443983152841184, 30.900292205661454 ], [ 113.443983152841184, 30.915707173618994 ], [ 113.426016847158792, 30.915707173618994 ], [ 113.426016847158792, 30.900292205661454 ], [ 113.443983152841184, 30.900292205661454 ] ] ] } },
{ "type": "Feature", "properties": { "北京时间": "2026-05-10 23:00" }, "geometry": { "type": "Polygon", "coordinates": [ [ [ 113.535983152841197, 31.125310384044663 ], [ 113.535983152841197, 31.140688992642684 ], [ 113.51801684715879, 31.140688992642684 ], [ 113.51801684715879, 31.125310384044663 ], [ 113.535983152841197, 31.125310384044663 ] ] ] } },
{ "type": "Feature", "properties": { "北京时间": "2026-05-10 22:00" }, "geometry": { "type": "Polygon", "coordinates": [ [ [ 113.607983152841214, 31.356329170566053 ], [ 113.607983152841214, 31.371670203499061 ], [ 113.590016847158807, 31.371670203499061 ], [ 113.590016847158807, 31.356329170566053 ], [ 113.607983152841214, 31.356329170566053 ] ] ] } },
{ "type": "Feature", "properties": { "北京时间": "2026-05-10 07:00" }, "geometry": { "type": "Polygon", "coordinates": [ [ [ 113.444983152841218, 30.724278068975615 ], [ 113.444983152841218, 30.73972131235989 ], [ 113.427016847158811, 30.73972131235989 ], [ 113.427016847158811, 30.724278068975615 ], [ 113.444983152841218, 30.724278068975615 ] ] ] } },
{ "type": "Feature", "properties": { "北京时间": "2026-05-10 06:00" }, "geometry": { "type": "Polygon", "coordinates": [ [ [ 113.497983152841201, 30.968297687050875 ], [ 113.497983152841201, 30.98370169144183 ], [ 113.480016847158808, 30.98370169144183 ], [ 113.480016847158808, 30.968297687050875 ], [ 113.497983152841201, 30.968297687050875 ] ] ] } },
{ "type": "Feature", "properties": { "北京时间": "2026-05-10 05:00" }, "geometry": { "type": "Polygon", "coordinates": [ [ [ 113.574983152841185, 31.211317363570569 ], [ 113.574983152841185, 31.226682012135807 ], [ 113.557016847158806, 31.226682012135807 ], [ 113.557016847158806, 31.211317363570569 ], [ 113.574983152841185, 31.211317363570569 ] ] ] } },
{ "type": "Feature", "properties": { "北京时间": "2026-05-10 04:00" }, "geometry": { "type": "Polygon", "coordinates": [ [ [ 113.710983152841195, 31.434335542244654 ], [ 113.710983152841195, 31.44966383094421 ], [ 113.693016847158802, 31.44966383094421 ], [ 113.693016847158802, 31.434335542244654 ], [ 113.710983152841195, 31.434335542244654 ] ] ] } }
]
}
