{
"type": "FeatureCollection",
"name": "天仙南路",
"crs": { "type": "name", "properties": { "name": "urn:ogc:def:crs:OGC:1.3:CRS84" } },
"features": [
{ "type": "Feature", "properties": { "北京时间": "2026-05-15 06:00" }, "geometry": { "type": "Polygon", "coordinates": [ [ [ 113.95498315284118, 30.892291561505822 ], [ 113.95498315284118, 30.907707817867532 ], [ 113.937016847158787, 30.907707817867532 ], [ 113.937016847158787, 30.892291561505822 ], [ 113.95498315284118, 30.892291561505822 ] ] ] } },
{ "type": "Feature", "properties": { "北京时间": "2026-05-15 05:00" }, "geometry": { "type": "Polygon", "coordinates": [ [ [ 113.764983152841211, 30.805284566020731 ], [ 113.764983152841211, 30.820714814366074 ], [ 113.747016847158804, 30.820714814366074 ], [ 113.747016847158804, 30.805284566020731 ], [ 113.764983152841211, 30.805284566020731 ] ] ] } },
{ "type": "Feature", "properties": { "北京时间": "2026-05-15 05:00" }, "geometry": { "type": "Polygon", "coordinates": [ [ [ 114.017983152841197, 30.915293413858322 ], [ 114.017983152841197, 30.930705965248041 ], [ 114.000016847158804, 30.930705965248041 ], [ 114.000016847158804, 30.915293413858322 ], [ 114.017983152841197, 30.915293413858322 ] ] ] } },
{ "type": "Feature", "properties": { "北京时间": "2026-05-15 05:00" }, "geometry": { "type": "Polygon", "coordinates": [ [ [ 113.975983152841209, 30.826286252957775 ], [ 113.975983152841209, 30.841713127183869 ], [ 113.958016847158802, 30.841713127183869 ], [ 113.958016847158802, 30.826286252957775 ], [ 113.975983152841209, 30.826286252957775 ] ] ] } },
{ "type": "Feature", "properties": { "北京时间": "2026-05-15 05:00" }, "geometry": { "type": "Polygon", "coordinates": [ [ [ 114.011983152841196, 30.931294703183923 ], [ 114.011983152841196, 30.946704675736964 ], [ 113.994016847158804, 30.946704675736964 ], [ 113.994016847158804, 30.931294703183923 ], [ 114.011983152841196, 30.931294703183923 ] ] ] } },
{ "type": "Feature", "properties": { "北京时间": "2026-05-15 05:00" }, "geometry": { "type": "Polygon", "coordinates": [ [ [ 114.057983152841203, 30.842287538938777 ], [ 114.057983152841203, 30.857711841016329 ], [ 114.04001684715881, 30.857711841016329 ], [ 114.04001684715881, 30.842287538938777 ], [ 114.057983152841203, 30.842287538938777 ] ] ] } },
{ "type": "Feature", "properties": { "北京时间": "2026-05-15 05:00" }, "geometry": { "type": "Polygon", "coordinates": [ [ [ 113.996983152841182, 30.927294380796173 ], [ 113.996983152841182, 30.94270499817106 ], [ 113.979016847158789, 30.94270499817106 ], [ 113.979016847158789, 30.927294380796173 ], [ 113.996983152841182, 30.927294380796173 ] ] ] } },
{ "type": "Feature", "properties": { "北京时间": "2026-05-15 05:00" }, "geometry": { "type": "Polygon", "coordinates": [ [ [ 114.012983152841201, 30.831286654762224 ], [ 114.012983152841201, 30.846712725321122 ], [ 113.995016847158809, 30.846712725321122 ], [ 113.995016847158809, 30.831286654762224 ], [ 114.012983152841201, 30.831286654762224 ] ] ] } },
{ "type": "Feature", "properties": { "北京时间": "2026-05-15 05:00" }, "geometry": { "type": "Polygon", "coordinates": [ [ [ 113.960983152841195, 30.885290997992922 ], [ 113.960983152841195, 30.900708381461754 ], [ 113.943016847158802, 30.900708381461754 ], [ 113.943016847158802, 30.885290997992922 ], [ 113.960983152841195, 30.885290997992922 ] ] ] } },
{ "type": "Feature", "properties": { "北京时间": "2026-05-15 05:00" }, "geometry": { "type": "Polygon", "coordinates": [ [ [ 113.987983152841181, 30.816285449525161 ], [ 113.987983152841181, 30.831713930733198 ], [ 113.970016847158803, 30.831713930733198 ], [ 113.970016847158803, 30.816285449525161 ], [ 113.987983152841181, 30.816285449525161 ] ] ] } },
{ "type": "Feature", "properties": { "北京时间": "2026-05-15 05:00" }, "geometry": { "type": "Polygon", "coordinates": [ [ [ 113.991983152841186, 30.797283923650699 ], [ 113.991983152841186, 30.812715456829597 ], [ 113.974016847158794, 30.812715456829597 ], [ 113.974016847158794, 30.797283923650699 ], [ 113.991983152841186, 30.797283923650699 ] ] ] } },
{ "type": "Feature", "properties": { "北京时间": "2026-05-15 05:00" }, "geometry": { "type": "Polygon", "coordinates": [ [ [ 114.127983152841196, 30.775282157908876 ], [ 114.127983152841196, 30.790717222828729 ], [ 114.110016847158803, 30.790717222828729 ], [ 114.110016847158803, 30.775282157908876 ], [ 114.127983152841196, 30.775282157908876 ] ] ] } },
{ "type": "Feature", "properties": { "北京时间": "2026-05-15 05:00" }, "geometry": { "type": "Polygon", "coordinates": [ [ [ 113.911983152841188, 30.817285529857848 ], [ 113.911983152841188, 30.832713850388842 ], [ 113.894016847158809, 30.832713850388842 ], [ 113.894016847158809, 30.817285529857848 ], [ 113.911983152841188, 30.817285529857848 ] ] ] } },
{ "type": "Feature", "properties": { "北京时间": "2026-05-15 05:00" }, "geometry": { "type": "Polygon", "coordinates": [ [ [ 114.062983152841198, 30.886291078487726 ], [ 114.062983152841198, 30.901708300955345 ], [ 114.045016847158806, 30.901708300955345 ], [ 114.045016847158806, 30.886291078487726 ], [ 114.062983152841198, 30.886291078487726 ] ] ] } },
{ "type": "Feature", "properties": { "北京时间": "2026-05-15 05:00" }, "geometry": { "type": "Polygon", "coordinates": [ [ [ 113.921983152841193, 30.836287056625402 ], [ 113.921983152841193, 30.851712323399624 ], [ 113.9040168471588, 30.851712323399624 ], [ 113.9040168471588, 30.836287056625402 ], [ 113.921983152841193, 30.836287056625402 ] ] ] } },
{ "type": "Feature", "properties": { "北京时间": "2026-05-15 05:00" }, "geometry": { "type": "Polygon", "coordinates": [ [ [ 113.903983152841192, 30.862289147260878 ], [ 113.903983152841192, 30.877710232461293 ], [ 113.886016847158785, 30.877710232461293 ], [ 113.886016847158785, 30.862289147260878 ], [ 113.903983152841192, 30.862289147260878 ] ] ] } },
{ "type": "Feature", "properties": { "北京时间": "2026-05-15 05:00" }, "geometry": { "type": "Polygon", "coordinates": [ [ [ 114.004983152841177, 30.967297606363577 ], [ 114.004983152841177, 30.98270177214069 ], [ 113.987016847158785, 30.98270177214069 ], [ 113.987016847158785, 30.967297606363577 ], [ 114.004983152841177, 30.967297606363577 ] ] ] } },
{ "type": "Feature", "properties": { "北京时间": "2026-05-15 05:00" }, "geometry": { "type": "Polygon", "coordinates": [ [ [ 114.038983152841197, 30.9122931721767 ], [ 114.038983152841197, 30.927706206964498 ], [ 114.021016847158805, 30.927706206964498 ], [ 114.021016847158805, 30.9122931721767 ], [ 114.038983152841197, 30.9122931721767 ] ] ] } },
{ "type": "Feature", "properties": { "北京时间": "2026-05-15 05:00" }, "geometry": { "type": "Polygon", "coordinates": [ [ [ 114.010983152841192, 30.928294461389601 ], [ 114.010983152841192, 30.943704917566063 ], [ 113.993016847158799, 30.943704917566063 ], [ 113.993016847158799, 30.928294461389601 ], [ 114.010983152841192, 30.928294461389601 ] ] ] } },
{ "type": "Feature", "properties": { "北京时间": "2026-05-15 05:00" }, "geometry": { "type": "Polygon", "coordinates": [ [ [ 114.038983152841197, 30.936295106221419 ], [ 114.038983152841197, 30.951704272641553 ], [ 114.021016847158805, 30.951704272641553 ], [ 114.021016847158805, 30.936295106221419 ], [ 114.038983152841197, 30.936295106221419 ] ] ] } },
{ "type": "Feature", "properties": { "北京时间": "2026-05-15 05:00" }, "geometry": { "type": "Polygon", "coordinates": [ [ [ 113.989983152841177, 30.924294139030021 ], [ 113.989983152841177, 30.939705239971985 ], [ 113.972016847158798, 30.939705239971985 ], [ 113.972016847158798, 30.924294139030021 ], [ 113.989983152841177, 30.924294139030021 ] ] ] } },
{ "type": "Feature", "properties": { "北京时间": "2026-05-15 04:00" }, "geometry": { "type": "Polygon", "coordinates": [ [ [ 114.135983152841192, 30.925294219616401 ], [ 114.135983152841192, 30.94070515937403 ], [ 114.118016847158799, 30.94070515937403 ], [ 114.118016847158799, 30.925294219616401 ], [ 114.135983152841192, 30.925294219616401 ] ] ] } },
{ "type": "Feature", "properties": { "北京时间": "2026-05-15 04:00" }, "geometry": { "type": "Polygon", "coordinates": [ [ [ 113.852983152841176, 30.831286654762224 ], [ 113.852983152841176, 30.846712725321122 ], [ 113.835016847158784, 30.846712725321122 ], [ 113.835016847158784, 30.831286654762224 ], [ 113.852983152841176, 30.831286654762224 ] ] ] } },
{ "type": "Feature", "properties": { "北京时间": "2026-05-15 04:00" }, "geometry": { "type": "Polygon", "coordinates": [ [ [ 113.944983152841203, 30.854288503819255 ], [ 113.944983152841203, 30.869710875996034 ], [ 113.927016847158811, 30.869710875996034 ], [ 113.927016847158811, 30.854288503819255 ], [ 113.944983152841203, 30.854288503819255 ] ] ] } },
{ "type": "Feature", "properties": { "北京时间": "2026-05-15 04:00" }, "geometry": { "type": "Polygon", "coordinates": [ [ [ 114.120983152841177, 30.924294139030021 ], [ 114.120983152841177, 30.939705239971985 ], [ 114.103016847158784, 30.939705239971985 ], [ 114.103016847158784, 30.924294139030021 ], [ 114.120983152841177, 30.924294139030021 ] ] ] } },
{ "type": "Feature", "properties": { "北京时间": "2026-05-15 04:00" }, "geometry": { "type": "Polygon", "coordinates": [ [ [ 114.080983152841185, 30.966297525678637 ], [ 114.080983152841185, 30.981701852837197 ], [ 114.063016847158792, 30.981701852837197 ], [ 114.063016847158792, 30.966297525678637 ], [ 114.080983152841185, 30.966297525678637 ] ] ] } },
{ "type": "Feature", "properties": { "北京时间": "2026-05-15 04:00" }, "geometry": { "type": "Polygon", "coordinates": [ [ [ 114.071983152841213, 30.964297364315772 ], [ 114.071983152841213, 30.979702014223179 ], [ 114.054016847158806, 30.979702014223179 ], [ 114.054016847158806, 30.964297364315772 ], [ 114.071983152841213, 30.964297364315772 ] ] ] } },
{ "type": "Feature", "properties": { "北京时间": "2026-05-15 04:00" }, "geometry": { "type": "Polygon", "coordinates": [ [ [ 114.016983152841178, 30.951296315685994 ], [ 114.016983152841178, 30.966703063003326 ], [ 113.999016847158785, 30.966703063003326 ], [ 113.999016847158785, 30.951296315685994 ], [ 114.016983152841178, 30.951296315685994 ] ] ] } },
{ "type": "Feature", "properties": { "北京时间": "2026-05-15 04:00" }, "geometry": { "type": "Polygon", "coordinates": [ [ [ 113.8669831528412, 30.755280553676567 ], [ 113.8669831528412, 30.770718827295283 ], [ 113.849016847158808, 30.770718827295283 ], [ 113.849016847158808, 30.755280553676567 ], [ 113.8669831528412, 30.755280553676567 ] ] ] } },
{ "type": "Feature", "properties": { "北京时间": "2026-05-15 04:00" }, "geometry": { "type": "Polygon", "coordinates": [ [ [ 113.632983152841177, 30.698275986776082 ], [ 113.632983152841177, 30.713723394865003 ], [ 113.615016847158799, 30.713723394865003 ], [ 113.615016847158799, 30.698275986776082 ], [ 113.632983152841177, 30.698275986776082 ] ] ] } },
{ "type": "Feature", "properties": { "北京时间": "2026-05-15 04:00" }, "geometry": { "type": "Polygon", "coordinates": [ [ [ 113.881983152841187, 30.730278549709066 ], [ 113.881983152841187, 30.745720831556003 ], [ 113.864016847158794, 30.745720831556003 ], [ 113.864016847158794, 30.730278549709066 ], [ 113.881983152841187, 30.730278549709066 ] ] ] } },
{ "type": "Feature", "properties": { "北京时间": "2026-05-15 04:00" }, "geometry": { "type": "Polygon", "coordinates": [ [ [ 114.098983152841186, 30.770281756762618 ], [ 114.098983152841186, 30.785717624033524 ], [ 114.081016847158793, 30.785717624033524 ], [ 114.081016847158793, 30.770281756762618 ], [ 114.098983152841186, 30.770281756762618 ] ] ] } },
{ "type": "Feature", "properties": { "北京时间": "2026-05-15 04:00" }, "geometry": { "type": "Polygon", "coordinates": [ [ [ 114.041983152841183, 31.042303664420785 ], [ 114.041983152841183, 31.057695713218674 ], [ 114.024016847158791, 31.057695713218674 ], [ 114.024016847158791, 31.042303664420785 ], [ 114.041983152841183, 31.042303664420785 ] ] ] } },
{ "type": "Feature", "properties": { "北京时间": "2026-05-15 04:00" }, "geometry": { "type": "Polygon", "coordinates": [ [ [ 114.120983152841177, 30.986299139823448 ], [ 114.120983152841177, 31.001700238461336 ], [ 114.103016847158784, 31.001700238461336 ], [ 114.103016847158784, 30.986299139823448 ], [ 114.120983152841177, 30.986299139823448 ] ] ] } },
{ "type": "Feature", "properties": { "北京时间": "2026-05-15 04:00" }, "geometry": { "type": "Polygon", "coordinates": [ [ [ 114.155983152841202, 30.803284405414121 ], [ 114.155983152841202, 30.818714974996055 ], [ 114.138016847158809, 30.818714974996055 ], [ 114.138016847158809, 30.803284405414121 ], [ 114.155983152841202, 30.803284405414121 ] ] ] } },
{ "type": "Feature", "properties": { "北京时间": "2026-05-15 04:00" }, "geometry": { "type": "Polygon", "coordinates": [ [ [ 114.028983152841192, 30.95829688028352 ], [ 114.028983152841192, 30.973702498324819 ], [ 114.0110168471588, 30.973702498324819 ], [ 114.0110168471588, 30.95829688028352 ], [ 114.028983152841192, 30.95829688028352 ] ] ] } },
{ "type": "Feature", "properties": { "北京时间": "2026-05-15 04:00" }, "geometry": { "type": "Polygon", "coordinates": [ [ [ 114.08598315284118, 30.933294864391883 ], [ 114.08598315284118, 30.948704514505835 ], [ 114.068016847158802, 30.948704514505835 ], [ 114.068016847158802, 30.933294864391883 ], [ 114.08598315284118, 30.933294864391883 ] ] ] } },
{ "type": "Feature", "properties": { "北京时间": "2026-05-15 03:00" }, "geometry": { "type": "Polygon", "coordinates": [ [ [ 113.803983152841198, 30.788283201164241 ], [ 113.803983152841198, 30.803716179421276 ], [ 113.786016847158791, 30.803716179421276 ], [ 113.786016847158791, 30.788283201164241 ], [ 113.803983152841198, 30.788283201164241 ] ] ] } },
{ "type": "Feature", "properties": { "北京时间": "2026-05-15 03:00" }, "geometry": { "type": "Polygon", "coordinates": [ [ [ 113.523983152841183, 30.569265679396977 ], [ 113.523983152841183, 30.584733703767753 ], [ 113.506016847158804, 30.584733703767753 ], [ 113.506016847158804, 30.569265679396977 ], [ 113.523983152841183, 30.569265679396977 ] ] ] } },
{ "type": "Feature", "properties": { "北京时间": "2026-05-15 03:00" }, "geometry": { "type": "Polygon", "coordinates": [ [ [ 114.154983152841197, 30.938295267452855 ], [ 114.154983152841197, 30.953704111386966 ], [ 114.137016847158804, 30.953704111386966 ], [ 114.137016847158804, 30.938295267452855 ], [ 114.154983152841197, 30.938295267452855 ] ] ] } },
{ "type": "Feature", "properties": { "北京时间": "2026-05-15 03:00" }, "geometry": { "type": "Polygon", "coordinates": [ [ [ 113.771983152841187, 30.666273426252733 ], [ 113.771983152841187, 30.681725955765156 ], [ 113.754016847158795, 30.681725955765156 ], [ 113.754016847158795, 30.666273426252733 ], [ 113.771983152841187, 30.666273426252733 ] ] ] } },
{ "type": "Feature", "properties": { "北京时间": "2026-05-15 03:00" }, "geometry": { "type": "Polygon", "coordinates": [ [ [ 113.879983152841191, 30.650272146894906 ], [ 113.879983152841191, 30.665727235311646 ], [ 113.862016847158799, 30.665727235311646 ], [ 113.862016847158799, 30.650272146894906 ], [ 113.879983152841191, 30.650272146894906 ] ] ] } },
{ "type": "Feature", "properties": { "北京时间": "2026-05-15 03:00" }, "geometry": { "type": "Polygon", "coordinates": [ [ [ 114.160983152841197, 30.984298978366734 ], [ 114.160983152841197, 30.999700399941148 ], [ 114.14301684715879, 30.999700399941148 ], [ 114.14301684715879, 30.984298978366734 ], [ 114.160983152841197, 30.984298978366734 ] ] ] } },
{ "type": "Feature", "properties": { "北京时间": "2026-05-15 03:00" }, "geometry": { "type": "Polygon", "coordinates": [ [ [ 114.033983152841188, 30.980298655481452 ], [ 114.033983152841188, 30.995700722872613 ], [ 114.016016847158795, 30.995700722872613 ], [ 114.016016847158795, 30.980298655481452 ], [ 114.033983152841188, 30.980298655481452 ] ] ] } },
{ "type": "Feature", "properties": { "北京时间": "2026-05-15 03:00" }, "geometry": { "type": "Polygon", "coordinates": [ [ [ 113.927983152841193, 30.798284003938729 ], [ 113.927983152841193, 30.813715376529888 ], [ 113.910016847158801, 30.813715376529888 ], [ 113.910016847158801, 30.798284003938729 ], [ 113.927983152841193, 30.798284003938729 ] ] ] } },
{ "type": "Feature", "properties": { "北京时间": "2026-05-15 03:00" }, "geometry": { "type": "Polygon", "coordinates": [ [ [ 114.056983152841198, 30.981298736199257 ], [ 114.056983152841198, 30.996700642143264 ], [ 114.039016847158805, 30.996700642143264 ], [ 114.039016847158805, 30.981298736199257 ], [ 114.056983152841198, 30.981298736199257 ] ] ] } },
{ "type": "Feature", "properties": { "北京时间": "2026-05-15 03:00" }, "geometry": { "type": "Polygon", "coordinates": [ [ [ 114.202983152841185, 31.053304554045138 ], [ 114.202983152841185, 31.068694823467816 ], [ 114.185016847158792, 31.068694823467816 ], [ 114.185016847158792, 31.053304554045138 ], [ 114.202983152841185, 31.053304554045138 ] ] ] } },
{ "type": "Feature", "properties": { "北京时间": "2026-05-15 03:00" }, "geometry": { "type": "Polygon", "coordinates": [ [ [ 113.95498315284118, 30.65427246667787 ], [ 113.95498315284118, 30.669726915481515 ], [ 113.937016847158787, 30.669726915481515 ], [ 113.937016847158787, 30.65427246667787 ], [ 113.95498315284118, 30.65427246667787 ] ] ] } },
{ "type": "Feature", "properties": { "北京时间": "2026-05-15 03:00" }, "geometry": { "type": "Polygon", "coordinates": [ [ [ 114.157983152841183, 31.01030107803594 ], [ 114.157983152841183, 31.025698299971982 ], [ 114.14001684715879, 31.025698299971982 ], [ 114.14001684715879, 31.01030107803594 ], [ 114.157983152841183, 31.01030107803594 ] ] ] } },
{ "type": "Feature", "properties": { "北京时间": "2026-05-15 03:00" }, "geometry": { "type": "Polygon", "coordinates": [ [ [ 114.129983152841177, 30.991299543506283 ], [ 114.129983152841177, 31.006699834720781 ], [ 114.112016847158785, 31.006699834720781 ], [ 114.112016847158785, 30.991299543506283 ], [ 114.129983152841177, 30.991299543506283 ] ] ] } },
{ "type": "Feature", "properties": { "北京时间": "2026-05-15 03:00" }, "geometry": { "type": "Polygon", "coordinates": [ [ [ 114.069983152841203, 31.124310302989262 ], [ 114.069983152841203, 31.139689073709526 ], [ 114.052016847158811, 31.139689073709526 ], [ 114.052016847158811, 31.124310302989262 ], [ 114.069983152841203, 31.124310302989262 ] ] ] } },
{ "type": "Feature", "properties": { "北京时间": "2026-05-15 02:00" }, "geometry": { "type": "Polygon", "coordinates": [ [ [ 113.908983152841188, 30.715277348034263 ], [ 113.908983152841188, 30.730722033406991 ], [ 113.891016847158809, 30.730722033406991 ], [ 113.891016847158809, 30.715277348034263 ], [ 113.908983152841188, 30.715277348034263 ] ] ] } },
{ "type": "Feature", "properties": { "北京时间": "2026-05-15 02:00" }, "geometry": { "type": "Polygon", "coordinates": [ [ [ 114.129983152841177, 31.008300916466617 ], [ 114.129983152841177, 31.023698461564344 ], [ 114.112016847158785, 31.023698461564344 ], [ 114.112016847158785, 31.008300916466617 ], [ 114.129983152841177, 31.008300916466617 ] ] ] } },
{ "type": "Feature", "properties": { "北京时间": "2026-05-15 02:00" }, "geometry": { "type": "Polygon", "coordinates": [ [ [ 114.091983152841181, 31.208317119807244 ], [ 114.091983152841181, 31.223682255933252 ], [ 114.074016847158788, 31.223682255933252 ], [ 114.074016847158788, 31.208317119807244 ], [ 114.091983152841181, 31.208317119807244 ] ] ] } },
{ "type": "Feature", "properties": { "北京时间": "2026-05-15 02:00" }, "geometry": { "type": "Polygon", "coordinates": [ [ [ 113.61898315284121, 30.574266078177676 ], [ 113.61898315284121, 30.589733304927758 ], [ 113.601016847158803, 30.589733304927758 ], [ 113.601016847158803, 30.574266078177676 ], [ 113.61898315284121, 30.574266078177676 ] ] ] } },
{ "type": "Feature", "properties": { "北京时间": "2026-05-15 02:00" }, "geometry": { "type": "Polygon", "coordinates": [ [ [ 113.760983152841177, 30.720277748533707 ], [ 113.760983152841177, 30.735721632848787 ], [ 113.743016847158785, 30.735721632848787 ], [ 113.743016847158785, 30.720277748533707 ], [ 113.760983152841177, 30.720277748533707 ] ] ] } },
{ "type": "Feature", "properties": { "北京时间": "2026-05-15 02:00" }, "geometry": { "type": "Polygon", "coordinates": [ [ [ 114.054983152841203, 31.014301401202708 ], [ 114.054983152841203, 31.029697976759106 ], [ 114.03701684715881, 31.029697976759106 ], [ 114.03701684715881, 31.014301401202708 ], [ 114.054983152841203, 31.014301401202708 ] ] ] } },
{ "type": "Feature", "properties": { "北京时间": "2026-05-15 02:00" }, "geometry": { "type": "Polygon", "coordinates": [ [ [ 113.898983152841183, 30.576266237706452 ], [ 113.898983152841183, 30.591733145375269 ], [ 113.88101684715879, 30.591733145375269 ], [ 113.88101684715879, 30.576266237706452 ], [ 113.898983152841183, 30.576266237706452 ] ] ] } },
{ "type": "Feature", "properties": { "北京时间": "2026-05-15 02:00" }, "geometry": { "type": "Polygon", "coordinates": [ [ [ 114.08498315284119, 30.99629994724777 ], [ 114.08498315284119, 31.011699430921599 ], [ 114.067016847158797, 31.011699430921599 ], [ 114.067016847158797, 30.99629994724777 ], [ 114.08498315284119, 30.99629994724777 ] ] ] } },
{ "type": "Feature", "properties": { "北京时间": "2026-05-15 01:00" }, "geometry": { "type": "Polygon", "coordinates": [ [ [ 113.45198315284118, 30.46925771615744 ], [ 113.45198315284118, 30.484741668197 ], [ 113.434016847158787, 30.484741668197 ], [ 113.434016847158787, 30.46925771615744 ], [ 113.45198315284118, 30.46925771615744 ] ] ] } },
{ "type": "Feature", "properties": { "北京时间": "2026-05-15 01:00" }, "geometry": { "type": "Polygon", "coordinates": [ [ [ 113.7389831528412, 30.640271347602329 ], [ 113.7389831528412, 30.655728034722255 ], [ 113.721016847158808, 30.655728034722255 ], [ 113.721016847158808, 30.640271347602329 ], [ 113.7389831528412, 30.640271347602329 ] ] ] } },
{ "type": "Feature", "properties": { "北京时间": "2026-05-15 01:00" }, "geometry": { "type": "Polygon", "coordinates": [ [ [ 113.8669831528412, 30.610268951137417 ], [ 113.8669831528412, 30.62573043154168 ], [ 113.849016847158808, 30.62573043154168 ], [ 113.849016847158808, 30.610268951137417 ], [ 113.8669831528412, 30.610268951137417 ] ] ] } },
{ "type": "Feature", "properties": { "北京时间": "2026-05-15 01:00" }, "geometry": { "type": "Polygon", "coordinates": [ [ [ 114.050983152841184, 30.980298655481452 ], [ 114.050983152841184, 30.995700722872613 ], [ 114.033016847158791, 30.995700722872613 ], [ 114.033016847158791, 30.980298655481452 ], [ 114.050983152841184, 30.980298655481452 ] ] ] } },
{ "type": "Feature", "properties": { "北京时间": "2026-05-15 01:00" }, "geometry": { "type": "Polygon", "coordinates": [ [ [ 114.092983152841185, 31.0553047158255 ], [ 114.092983152841185, 31.070694661664472 ], [ 114.075016847158793, 31.070694661664472 ], [ 114.075016847158793, 31.0553047158255 ], [ 114.092983152841185, 31.0553047158255 ] ] ] } },
{ "type": "Feature", "properties": { "北京时间": "2026-05-15 01:00" }, "geometry": { "type": "Polygon", "coordinates": [ [ [ 114.112983152841196, 31.279322894521357 ], [ 114.112983152841196, 31.29467648041333 ], [ 114.095016847158789, 31.29467648041333 ], [ 114.095016847158789, 31.279322894521357 ], [ 114.112983152841196, 31.279322894521357 ] ] ] } },
{ "type": "Feature", "properties": { "北京时间": "2026-05-15 01:00" }, "geometry": { "type": "Polygon", "coordinates": [ [ [ 114.108983152841191, 31.011301158824118 ], [ 114.108983152841191, 31.026698219172278 ], [ 114.091016847158798, 31.026698219172278 ], [ 114.091016847158798, 31.011301158824118 ], [ 114.108983152841191, 31.011301158824118 ] ] ] } },
{ "type": "Feature", "properties": { "北京时间": "2026-05-15 00:00" }, "geometry": { "type": "Polygon", "coordinates": [ [ [ 114.371983152841182, 31.325326642179871 ], [ 114.371983152841182, 31.340672732234783 ], [ 114.354016847158789, 31.340672732234783 ], [ 114.354016847158789, 31.325326642179871 ], [ 114.371983152841182, 31.325326642179871 ] ] ] } },
{ "type": "Feature", "properties": { "北京时间": "2026-05-15 00:00" }, "geometry": { "type": "Polygon", "coordinates": [ [ [ 113.94298315284118, 30.913293252734896 ], [ 113.94298315284118, 30.92870612639469 ], [ 113.925016847158801, 30.92870612639469 ], [ 113.925016847158801, 30.913293252734896 ], [ 113.94298315284118, 30.913293252734896 ] ] ] } },
{ "type": "Feature", "properties": { "北京时间": "2026-05-15 00:00" }, "geometry": { "type": "Polygon", "coordinates": [ [ [ 113.745983152841177, 30.560264961740153 ], [ 113.745983152841177, 30.575734421531337 ], [ 113.728016847158784, 30.575734421531337 ], [ 113.728016847158784, 30.560264961740153 ], [ 113.745983152841177, 30.560264961740153 ] ] ] } },
{ "type": "Feature", "properties": { "北京时间": "2026-05-15 00:00" }, "geometry": { "type": "Polygon", "coordinates": [ [ [ 114.145983152841197, 31.103308601367022 ], [ 114.145983152841197, 31.118690775572173 ], [ 114.128016847158804, 31.118690775572173 ], [ 114.128016847158804, 31.103308601367022 ], [ 114.145983152841197, 31.103308601367022 ] ] ] } },
{ "type": "Feature", "properties": { "北京时间": "2026-05-15 00:00" }, "geometry": { "type": "Polygon", "coordinates": [ [ [ 114.129983152841177, 31.333327294451589 ], [ 114.129983152841177, 31.348672079872792 ], [ 114.112016847158785, 31.348672079872792 ], [ 114.112016847158785, 31.333327294451589 ], [ 114.129983152841177, 31.333327294451589 ] ] ] } },
{ "type": "Feature", "properties": { "北京时间": "2026-05-15 00:00" }, "geometry": { "type": "Polygon", "coordinates": [ [ [ 114.127983152841196, 31.034303017599456 ], [ 114.127983152841196, 31.049696360132053 ], [ 114.110016847158803, 31.049696360132053 ], [ 114.110016847158803, 31.034303017599456 ], [ 114.127983152841196, 31.034303017599456 ] ] ] } },
{ "type": "Feature", "properties": { "北京时间": "2026-05-15 00:00" }, "geometry": { "type": "Polygon", "coordinates": [ [ [ 113.83498315284119, 30.500260182240176 ], [ 113.83498315284119, 30.515739201744644 ], [ 113.817016847158797, 30.515739201744644 ], [ 113.817016847158797, 30.500260182240176 ], [ 113.83498315284119, 30.500260182240176 ] ] ] } },
{ "type": "Feature", "properties": { "北京时间": "2026-05-14 23:00" }, "geometry": { "type": "Polygon", "coordinates": [ [ [ 113.767983152841197, 30.487259147800522 ], [ 113.767983152841197, 30.502740236339207 ], [ 113.750016847158804, 30.502740236339207 ], [ 113.750016847158804, 30.487259147800522 ], [ 113.767983152841197, 30.487259147800522 ] ] ] } },
{ "type": "Feature", "properties": { "北京时间": "2026-05-14 23:00" }, "geometry": { "type": "Polygon", "coordinates": [ [ [ 114.148983152841183, 31.375330721332197 ], [ 114.148983152841183, 31.390668652519043 ], [ 114.13101684715879, 31.390668652519043 ], [ 114.13101684715879, 31.375330721332197 ], [ 114.148983152841183, 31.375330721332197 ] ] ] } },
{ "type": "Feature", "properties": { "北京时间": "2026-05-14 23:00" }, "geometry": { "type": "Polygon", "coordinates": [ [ [ 114.140983152841187, 31.067305686704604 ], [ 114.140983152841187, 31.082693690647528 ], [ 114.123016847158794, 31.082693690647528 ], [ 114.123016847158794, 31.067305686704604 ], [ 114.140983152841187, 31.067305686704604 ] ] ] } },
{ "type": "Feature", "properties": { "北京时间": "2026-05-14 23:00" }, "geometry": { "type": "Polygon", "coordinates": [ [ [ 113.810983152841189, 30.832286735130168 ], [ 113.810983152841189, 30.847712644941517 ], [ 113.79301684715881, 30.847712644941517 ], [ 113.79301684715881, 30.832286735130168 ], [ 113.810983152841189, 30.832286735130168 ] ] ] } },
{ "type": "Feature", "properties": { "北京时间": "2026-05-14 23:00" }, "geometry": { "type": "Polygon", "coordinates": [ [ [ 114.405983152841202, 31.432335378690773 ], [ 114.405983152841202, 31.447663994520504 ], [ 114.388016847158809, 31.447663994520504 ], [ 114.388016847158809, 31.432335378690773 ], [ 114.405983152841202, 31.432335378690773 ] ] ] } },
{ "type": "Feature", "properties": { "北京时间": "2026-05-14 23:00" }, "geometry": { "type": "Polygon", "coordinates": [ [ [ 114.199983152841185, 31.159313141322066 ], [ 114.199983152841185, 31.174686234976789 ], [ 114.182016847158792, 31.174686234976789 ], [ 114.182016847158792, 31.159313141322066 ], [ 114.199983152841185, 31.159313141322066 ] ] ] } },
{ "type": "Feature", "properties": { "北京时间": "2026-05-14 22:00" }, "geometry": { "type": "Polygon", "coordinates": [ [ [ 114.173983152841188, 31.408333416772741 ], [ 114.173983152841188, 31.423665956707705 ], [ 114.15601684715881, 31.423665956707705 ], [ 114.15601684715881, 31.408333416772741 ], [ 114.173983152841188, 31.408333416772741 ] ] ] } },
{ "type": "Feature", "properties": { "北京时间": "2026-05-14 22:00" }, "geometry": { "type": "Polygon", "coordinates": [ [ [ 114.156983152841192, 31.108309006421454 ], [ 114.156983152841192, 31.123690370460476 ], [ 114.1390168471588, 31.123690370460476 ], [ 114.1390168471588, 31.108309006421454 ], [ 114.156983152841192, 31.108309006421454 ] ] ] } },
{ "type": "Feature", "properties": { "北京时间": "2026-05-14 22:00" }, "geometry": { "type": "Polygon", "coordinates": [ [ [ 114.422983152841198, 31.553345290504808 ], [ 114.422983152841198, 31.568654081356176 ], [ 114.405016847158805, 31.568654081356176 ], [ 114.405016847158805, 31.553345290504808 ], [ 114.422983152841198, 31.553345290504808 ] ] ] } },
{ "type": "Feature", "properties": { "北京时间": "2026-05-14 22:00" }, "geometry": { "type": "Polygon", "coordinates": [ [ [ 114.44298315284118, 31.305325012155176 ], [ 114.44298315284118, 31.320674362485377 ], [ 114.425016847158801, 31.320674362485377 ], [ 114.425016847158801, 31.305325012155176 ], [ 114.44298315284118, 31.305325012155176 ] ] ] } },
{ "type": "Feature", "properties": { "北京时间": "2026-05-14 22:00" }, "geometry": { "type": "Polygon", "coordinates": [ [ [ 113.634983152841187, 30.738279190818723 ], [ 113.634983152841187, 30.753720190352468 ], [ 113.617016847158794, 30.753720190352468 ], [ 113.617016847158794, 30.738279190818723 ], [ 113.634983152841187, 30.738279190818723 ] ] ] } },
{ "type": "Feature", "properties": { "北京时间": "2026-05-14 21:00" }, "geometry": { "type": "Polygon", "coordinates": [ [ [ 114.182983152841203, 31.155312816795959 ], [ 114.182983152841203, 31.170686559548553 ], [ 114.165016847158796, 31.170686559548553 ], [ 114.165016847158796, 31.155312816795959 ], [ 114.182983152841203, 31.155312816795959 ] ] ] } },
{ "type": "Feature", "properties": { "北京时间": "2026-05-14 21:00" }, "geometry": { "type": "Polygon", "coordinates": [ [ [ 114.205983152841185, 31.425334806325726 ], [ 114.205983152841185, 31.440664566964006 ], [ 114.188016847158792, 31.440664566964006 ], [ 114.188016847158792, 31.425334806325726 ], [ 114.205983152841185, 31.425334806325726 ] ] ] } },
{ "type": "Feature", "properties": { "北京时间": "2026-05-14 21:00" }, "geometry": { "type": "Polygon", "coordinates": [ [ [ 113.466983152841181, 30.639271267686016 ], [ 113.466983152841181, 30.654728114650371 ], [ 113.449016847158802, 30.654728114650371 ], [ 113.449016847158802, 30.639271267686016 ], [ 113.466983152841181, 30.639271267686016 ] ] ] } },
{ "type": "Feature", "properties": { "北京时间": "2026-05-14 21:00" }, "geometry": { "type": "Polygon", "coordinates": [ [ [ 114.408983152841188, 31.674355236462304 ], [ 114.408983152841188, 31.689644134059591 ], [ 114.391016847158795, 31.689644134059591 ], [ 114.391016847158795, 31.674355236462304 ], [ 114.408983152841188, 31.674355236462304 ] ] ] } },
{ "type": "Feature", "properties": { "北京时间": "2026-05-14 20:00" }, "geometry": { "type": "Polygon", "coordinates": [ [ [ 114.209983152841176, 31.206316957310058 ], [ 114.209983152841176, 31.221682418453184 ], [ 114.192016847158797, 31.221682418453184 ], [ 114.192016847158797, 31.206316957310058 ], [ 114.209983152841176, 31.206316957310058 ] ] ] } },
{ "type": "Feature", "properties": { "北京时间": "2026-05-14 20:00" }, "geometry": { "type": "Polygon", "coordinates": [ [ [ 114.33798315284119, 31.355329088970144 ], [ 114.33798315284119, 31.370670285106225 ], [ 114.320016847158797, 31.370670285106225 ], [ 114.320016847158797, 31.355329088970144 ], [ 114.33798315284119, 31.355329088970144 ] ] ] } },
{ "type": "Feature", "properties": { "北京时间": "2026-05-14 20:00" }, "geometry": { "type": "Polygon", "coordinates": [ [ [ 114.242983152841191, 31.422334561061447 ], [ 114.242983152841191, 31.437664812261922 ], [ 114.225016847158798, 31.437664812261922 ], [ 114.225016847158798, 31.422334561061447 ], [ 114.242983152841191, 31.422334561061447 ] ] ] } },
{ "type": "Feature", "properties": { "北京时间": "2026-05-14 19:00" }, "geometry": { "type": "Polygon", "coordinates": [ [ [ 114.535983152841212, 31.63335186252267 ], [ 114.535983152841212, 31.648647508451713 ], [ 114.518016847158805, 31.648647508451713 ], [ 114.518016847158805, 31.63335186252267 ], [ 114.535983152841212, 31.63335186252267 ] ] ] } },
{ "type": "Feature", "properties": { "北京时间": "2026-05-14 19:00" }, "geometry": { "type": "Polygon", "coordinates": [ [ [ 114.393983152841187, 31.448336687383375 ], [ 114.393983152841187, 31.463662685648714 ], [ 114.376016847158795, 31.463662685648714 ], [ 114.376016847158795, 31.448336687383375 ], [ 114.393983152841187, 31.448336687383375 ] ] ] } },
{ "type": "Feature", "properties": { "北京时间": "2026-05-14 19:00" }, "geometry": { "type": "Polygon", "coordinates": [ [ [ 114.280983152841202, 31.398332599703924 ], [ 114.280983152841202, 31.413666773888778 ], [ 114.263016847158809, 31.413666773888778 ], [ 114.263016847158809, 31.398332599703924 ], [ 114.280983152841202, 31.398332599703924 ] ] ] } },
{ "type": "Feature", "properties": { "北京时间": "2026-05-14 18:00" }, "geometry": { "type": "Polygon", "coordinates": [ [ [ 114.443983152841184, 31.554345372562953 ], [ 114.443983152841184, 31.569653999286935 ], [ 114.426016847158806, 31.569653999286935 ], [ 114.426016847158806, 31.554345372562953 ], [ 114.443983152841184, 31.554345372562953 ] ] ] } },
{ "type": "Feature", "properties": { "北京时间": "2026-05-14 18:00" }, "geometry": { "type": "Polygon", "coordinates": [ [ [ 114.272983152841178, 31.339327783753554 ], [ 114.272983152841178, 31.354671590503163 ], [ 114.255016847158785, 31.354671590503163 ], [ 114.255016847158785, 31.339327783753554 ], [ 114.272983152841178, 31.339327783753554 ] ] ] } },
{ "type": "Feature", "properties": { "北京时间": "2026-05-14 18:00" }, "geometry": { "type": "Polygon", "coordinates": [ [ [ 114.32098315284118, 31.353328925785355 ], [ 114.32098315284118, 31.368670448313555 ], [ 114.303016847158787, 31.368670448313555 ], [ 114.303016847158787, 31.353328925785355 ], [ 114.32098315284118, 31.353328925785355 ] ] ] } },
{ "type": "Feature", "properties": { "北京时间": "2026-05-14 17:00" }, "geometry": { "type": "Polygon", "coordinates": [ [ [ 114.318983152841199, 31.419334315818187 ], [ 114.318983152841199, 31.434665057538826 ], [ 114.301016847158806, 31.434665057538826 ], [ 114.301016847158806, 31.419334315818187 ], [ 114.318983152841199, 31.419334315818187 ] ] ] } },
{ "type": "Feature", "properties": { "北京时间": "2026-05-14 17:00" }, "geometry": { "type": "Polygon", "coordinates": [ [ [ 114.461983152841199, 31.683355977607274 ], [ 114.461983152841199, 31.698643392815445 ], [ 114.444016847158807, 31.698643392815445 ], [ 114.444016847158807, 31.683355977607274 ], [ 114.461983152841199, 31.683355977607274 ] ] ] } },
{ "type": "Feature", "properties": { "北京时间": "2026-05-14 16:00" }, "geometry": { "type": "Polygon", "coordinates": [ [ [ 114.370983152841177, 31.508341600302813 ], [ 114.370983152841177, 31.523657772059032 ], [ 114.353016847158784, 31.523657772059032 ], [ 114.353016847158784, 31.508341600302813 ], [ 114.370983152841177, 31.508341600302813 ] ] ] } },
{ "type": "Feature", "properties": { "北京时间": "2026-05-14 15:00" }, "geometry": { "type": "Polygon", "coordinates": [ [ [ 114.415983152841193, 31.608349807164579 ], [ 114.415983152841193, 31.623649564086328 ], [ 114.398016847158786, 31.623649564086328 ], [ 114.398016847158786, 31.608349807164579 ], [ 114.415983152841193, 31.608349807164579 ] ] ] } },
{ "type": "Feature", "properties": { "北京时间": "2026-05-14 14:00" }, "geometry": { "type": "Polygon", "coordinates": [ [ [ 114.438983152841189, 31.725359438777719 ], [ 114.438983152841189, 31.740639931183136 ], [ 114.421016847158796, 31.740639931183136 ], [ 114.421016847158796, 31.725359438777719 ], [ 114.438983152841189, 31.725359438777719 ] ] ] } }
]
}
