{
"type": "FeatureCollection",
"name": "东城轨迹和高度",
"crs": { "type": "name", "properties": { "name": "urn:ogc:def:crs:OGC:1.3:CRS84" } },
"features": [
{ "type": "Feature", "properties": { "pt_id": "  1000", "trajectory_id": 1, "北京时间": "2026-05-06 23:00", "lon": 113.942, "lat": 30.907, "height": 10.0 }, "geometry": { "type": "Point", "coordinates": [ 113.942, 30.907 ] } },
{ "type": "Feature", "properties": { "pt_id": "  1001", "trajectory_id": 1, "北京时间": "2026-05-06 22:00", "lon": 113.969, "lat": 30.962, "height": 10.0 }, "geometry": { "type": "Point", "coordinates": [ 113.969, 30.962 ] } },
{ "type": "Feature", "properties": { "pt_id": "  1002", "trajectory_id": 1, "北京时间": "2026-05-06 21:00", "lon": 113.96, "lat": 30.955, "height": 10.0 }, "geometry": { "type": "Point", "coordinates": [ 113.96, 30.955 ] } },
{ "type": "Feature", "properties": { "pt_id": "  1003", "trajectory_id": 1, "北京时间": "2026-05-06 20:00", "lon": 113.906, "lat": 30.894, "height": 10.0 }, "geometry": { "type": "Point", "coordinates": [ 113.906, 30.894 ] } },
{ "type": "Feature", "properties": { "pt_id": "  1004", "trajectory_id": 1, "北京时间": "2026-05-06 19:00", "lon": 113.83, "lat": 30.788, "height": 9.0 }, "geometry": { "type": "Point", "coordinates": [ 113.83, 30.788 ] } },
{ "type": "Feature", "properties": { "pt_id": "  1005", "trajectory_id": 1, "北京时间": "2026-05-06 18:00", "lon": 113.751, "lat": 30.652, "height": 9.0 }, "geometry": { "type": "Point", "coordinates": [ 113.751, 30.652 ] } },
{ "type": "Feature", "properties": { "pt_id": "  1006", "trajectory_id": 1, "北京时间": "2026-05-06 17:00", "lon": 113.67, "lat": 30.486, "height": 9.0 }, "geometry": { "type": "Point", "coordinates": [ 113.67, 30.486 ] } },
{ "type": "Feature", "properties": { "pt_id": "  1007", "trajectory_id": 1, "北京时间": "2026-05-06 16:00", "lon": 113.594, "lat": 30.295, "height": 8.0 }, "geometry": { "type": "Point", "coordinates": [ 113.594, 30.295 ] } },
{ "type": "Feature", "properties": { "pt_id": "  1008", "trajectory_id": 1, "北京时间": "2026-05-06 15:00", "lon": 113.52, "lat": 30.086, "height": 8.0 }, "geometry": { "type": "Point", "coordinates": [ 113.52, 30.086 ] } },
{ "type": "Feature", "properties": { "pt_id": "  1009", "trajectory_id": 1, "北京时间": "2026-05-06 14:00", "lon": 113.447, "lat": 29.861, "height": 13.0 }, "geometry": { "type": "Point", "coordinates": [ 113.447, 29.861 ] } },
{ "type": "Feature", "properties": { "pt_id": "  1010", "trajectory_id": 1, "北京时间": "2026-05-06 13:00", "lon": 113.379, "lat": 29.618, "height": 44.0 }, "geometry": { "type": "Point", "coordinates": [ 113.379, 29.618 ] } },
{ "type": "Feature", "properties": { "pt_id": "  1011", "trajectory_id": 1, "北京时间": "2026-05-06 12:00", "lon": 113.334, "lat": 29.323, "height": 93.0 }, "geometry": { "type": "Point", "coordinates": [ 113.334, 29.323 ] } },
{ "type": "Feature", "properties": { "pt_id": "  1012", "trajectory_id": 1, "北京时间": "2026-05-06 11:00", "lon": 113.346, "lat": 29.022, "height": 126.0 }, "geometry": { "type": "Point", "coordinates": [ 113.346, 29.022 ] } },
{ "type": "Feature", "properties": { "pt_id": "  1013", "trajectory_id": 1, "北京时间": "2026-05-06 10:00", "lon": 113.408, "lat": 28.767, "height": 176.0 }, "geometry": { "type": "Point", "coordinates": [ 113.408, 28.767 ] } },
{ "type": "Feature", "properties": { "pt_id": "  1014", "trajectory_id": 1, "北京时间": "2026-05-06 09:00", "lon": 113.496, "lat": 28.595, "height": 195.0 }, "geometry": { "type": "Point", "coordinates": [ 113.496, 28.595 ] } },
{ "type": "Feature", "properties": { "pt_id": "  1015", "trajectory_id": 1, "北京时间": "2026-05-06 08:00", "lon": 113.595, "lat": 28.46, "height": 265.0 }, "geometry": { "type": "Point", "coordinates": [ 113.595, 28.46 ] } },
{ "type": "Feature", "properties": { "pt_id": "  1016", "trajectory_id": 1, "北京时间": "2026-05-06 07:00", "lon": 113.705, "lat": 28.343, "height": 360.0 }, "geometry": { "type": "Point", "coordinates": [ 113.705, 28.343 ] } },
{ "type": "Feature", "properties": { "pt_id": "  1017", "trajectory_id": 1, "北京时间": "2026-05-06 06:00", "lon": 113.837, "lat": 28.234, "height": 436.0 }, "geometry": { "type": "Point", "coordinates": [ 113.837, 28.234 ] } },
{ "type": "Feature", "properties": { "pt_id": "  1018", "trajectory_id": 1, "北京时间": "2026-05-06 05:00", "lon": 113.977, "lat": 28.13, "height": 499.0 }, "geometry": { "type": "Point", "coordinates": [ 113.977, 28.13 ] } },
{ "type": "Feature", "properties": { "pt_id": "  1019", "trajectory_id": 1, "北京时间": "2026-05-06 04:00", "lon": 114.09, "lat": 28.025, "height": 550.0 }, "geometry": { "type": "Point", "coordinates": [ 114.09, 28.025 ] } },
{ "type": "Feature", "properties": { "pt_id": "  1020", "trajectory_id": 1, "北京时间": "2026-05-06 03:00", "lon": 114.175, "lat": 27.928, "height": 584.0 }, "geometry": { "type": "Point", "coordinates": [ 114.175, 27.928 ] } },
{ "type": "Feature", "properties": { "pt_id": "  1021", "trajectory_id": 1, "北京时间": "2026-05-06 02:00", "lon": 114.24, "lat": 27.841, "height": 617.0 }, "geometry": { "type": "Point", "coordinates": [ 114.24, 27.841 ] } },
{ "type": "Feature", "properties": { "pt_id": "  1022", "trajectory_id": 1, "北京时间": "2026-05-06 01:00", "lon": 114.284, "lat": 27.741, "height": 670.0 }, "geometry": { "type": "Point", "coordinates": [ 114.284, 27.741 ] } },
{ "type": "Feature", "properties": { "pt_id": "  1023", "trajectory_id": 1, "北京时间": "2026-05-06 00:00", "lon": 114.304, "lat": 27.611, "height": 725.0 }, "geometry": { "type": "Point", "coordinates": [ 114.304, 27.611 ] } },
{ "type": "Feature", "properties": { "pt_id": "  1024", "trajectory_id": 1, "北京时间": "2026-05-05 23:00", "lon": 114.32, "lat": 27.44, "height": 754.0 }, "geometry": { "type": "Point", "coordinates": [ 114.32, 27.44 ] } },
{ "type": "Feature", "properties": { "pt_id": "  1025", "trajectory_id": 1, "北京时间": "2026-05-05 22:00", "lon": 114.358, "lat": 27.227, "height": 633.0 }, "geometry": { "type": "Point", "coordinates": [ 114.358, 27.227 ] } },
{ "type": "Feature", "properties": { "pt_id": "  1026", "trajectory_id": 1, "北京时间": "2026-05-05 21:00", "lon": 114.423, "lat": 26.99, "height": 594.0 }, "geometry": { "type": "Point", "coordinates": [ 114.423, 26.99 ] } },
{ "type": "Feature", "properties": { "pt_id": "  1027", "trajectory_id": 1, "北京时间": "2026-05-05 20:00", "lon": 114.501, "lat": 26.777, "height": 663.0 }, "geometry": { "type": "Point", "coordinates": [ 114.501, 26.777 ] } },
{ "type": "Feature", "properties": { "pt_id": "  1028", "trajectory_id": 1, "北京时间": "2026-05-05 19:00", "lon": 114.585, "lat": 26.611, "height": 649.0 }, "geometry": { "type": "Point", "coordinates": [ 114.585, 26.611 ] } },
{ "type": "Feature", "properties": { "pt_id": "  1029", "trajectory_id": 1, "北京时间": "2026-05-05 18:00", "lon": 114.672, "lat": 26.491, "height": 665.0 }, "geometry": { "type": "Point", "coordinates": [ 114.672, 26.491 ] } },
{ "type": "Feature", "properties": { "pt_id": "  1030", "trajectory_id": 1, "北京时间": "2026-05-05 17:00", "lon": 114.751, "lat": 26.411, "height": 707.0 }, "geometry": { "type": "Point", "coordinates": [ 114.751, 26.411 ] } },
{ "type": "Feature", "properties": { "pt_id": "  1031", "trajectory_id": 1, "北京时间": "2026-05-05 16:00", "lon": 114.81, "lat": 26.361, "height": 753.0 }, "geometry": { "type": "Point", "coordinates": [ 114.81, 26.361 ] } },
{ "type": "Feature", "properties": { "pt_id": "  1032", "trajectory_id": 1, "北京时间": "2026-05-05 15:00", "lon": 114.845, "lat": 26.322, "height": 804.0 }, "geometry": { "type": "Point", "coordinates": [ 114.845, 26.322 ] } },
{ "type": "Feature", "properties": { "pt_id": "  1033", "trajectory_id": 1, "北京时间": "2026-05-05 14:00", "lon": 114.86, "lat": 26.292, "height": 876.0 }, "geometry": { "type": "Point", "coordinates": [ 114.86, 26.292 ] } },
{ "type": "Feature", "properties": { "pt_id": "  1034", "trajectory_id": 1, "北京时间": "2026-05-05 13:00", "lon": 114.858, "lat": 26.258, "height": 960.0 }, "geometry": { "type": "Point", "coordinates": [ 114.858, 26.258 ] } },
{ "type": "Feature", "properties": { "pt_id": "  1035", "trajectory_id": 1, "北京时间": "2026-05-05 12:00", "lon": 114.845, "lat": 26.212, "height": 1026.0 }, "geometry": { "type": "Point", "coordinates": [ 114.845, 26.212 ] } },
{ "type": "Feature", "properties": { "pt_id": "  1036", "trajectory_id": 1, "北京时间": "2026-05-05 11:00", "lon": 114.824, "lat": 26.153, "height": 1066.0 }, "geometry": { "type": "Point", "coordinates": [ 114.824, 26.153 ] } },
{ "type": "Feature", "properties": { "pt_id": "  1037", "trajectory_id": 1, "北京时间": "2026-05-05 10:00", "lon": 114.798, "lat": 26.085, "height": 1088.0 }, "geometry": { "type": "Point", "coordinates": [ 114.798, 26.085 ] } },
{ "type": "Feature", "properties": { "pt_id": "  1038", "trajectory_id": 1, "北京时间": "2026-05-05 09:00", "lon": 114.766, "lat": 26.008, "height": 1102.0 }, "geometry": { "type": "Point", "coordinates": [ 114.766, 26.008 ] } },
{ "type": "Feature", "properties": { "pt_id": "  1039", "trajectory_id": 1, "北京时间": "2026-05-05 08:00", "lon": 114.73, "lat": 25.929, "height": 1120.0 }, "geometry": { "type": "Point", "coordinates": [ 114.73, 25.929 ] } },
{ "type": "Feature", "properties": { "pt_id": "  2000", "trajectory_id": 2, "北京时间": "2026-05-06 23:00", "lon": 113.942, "lat": 30.907, "height": 10.0 }, "geometry": { "type": "Point", "coordinates": [ 113.942, 30.907 ] } },
{ "type": "Feature", "properties": { "pt_id": "  2005", "trajectory_id": 2, "北京时间": "2026-05-06 22:00", "lon": 113.871, "lat": 30.773, "height": 5.0 }, "geometry": { "type": "Point", "coordinates": [ 113.871, 30.773 ] } },
{ "type": "Feature", "properties": { "pt_id": "  2006", "trajectory_id": 2, "北京时间": "2026-05-06 21:00", "lon": 113.799, "lat": 30.608, "height": 4.0 }, "geometry": { "type": "Point", "coordinates": [ 113.799, 30.608 ] } },
{ "type": "Feature", "properties": { "pt_id": "  2007", "trajectory_id": 2, "北京时间": "2026-05-06 20:00", "lon": 113.724, "lat": 30.425, "height": 2.0 }, "geometry": { "type": "Point", "coordinates": [ 113.724, 30.425 ] } },
{ "type": "Feature", "properties": { "pt_id": "  2008", "trajectory_id": 2, "北京时间": "2026-05-06 19:00", "lon": 113.649, "lat": 30.228, "height": 0.0 }, "geometry": { "type": "Point", "coordinates": [ 113.649, 30.228 ] } },
{ "type": "Feature", "properties": { "pt_id": "  2009", "trajectory_id": 2, "北京时间": "2026-05-06 18:00", "lon": 113.578, "lat": 30.013, "height": 0.0 }, "geometry": { "type": "Point", "coordinates": [ 113.578, 30.013 ] } },
{ "type": "Feature", "properties": { "pt_id": "  2010", "trajectory_id": 2, "北京时间": "2026-05-06 17:00", "lon": 113.513, "lat": 29.792, "height": 12.0 }, "geometry": { "type": "Point", "coordinates": [ 113.513, 29.792 ] } },
{ "type": "Feature", "properties": { "pt_id": "  2011", "trajectory_id": 2, "北京时间": "2026-05-06 16:00", "lon": 113.454, "lat": 29.548, "height": 62.0 }, "geometry": { "type": "Point", "coordinates": [ 113.454, 29.548 ] } },
{ "type": "Feature", "properties": { "pt_id": "  2012", "trajectory_id": 2, "北京时间": "2026-05-06 15:00", "lon": 113.43, "lat": 29.248, "height": 118.0 }, "geometry": { "type": "Point", "coordinates": [ 113.43, 29.248 ] } },
{ "type": "Feature", "properties": { "pt_id": "  2013", "trajectory_id": 2, "北京时间": "2026-05-06 14:00", "lon": 113.474, "lat": 28.977, "height": 188.0 }, "geometry": { "type": "Point", "coordinates": [ 113.474, 28.977 ] } },
{ "type": "Feature", "properties": { "pt_id": "  2014", "trajectory_id": 2, "北京时间": "2026-05-06 13:00", "lon": 113.567, "lat": 28.774, "height": 263.0 }, "geometry": { "type": "Point", "coordinates": [ 113.567, 28.774 ] } },
{ "type": "Feature", "properties": { "pt_id": "  2015", "trajectory_id": 2, "北京时间": "2026-05-06 12:00", "lon": 113.677, "lat": 28.657, "height": 328.0 }, "geometry": { "type": "Point", "coordinates": [ 113.677, 28.657 ] } },
{ "type": "Feature", "properties": { "pt_id": "  2016", "trajectory_id": 2, "北京时间": "2026-05-06 11:00", "lon": 113.765, "lat": 28.558, "height": 430.0 }, "geometry": { "type": "Point", "coordinates": [ 113.765, 28.558 ] } },
{ "type": "Feature", "properties": { "pt_id": "  2017", "trajectory_id": 2, "北京时间": "2026-05-06 10:00", "lon": 113.828, "lat": 28.44, "height": 546.0 }, "geometry": { "type": "Point", "coordinates": [ 113.828, 28.44 ] } },
{ "type": "Feature", "properties": { "pt_id": "  2018", "trajectory_id": 2, "北京时间": "2026-05-06 09:00", "lon": 113.888, "lat": 28.289, "height": 615.0 }, "geometry": { "type": "Point", "coordinates": [ 113.888, 28.289 ] } },
{ "type": "Feature", "properties": { "pt_id": "  2019", "trajectory_id": 2, "北京时间": "2026-05-06 08:00", "lon": 113.962, "lat": 28.136, "height": 652.0 }, "geometry": { "type": "Point", "coordinates": [ 113.962, 28.136 ] } },
{ "type": "Feature", "properties": { "pt_id": "  2020", "trajectory_id": 2, "北京时间": "2026-05-06 07:00", "lon": 114.016, "lat": 27.993, "height": 698.0 }, "geometry": { "type": "Point", "coordinates": [ 114.016, 27.993 ] } },
{ "type": "Feature", "properties": { "pt_id": "  2021", "trajectory_id": 2, "北京时间": "2026-05-06 06:00", "lon": 114.052, "lat": 27.861, "height": 743.0 }, "geometry": { "type": "Point", "coordinates": [ 114.052, 27.861 ] } },
{ "type": "Feature", "properties": { "pt_id": "  2022", "trajectory_id": 2, "北京时间": "2026-05-06 05:00", "lon": 114.079, "lat": 27.743, "height": 770.0 }, "geometry": { "type": "Point", "coordinates": [ 114.079, 27.743 ] } },
{ "type": "Feature", "properties": { "pt_id": "  2023", "trajectory_id": 2, "北京时间": "2026-05-06 04:00", "lon": 114.101, "lat": 27.627, "height": 820.0 }, "geometry": { "type": "Point", "coordinates": [ 114.101, 27.627 ] } },
{ "type": "Feature", "properties": { "pt_id": "  2024", "trajectory_id": 2, "北京时间": "2026-05-06 03:00", "lon": 114.119, "lat": 27.499, "height": 952.0 }, "geometry": { "type": "Point", "coordinates": [ 114.119, 27.499 ] } },
{ "type": "Feature", "properties": { "pt_id": "  2025", "trajectory_id": 2, "北京时间": "2026-05-06 02:00", "lon": 114.133, "lat": 27.371, "height": 1049.0 }, "geometry": { "type": "Point", "coordinates": [ 114.133, 27.371 ] } },
{ "type": "Feature", "properties": { "pt_id": "  2026", "trajectory_id": 2, "北京时间": "2026-05-06 01:00", "lon": 114.147, "lat": 27.264, "height": 1018.0 }, "geometry": { "type": "Point", "coordinates": [ 114.147, 27.264 ] } },
{ "type": "Feature", "properties": { "pt_id": "  2027", "trajectory_id": 2, "北京时间": "2026-05-06 00:00", "lon": 114.169, "lat": 27.168, "height": 922.0 }, "geometry": { "type": "Point", "coordinates": [ 114.169, 27.168 ] } },
{ "type": "Feature", "properties": { "pt_id": "  2028", "trajectory_id": 2, "北京时间": "2026-05-05 23:00", "lon": 114.206, "lat": 27.074, "height": 883.0 }, "geometry": { "type": "Point", "coordinates": [ 114.206, 27.074 ] } },
{ "type": "Feature", "properties": { "pt_id": "  2029", "trajectory_id": 2, "北京时间": "2026-05-05 22:00", "lon": 114.249, "lat": 27.004, "height": 904.0 }, "geometry": { "type": "Point", "coordinates": [ 114.249, 27.004 ] } },
{ "type": "Feature", "properties": { "pt_id": "  2030", "trajectory_id": 2, "北京时间": "2026-05-05 21:00", "lon": 114.283, "lat": 26.966, "height": 898.0 }, "geometry": { "type": "Point", "coordinates": [ 114.283, 26.966 ] } },
{ "type": "Feature", "properties": { "pt_id": "  2031", "trajectory_id": 2, "北京时间": "2026-05-05 20:00", "lon": 114.305, "lat": 26.946, "height": 869.0 }, "geometry": { "type": "Point", "coordinates": [ 114.305, 26.946 ] } },
{ "type": "Feature", "properties": { "pt_id": "  2032", "trajectory_id": 2, "北京时间": "2026-05-05 19:00", "lon": 114.305, "lat": 26.934, "height": 846.0 }, "geometry": { "type": "Point", "coordinates": [ 114.305, 26.934 ] } },
{ "type": "Feature", "properties": { "pt_id": "  2033", "trajectory_id": 2, "北京时间": "2026-05-05 18:00", "lon": 114.282, "lat": 26.935, "height": 829.0 }, "geometry": { "type": "Point", "coordinates": [ 114.282, 26.935 ] } },
{ "type": "Feature", "properties": { "pt_id": "  2034", "trajectory_id": 2, "北京时间": "2026-05-05 17:00", "lon": 114.245, "lat": 26.937, "height": 871.0 }, "geometry": { "type": "Point", "coordinates": [ 114.245, 26.937 ] } },
{ "type": "Feature", "properties": { "pt_id": "  2035", "trajectory_id": 2, "北京时间": "2026-05-05 16:00", "lon": 114.206, "lat": 26.927, "height": 913.0 }, "geometry": { "type": "Point", "coordinates": [ 114.206, 26.927 ] } },
{ "type": "Feature", "properties": { "pt_id": "  2036", "trajectory_id": 2, "北京时间": "2026-05-05 15:00", "lon": 114.167, "lat": 26.907, "height": 926.0 }, "geometry": { "type": "Point", "coordinates": [ 114.167, 26.907 ] } },
{ "type": "Feature", "properties": { "pt_id": "  2037", "trajectory_id": 2, "北京时间": "2026-05-05 14:00", "lon": 114.124, "lat": 26.883, "height": 932.0 }, "geometry": { "type": "Point", "coordinates": [ 114.124, 26.883 ] } },
{ "type": "Feature", "properties": { "pt_id": "  2038", "trajectory_id": 2, "北京时间": "2026-05-05 13:00", "lon": 114.07, "lat": 26.861, "height": 941.0 }, "geometry": { "type": "Point", "coordinates": [ 114.07, 26.861 ] } },
{ "type": "Feature", "properties": { "pt_id": "  2039", "trajectory_id": 2, "北京时间": "2026-05-05 12:00", "lon": 114.001, "lat": 26.837, "height": 955.0 }, "geometry": { "type": "Point", "coordinates": [ 114.001, 26.837 ] } },
{ "type": "Feature", "properties": { "pt_id": "  3000", "trajectory_id": 3, "北京时间": "2026-05-06 23:00", "lon": 113.942, "lat": 30.907, "height": 10.0 }, "geometry": { "type": "Point", "coordinates": [ 113.942, 30.907 ] } },
{ "type": "Feature", "properties": { "pt_id": "  3009", "trajectory_id": 3, "北京时间": "2026-05-06 22:00", "lon": 113.894, "lat": 30.69, "height": 2.0 }, "geometry": { "type": "Point", "coordinates": [ 113.894, 30.69 ] } },
{ "type": "Feature", "properties": { "pt_id": "  3010", "trajectory_id": 3, "北京时间": "2026-05-06 21:00", "lon": 113.858, "lat": 30.475, "height": 0.0 }, "geometry": { "type": "Point", "coordinates": [ 113.858, 30.475 ] } },
{ "type": "Feature", "properties": { "pt_id": "  3011", "trajectory_id": 3, "北京时间": "2026-05-06 20:00", "lon": 113.819, "lat": 30.274, "height": 0.0 }, "geometry": { "type": "Point", "coordinates": [ 113.819, 30.274 ] } },
{ "type": "Feature", "properties": { "pt_id": "  3012", "trajectory_id": 3, "北京时间": "2026-05-06 19:00", "lon": 113.775, "lat": 30.082, "height": 0.0 }, "geometry": { "type": "Point", "coordinates": [ 113.775, 30.082 ] } },
{ "type": "Feature", "properties": { "pt_id": "  3013", "trajectory_id": 3, "北京时间": "2026-05-06 18:00", "lon": 113.757, "lat": 29.909, "height": 8.0 }, "geometry": { "type": "Point", "coordinates": [ 113.757, 29.909 ] } },
{ "type": "Feature", "properties": { "pt_id": "  3014", "trajectory_id": 3, "北京时间": "2026-05-06 17:00", "lon": 113.783, "lat": 29.748, "height": 56.0 }, "geometry": { "type": "Point", "coordinates": [ 113.783, 29.748 ] } },
{ "type": "Feature", "properties": { "pt_id": "  3015", "trajectory_id": 3, "北京时间": "2026-05-06 16:00", "lon": 113.84, "lat": 29.589, "height": 158.0 }, "geometry": { "type": "Point", "coordinates": [ 113.84, 29.589 ] } },
{ "type": "Feature", "properties": { "pt_id": "  3016", "trajectory_id": 3, "北京时间": "2026-05-06 15:00", "lon": 113.905, "lat": 29.434, "height": 285.0 }, "geometry": { "type": "Point", "coordinates": [ 113.905, 29.434 ] } },
{ "type": "Feature", "properties": { "pt_id": "  3017", "trajectory_id": 3, "北京时间": "2026-05-06 14:00", "lon": 113.97, "lat": 29.282, "height": 443.0 }, "geometry": { "type": "Point", "coordinates": [ 113.97, 29.282 ] } },
{ "type": "Feature", "properties": { "pt_id": "  3018", "trajectory_id": 3, "北京时间": "2026-05-06 13:00", "lon": 114.014, "lat": 29.121, "height": 594.0 }, "geometry": { "type": "Point", "coordinates": [ 114.014, 29.121 ] } },
{ "type": "Feature", "properties": { "pt_id": "  3019", "trajectory_id": 3, "北京时间": "2026-05-06 12:00", "lon": 114.037, "lat": 28.954, "height": 648.0 }, "geometry": { "type": "Point", "coordinates": [ 114.037, 28.954 ] } },
{ "type": "Feature", "properties": { "pt_id": "  3020", "trajectory_id": 3, "北京时间": "2026-05-06 11:00", "lon": 114.072, "lat": 28.779, "height": 646.0 }, "geometry": { "type": "Point", "coordinates": [ 114.072, 28.779 ] } },
{ "type": "Feature", "properties": { "pt_id": "  3021", "trajectory_id": 3, "北京时间": "2026-05-06 10:00", "lon": 114.111, "lat": 28.592, "height": 700.0 }, "geometry": { "type": "Point", "coordinates": [ 114.111, 28.592 ] } },
{ "type": "Feature", "properties": { "pt_id": "  3022", "trajectory_id": 3, "北京时间": "2026-05-06 09:00", "lon": 114.13, "lat": 28.411, "height": 840.0 }, "geometry": { "type": "Point", "coordinates": [ 114.13, 28.411 ] } },
{ "type": "Feature", "properties": { "pt_id": "  3023", "trajectory_id": 3, "北京时间": "2026-05-06 08:00", "lon": 114.144, "lat": 28.243, "height": 915.0 }, "geometry": { "type": "Point", "coordinates": [ 114.144, 28.243 ] } },
{ "type": "Feature", "properties": { "pt_id": "  3024", "trajectory_id": 3, "北京时间": "2026-05-06 07:00", "lon": 114.181, "lat": 28.092, "height": 902.0 }, "geometry": { "type": "Point", "coordinates": [ 114.181, 28.092 ] } },
{ "type": "Feature", "properties": { "pt_id": "  3025", "trajectory_id": 3, "北京时间": "2026-05-06 06:00", "lon": 114.225, "lat": 27.962, "height": 876.0 }, "geometry": { "type": "Point", "coordinates": [ 114.225, 27.962 ] } },
{ "type": "Feature", "properties": { "pt_id": "  3026", "trajectory_id": 3, "北京时间": "2026-05-06 05:00", "lon": 114.279, "lat": 27.858, "height": 849.0 }, "geometry": { "type": "Point", "coordinates": [ 114.279, 27.858 ] } },
{ "type": "Feature", "properties": { "pt_id": "  3027", "trajectory_id": 3, "北京时间": "2026-05-06 04:00", "lon": 114.331, "lat": 27.747, "height": 850.0 }, "geometry": { "type": "Point", "coordinates": [ 114.331, 27.747 ] } },
{ "type": "Feature", "properties": { "pt_id": "  3028", "trajectory_id": 3, "北京时间": "2026-05-06 03:00", "lon": 114.368, "lat": 27.635, "height": 782.0 }, "geometry": { "type": "Point", "coordinates": [ 114.368, 27.635 ] } },
{ "type": "Feature", "properties": { "pt_id": "  3029", "trajectory_id": 3, "北京时间": "2026-05-06 02:00", "lon": 114.405, "lat": 27.536, "height": 538.0 }, "geometry": { "type": "Point", "coordinates": [ 114.405, 27.536 ] } },
{ "type": "Feature", "properties": { "pt_id": "  3030", "trajectory_id": 3, "北京时间": "2026-05-06 01:00", "lon": 114.453, "lat": 27.444, "height": 279.0 }, "geometry": { "type": "Point", "coordinates": [ 114.453, 27.444 ] } },
{ "type": "Feature", "properties": { "pt_id": "  3031", "trajectory_id": 3, "北京时间": "2026-05-06 00:00", "lon": 114.497, "lat": 27.362, "height": 128.0 }, "geometry": { "type": "Point", "coordinates": [ 114.497, 27.362 ] } },
{ "type": "Feature", "properties": { "pt_id": "  3032", "trajectory_id": 3, "北京时间": "2026-05-05 23:00", "lon": 114.526, "lat": 27.297, "height": 63.0 }, "geometry": { "type": "Point", "coordinates": [ 114.526, 27.297 ] } },
{ "type": "Feature", "properties": { "pt_id": "  3033", "trajectory_id": 3, "北京时间": "2026-05-05 22:00", "lon": 114.542, "lat": 27.247, "height": 43.0 }, "geometry": { "type": "Point", "coordinates": [ 114.542, 27.247 ] } },
{ "type": "Feature", "properties": { "pt_id": "  3034", "trajectory_id": 3, "北京时间": "2026-05-05 21:00", "lon": 114.551, "lat": 27.205, "height": 40.0 }, "geometry": { "type": "Point", "coordinates": [ 114.551, 27.205 ] } },
{ "type": "Feature", "properties": { "pt_id": "  3035", "trajectory_id": 3, "北京时间": "2026-05-05 20:00", "lon": 114.565, "lat": 27.16, "height": 35.0 }, "geometry": { "type": "Point", "coordinates": [ 114.565, 27.16 ] } },
{ "type": "Feature", "properties": { "pt_id": "  3036", "trajectory_id": 3, "北京时间": "2026-05-05 19:00", "lon": 114.581, "lat": 27.109, "height": 33.0 }, "geometry": { "type": "Point", "coordinates": [ 114.581, 27.109 ] } },
{ "type": "Feature", "properties": { "pt_id": "  3037", "trajectory_id": 3, "北京时间": "2026-05-05 18:00", "lon": 114.594, "lat": 27.059, "height": 33.0 }, "geometry": { "type": "Point", "coordinates": [ 114.594, 27.059 ] } },
{ "type": "Feature", "properties": { "pt_id": "  3038", "trajectory_id": 3, "北京时间": "2026-05-05 17:00", "lon": 114.601, "lat": 27.02, "height": 33.0 }, "geometry": { "type": "Point", "coordinates": [ 114.601, 27.02 ] } },
{ "type": "Feature", "properties": { "pt_id": "  3039", "trajectory_id": 3, "北京时间": "2026-05-05 16:00", "lon": 114.599, "lat": 26.991, "height": 33.0 }, "geometry": { "type": "Point", "coordinates": [ 114.599, 26.991 ] } },
{ "type": "Feature", "properties": { "pt_id": "  4000", "trajectory_id": 4, "北京时间": "2026-05-06 23:00", "lon": 113.942, "lat": 30.907, "height": 10.0 }, "geometry": { "type": "Point", "coordinates": [ 113.942, 30.907 ] } },
{ "type": "Feature", "properties": { "pt_id": "  4013", "trajectory_id": 4, "北京时间": "2026-05-06 22:00", "lon": 113.946, "lat": 30.714, "height": 8.0 }, "geometry": { "type": "Point", "coordinates": [ 113.946, 30.714 ] } },
{ "type": "Feature", "properties": { "pt_id": "  4014", "trajectory_id": 4, "北京时间": "2026-05-06 21:00", "lon": 113.98, "lat": 30.552, "height": 8.0 }, "geometry": { "type": "Point", "coordinates": [ 113.98, 30.552 ] } },
{ "type": "Feature", "properties": { "pt_id": "  4015", "trajectory_id": 4, "北京时间": "2026-05-06 20:00", "lon": 114.048, "lat": 30.423, "height": 8.0 }, "geometry": { "type": "Point", "coordinates": [ 114.048, 30.423 ] } },
{ "type": "Feature", "properties": { "pt_id": "  4016", "trajectory_id": 4, "北京时间": "2026-05-06 19:00", "lon": 114.139, "lat": 30.313, "height": 8.0 }, "geometry": { "type": "Point", "coordinates": [ 114.139, 30.313 ] } },
{ "type": "Feature", "properties": { "pt_id": "  4017", "trajectory_id": 4, "北京时间": "2026-05-06 18:00", "lon": 114.234, "lat": 30.211, "height": 10.0 }, "geometry": { "type": "Point", "coordinates": [ 114.234, 30.211 ] } },
{ "type": "Feature", "properties": { "pt_id": "  4018", "trajectory_id": 4, "北京时间": "2026-05-06 17:00", "lon": 114.328, "lat": 30.117, "height": 19.0 }, "geometry": { "type": "Point", "coordinates": [ 114.328, 30.117 ] } },
{ "type": "Feature", "properties": { "pt_id": "  4019", "trajectory_id": 4, "北京时间": "2026-05-06 16:00", "lon": 114.426, "lat": 30.008, "height": 48.0 }, "geometry": { "type": "Point", "coordinates": [ 114.426, 30.008 ] } },
{ "type": "Feature", "properties": { "pt_id": "  4020", "trajectory_id": 4, "北京时间": "2026-05-06 15:00", "lon": 114.529, "lat": 29.873, "height": 124.0 }, "geometry": { "type": "Point", "coordinates": [ 114.529, 29.873 ] } },
{ "type": "Feature", "properties": { "pt_id": "  4021", "trajectory_id": 4, "北京时间": "2026-05-06 14:00", "lon": 114.614, "lat": 29.718, "height": 258.0 }, "geometry": { "type": "Point", "coordinates": [ 114.614, 29.718 ] } },
{ "type": "Feature", "properties": { "pt_id": "  4022", "trajectory_id": 4, "北京时间": "2026-05-06 13:00", "lon": 114.663, "lat": 29.538, "height": 439.0 }, "geometry": { "type": "Point", "coordinates": [ 114.663, 29.538 ] } },
{ "type": "Feature", "properties": { "pt_id": "  4023", "trajectory_id": 4, "北京时间": "2026-05-06 12:00", "lon": 114.673, "lat": 29.341, "height": 610.0 }, "geometry": { "type": "Point", "coordinates": [ 114.673, 29.341 ] } },
{ "type": "Feature", "properties": { "pt_id": "  4024", "trajectory_id": 4, "北京时间": "2026-05-06 11:00", "lon": 114.674, "lat": 29.149, "height": 620.0 }, "geometry": { "type": "Point", "coordinates": [ 114.674, 29.149 ] } },
{ "type": "Feature", "properties": { "pt_id": "  4025", "trajectory_id": 4, "北京时间": "2026-05-06 10:00", "lon": 114.705, "lat": 28.947, "height": 736.0 }, "geometry": { "type": "Point", "coordinates": [ 114.705, 28.947 ] } },
{ "type": "Feature", "properties": { "pt_id": "  4026", "trajectory_id": 4, "北京时间": "2026-05-06 09:00", "lon": 114.74, "lat": 28.751, "height": 993.0 }, "geometry": { "type": "Point", "coordinates": [ 114.74, 28.751 ] } },
{ "type": "Feature", "properties": { "pt_id": "  4027", "trajectory_id": 4, "北京时间": "2026-05-06 08:00", "lon": 114.746, "lat": 28.593, "height": 1134.0 }, "geometry": { "type": "Point", "coordinates": [ 114.746, 28.593 ] } },
{ "type": "Feature", "properties": { "pt_id": "  4028", "trajectory_id": 4, "北京时间": "2026-05-06 07:00", "lon": 114.773, "lat": 28.473, "height": 1005.0 }, "geometry": { "type": "Point", "coordinates": [ 114.773, 28.473 ] } },
{ "type": "Feature", "properties": { "pt_id": "  4029", "trajectory_id": 4, "北京时间": "2026-05-06 06:00", "lon": 114.811, "lat": 28.368, "height": 769.0 }, "geometry": { "type": "Point", "coordinates": [ 114.811, 28.368 ] } },
{ "type": "Feature", "properties": { "pt_id": "  4030", "trajectory_id": 4, "北京时间": "2026-05-06 05:00", "lon": 114.864, "lat": 28.276, "height": 587.0 }, "geometry": { "type": "Point", "coordinates": [ 114.864, 28.276 ] } },
{ "type": "Feature", "properties": { "pt_id": "  4031", "trajectory_id": 4, "北京时间": "2026-05-06 04:00", "lon": 114.924, "lat": 28.194, "height": 539.0 }, "geometry": { "type": "Point", "coordinates": [ 114.924, 28.194 ] } },
{ "type": "Feature", "properties": { "pt_id": "  4032", "trajectory_id": 4, "北京时间": "2026-05-06 03:00", "lon": 114.968, "lat": 28.118, "height": 597.0 }, "geometry": { "type": "Point", "coordinates": [ 114.968, 28.118 ] } },
{ "type": "Feature", "properties": { "pt_id": "  4033", "trajectory_id": 4, "北京时间": "2026-05-06 02:00", "lon": 114.983, "lat": 28.05, "height": 746.0 }, "geometry": { "type": "Point", "coordinates": [ 114.983, 28.05 ] } },
{ "type": "Feature", "properties": { "pt_id": "  4034", "trajectory_id": 4, "北京时间": "2026-05-06 01:00", "lon": 114.968, "lat": 27.985, "height": 916.0 }, "geometry": { "type": "Point", "coordinates": [ 114.968, 27.985 ] } },
{ "type": "Feature", "properties": { "pt_id": "  4035", "trajectory_id": 4, "北京时间": "2026-05-06 00:00", "lon": 114.941, "lat": 27.91, "height": 1001.0 }, "geometry": { "type": "Point", "coordinates": [ 114.941, 27.91 ] } },
{ "type": "Feature", "properties": { "pt_id": "  4036", "trajectory_id": 4, "北京时间": "2026-05-05 23:00", "lon": 114.918, "lat": 27.819, "height": 995.0 }, "geometry": { "type": "Point", "coordinates": [ 114.918, 27.819 ] } },
{ "type": "Feature", "properties": { "pt_id": "  4037", "trajectory_id": 4, "北京时间": "2026-05-05 22:00", "lon": 114.901, "lat": 27.711, "height": 984.0 }, "geometry": { "type": "Point", "coordinates": [ 114.901, 27.711 ] } },
{ "type": "Feature", "properties": { "pt_id": "  4038", "trajectory_id": 4, "北京时间": "2026-05-05 21:00", "lon": 114.894, "lat": 27.595, "height": 979.0 }, "geometry": { "type": "Point", "coordinates": [ 114.894, 27.595 ] } },
{ "type": "Feature", "properties": { "pt_id": "  4039", "trajectory_id": 4, "北京时间": "2026-05-05 20:00", "lon": 114.912, "lat": 27.479, "height": 954.0 }, "geometry": { "type": "Point", "coordinates": [ 114.912, 27.479 ] } },
{ "type": "Feature", "properties": { "pt_id": "  5000", "trajectory_id": 5, "北京时间": "2026-05-06 23:00", "lon": 113.942, "lat": 30.907, "height": 10.0 }, "geometry": { "type": "Point", "coordinates": [ 113.942, 30.907 ] } },
{ "type": "Feature", "properties": { "pt_id": "  5017", "trajectory_id": 5, "北京时间": "2026-05-06 22:00", "lon": 114.047, "lat": 30.789, "height": 6.0 }, "geometry": { "type": "Point", "coordinates": [ 114.047, 30.789 ] } },
{ "type": "Feature", "properties": { "pt_id": "  5018", "trajectory_id": 5, "北京时间": "2026-05-06 21:00", "lon": 114.15, "lat": 30.689, "height": 2.0 }, "geometry": { "type": "Point", "coordinates": [ 114.15, 30.689 ] } },
{ "type": "Feature", "properties": { "pt_id": "  5019", "trajectory_id": 5, "北京时间": "2026-05-06 20:00", "lon": 114.248, "lat": 30.601, "height": 0.0 }, "geometry": { "type": "Point", "coordinates": [ 114.248, 30.601 ] } },
{ "type": "Feature", "properties": { "pt_id": "  5020", "trajectory_id": 5, "北京时间": "2026-05-06 19:00", "lon": 114.332, "lat": 30.512, "height": 0.0 }, "geometry": { "type": "Point", "coordinates": [ 114.332, 30.512 ] } },
{ "type": "Feature", "properties": { "pt_id": "  5021", "trajectory_id": 5, "北京时间": "2026-05-06 18:00", "lon": 114.408, "lat": 30.423, "height": 0.0 }, "geometry": { "type": "Point", "coordinates": [ 114.408, 30.423 ] } },
{ "type": "Feature", "properties": { "pt_id": "  5022", "trajectory_id": 5, "北京时间": "2026-05-06 17:00", "lon": 114.473, "lat": 30.337, "height": 0.0 }, "geometry": { "type": "Point", "coordinates": [ 114.473, 30.337 ] } },
{ "type": "Feature", "properties": { "pt_id": "  5023", "trajectory_id": 5, "北京时间": "2026-05-06 16:00", "lon": 114.522, "lat": 30.252, "height": 1.0 }, "geometry": { "type": "Point", "coordinates": [ 114.522, 30.252 ] } },
{ "type": "Feature", "properties": { "pt_id": "  5024", "trajectory_id": 5, "北京时间": "2026-05-06 15:00", "lon": 114.562, "lat": 30.165, "height": 13.0 }, "geometry": { "type": "Point", "coordinates": [ 114.562, 30.165 ] } },
{ "type": "Feature", "properties": { "pt_id": "  5025", "trajectory_id": 5, "北京时间": "2026-05-06 14:00", "lon": 114.624, "lat": 30.07, "height": 45.0 }, "geometry": { "type": "Point", "coordinates": [ 114.624, 30.07 ] } },
{ "type": "Feature", "properties": { "pt_id": "  5026", "trajectory_id": 5, "北京时间": "2026-05-06 13:00", "lon": 114.714, "lat": 29.959, "height": 114.0 }, "geometry": { "type": "Point", "coordinates": [ 114.714, 29.959 ] } },
{ "type": "Feature", "properties": { "pt_id": "  5027", "trajectory_id": 5, "北京时间": "2026-05-06 12:00", "lon": 114.832, "lat": 29.832, "height": 192.0 }, "geometry": { "type": "Point", "coordinates": [ 114.832, 29.832 ] } },
{ "type": "Feature", "properties": { "pt_id": "  5028", "trajectory_id": 5, "北京时间": "2026-05-06 11:00", "lon": 114.967, "lat": 29.679, "height": 171.0 }, "geometry": { "type": "Point", "coordinates": [ 114.967, 29.679 ] } },
{ "type": "Feature", "properties": { "pt_id": "  5029", "trajectory_id": 5, "北京时间": "2026-05-06 10:00", "lon": 115.083, "lat": 29.559, "height": 146.0 }, "geometry": { "type": "Point", "coordinates": [ 115.083, 29.559 ] } },
{ "type": "Feature", "properties": { "pt_id": "  5030", "trajectory_id": 5, "北京时间": "2026-05-06 09:00", "lon": 115.216, "lat": 29.436, "height": 147.0 }, "geometry": { "type": "Point", "coordinates": [ 115.216, 29.436 ] } },
{ "type": "Feature", "properties": { "pt_id": "  5031", "trajectory_id": 5, "北京时间": "2026-05-06 08:00", "lon": 115.328, "lat": 29.298, "height": 187.0 }, "geometry": { "type": "Point", "coordinates": [ 115.328, 29.298 ] } },
{ "type": "Feature", "properties": { "pt_id": "  5032", "trajectory_id": 5, "北京时间": "2026-05-06 07:00", "lon": 115.383, "lat": 29.164, "height": 210.0 }, "geometry": { "type": "Point", "coordinates": [ 115.383, 29.164 ] } },
{ "type": "Feature", "properties": { "pt_id": "  5033", "trajectory_id": 5, "北京时间": "2026-05-06 06:00", "lon": 115.404, "lat": 29.008, "height": 154.0 }, "geometry": { "type": "Point", "coordinates": [ 115.404, 29.008 ] } },
{ "type": "Feature", "properties": { "pt_id": "  5034", "trajectory_id": 5, "北京时间": "2026-05-06 05:00", "lon": 115.409, "lat": 28.867, "height": 55.0 }, "geometry": { "type": "Point", "coordinates": [ 115.409, 28.867 ] } },
{ "type": "Feature", "properties": { "pt_id": "  5035", "trajectory_id": 5, "北京时间": "2026-05-06 04:00", "lon": 115.409, "lat": 28.768, "height": 0.0 }, "geometry": { "type": "Point", "coordinates": [ 115.409, 28.768 ] } },
{ "type": "Feature", "properties": { "pt_id": "  5036", "trajectory_id": 5, "北京时间": "2026-05-06 03:00", "lon": 115.409, "lat": 28.7, "height": 0.0 }, "geometry": { "type": "Point", "coordinates": [ 115.409, 28.7 ] } },
{ "type": "Feature", "properties": { "pt_id": "  5037", "trajectory_id": 5, "北京时间": "2026-05-06 02:00", "lon": 115.411, "lat": 28.649, "height": 0.0 }, "geometry": { "type": "Point", "coordinates": [ 115.411, 28.649 ] } },
{ "type": "Feature", "properties": { "pt_id": "  5038", "trajectory_id": 5, "北京时间": "2026-05-06 01:00", "lon": 115.418, "lat": 28.61, "height": 0.0 }, "geometry": { "type": "Point", "coordinates": [ 115.418, 28.61 ] } },
{ "type": "Feature", "properties": { "pt_id": "  5039", "trajectory_id": 5, "北京时间": "2026-05-06 00:00", "lon": 115.434, "lat": 28.579, "height": 0.0 }, "geometry": { "type": "Point", "coordinates": [ 115.434, 28.579 ] } },
{ "type": "Feature", "properties": { "pt_id": "  6000", "trajectory_id": 6, "北京时间": "2026-05-06 23:00", "lon": 113.942, "lat": 30.907, "height": 10.0 }, "geometry": { "type": "Point", "coordinates": [ 113.942, 30.907 ] } },
{ "type": "Feature", "properties": { "pt_id": "  6021", "trajectory_id": 6, "北京时间": "2026-05-06 22:00", "lon": 114.038, "lat": 30.805, "height": 7.0 }, "geometry": { "type": "Point", "coordinates": [ 114.038, 30.805 ] } },
{ "type": "Feature", "properties": { "pt_id": "  6022", "trajectory_id": 6, "北京时间": "2026-05-06 21:00", "lon": 114.122, "lat": 30.698, "height": 5.0 }, "geometry": { "type": "Point", "coordinates": [ 114.122, 30.698 ] } },
{ "type": "Feature", "properties": { "pt_id": "  6023", "trajectory_id": 6, "北京时间": "2026-05-06 20:00", "lon": 114.198, "lat": 30.595, "height": 5.0 }, "geometry": { "type": "Point", "coordinates": [ 114.198, 30.595 ] } },
{ "type": "Feature", "properties": { "pt_id": "  6024", "trajectory_id": 6, "北京时间": "2026-05-06 19:00", "lon": 114.26, "lat": 30.504, "height": 9.0 }, "geometry": { "type": "Point", "coordinates": [ 114.26, 30.504 ] } },
{ "type": "Feature", "properties": { "pt_id": "  6025", "trajectory_id": 6, "北京时间": "2026-05-06 18:00", "lon": 114.315, "lat": 30.416, "height": 12.0 }, "geometry": { "type": "Point", "coordinates": [ 114.315, 30.416 ] } },
{ "type": "Feature", "properties": { "pt_id": "  6026", "trajectory_id": 6, "北京时间": "2026-05-06 17:00", "lon": 114.378, "lat": 30.325, "height": 12.0 }, "geometry": { "type": "Point", "coordinates": [ 114.378, 30.325 ] } },
{ "type": "Feature", "properties": { "pt_id": "  6027", "trajectory_id": 6, "北京时间": "2026-05-06 16:00", "lon": 114.469, "lat": 30.236, "height": 11.0 }, "geometry": { "type": "Point", "coordinates": [ 114.469, 30.236 ] } },
{ "type": "Feature", "properties": { "pt_id": "  6028", "trajectory_id": 6, "北京时间": "2026-05-06 15:00", "lon": 114.574, "lat": 30.15, "height": 22.0 }, "geometry": { "type": "Point", "coordinates": [ 114.574, 30.15 ] } },
{ "type": "Feature", "properties": { "pt_id": "  6029", "trajectory_id": 6, "北京时间": "2026-05-06 14:00", "lon": 114.659, "lat": 30.066, "height": 52.0 }, "geometry": { "type": "Point", "coordinates": [ 114.659, 30.066 ] } },
{ "type": "Feature", "properties": { "pt_id": "  6030", "trajectory_id": 6, "北京时间": "2026-05-06 13:00", "lon": 114.757, "lat": 29.973, "height": 88.0 }, "geometry": { "type": "Point", "coordinates": [ 114.757, 29.973 ] } },
{ "type": "Feature", "properties": { "pt_id": "  6031", "trajectory_id": 6, "北京时间": "2026-05-06 12:00", "lon": 114.85, "lat": 29.876, "height": 116.0 }, "geometry": { "type": "Point", "coordinates": [ 114.85, 29.876 ] } },
{ "type": "Feature", "properties": { "pt_id": "  6032", "trajectory_id": 6, "北京时间": "2026-05-06 11:00", "lon": 114.91, "lat": 29.788, "height": 123.0 }, "geometry": { "type": "Point", "coordinates": [ 114.91, 29.788 ] } },
{ "type": "Feature", "properties": { "pt_id": "  6033", "trajectory_id": 6, "北京时间": "2026-05-06 10:00", "lon": 114.95, "lat": 29.712, "height": 125.0 }, "geometry": { "type": "Point", "coordinates": [ 114.95, 29.712 ] } },
{ "type": "Feature", "properties": { "pt_id": "  6034", "trajectory_id": 6, "北京时间": "2026-05-06 09:00", "lon": 114.973, "lat": 29.641, "height": 143.0 }, "geometry": { "type": "Point", "coordinates": [ 114.973, 29.641 ] } },
{ "type": "Feature", "properties": { "pt_id": "  6035", "trajectory_id": 6, "北京时间": "2026-05-06 08:00", "lon": 114.985, "lat": 29.562, "height": 178.0 }, "geometry": { "type": "Point", "coordinates": [ 114.985, 29.562 ] } },
{ "type": "Feature", "properties": { "pt_id": "  6036", "trajectory_id": 6, "北京时间": "2026-05-06 07:00", "lon": 114.997, "lat": 29.479, "height": 200.0 }, "geometry": { "type": "Point", "coordinates": [ 114.997, 29.479 ] } },
{ "type": "Feature", "properties": { "pt_id": "  6037", "trajectory_id": 6, "北京时间": "2026-05-06 06:00", "lon": 115.011, "lat": 29.409, "height": 208.0 }, "geometry": { "type": "Point", "coordinates": [ 115.011, 29.409 ] } },
{ "type": "Feature", "properties": { "pt_id": "  6038", "trajectory_id": 6, "北京时间": "2026-05-06 05:00", "lon": 115.023, "lat": 29.354, "height": 225.0 }, "geometry": { "type": "Point", "coordinates": [ 115.023, 29.354 ] } },
{ "type": "Feature", "properties": { "pt_id": "  6039", "trajectory_id": 6, "北京时间": "2026-05-06 04:00", "lon": 115.041, "lat": 29.307, "height": 249.0 }, "geometry": { "type": "Point", "coordinates": [ 115.041, 29.307 ] } },
{ "type": "Feature", "properties": { "pt_id": "  7000", "trajectory_id": 7, "北京时间": "2026-05-06 23:00", "lon": 113.942, "lat": 30.907, "height": 10.0 }, "geometry": { "type": "Point", "coordinates": [ 113.942, 30.907 ] } },
{ "type": "Feature", "properties": { "pt_id": "  7025", "trajectory_id": 7, "北京时间": "2026-05-06 22:00", "lon": 114.005, "lat": 30.798, "height": 7.0 }, "geometry": { "type": "Point", "coordinates": [ 114.005, 30.798 ] } },
{ "type": "Feature", "properties": { "pt_id": "  7026", "trajectory_id": 7, "北京时间": "2026-05-06 21:00", "lon": 114.027, "lat": 30.682, "height": 6.0 }, "geometry": { "type": "Point", "coordinates": [ 114.027, 30.682 ] } },
{ "type": "Feature", "properties": { "pt_id": "  7027", "trajectory_id": 7, "北京时间": "2026-05-06 20:00", "lon": 114.015, "lat": 30.571, "height": 6.0 }, "geometry": { "type": "Point", "coordinates": [ 114.015, 30.571 ] } },
{ "type": "Feature", "properties": { "pt_id": "  7028", "trajectory_id": 7, "北京时间": "2026-05-06 19:00", "lon": 113.982, "lat": 30.459, "height": 6.0 }, "geometry": { "type": "Point", "coordinates": [ 113.982, 30.459 ] } },
{ "type": "Feature", "properties": { "pt_id": "  7029", "trajectory_id": 7, "北京时间": "2026-05-06 18:00", "lon": 113.946, "lat": 30.336, "height": 6.0 }, "geometry": { "type": "Point", "coordinates": [ 113.946, 30.336 ] } },
{ "type": "Feature", "properties": { "pt_id": "  7030", "trajectory_id": 7, "北京时间": "2026-05-06 17:00", "lon": 113.9, "lat": 30.206, "height": 7.0 }, "geometry": { "type": "Point", "coordinates": [ 113.9, 30.206 ] } },
{ "type": "Feature", "properties": { "pt_id": "  7031", "trajectory_id": 7, "北京时间": "2026-05-06 16:00", "lon": 113.841, "lat": 30.077, "height": 11.0 }, "geometry": { "type": "Point", "coordinates": [ 113.841, 30.077 ] } },
{ "type": "Feature", "properties": { "pt_id": "  7032", "trajectory_id": 7, "北京时间": "2026-05-06 15:00", "lon": 113.769, "lat": 29.948, "height": 16.0 }, "geometry": { "type": "Point", "coordinates": [ 113.769, 29.948 ] } },
{ "type": "Feature", "properties": { "pt_id": "  7033", "trajectory_id": 7, "北京时间": "2026-05-06 14:00", "lon": 113.695, "lat": 29.803, "height": 29.0 }, "geometry": { "type": "Point", "coordinates": [ 113.695, 29.803 ] } },
{ "type": "Feature", "properties": { "pt_id": "  7034", "trajectory_id": 7, "北京时间": "2026-05-06 13:00", "lon": 113.622, "lat": 29.634, "height": 65.0 }, "geometry": { "type": "Point", "coordinates": [ 113.622, 29.634 ] } },
{ "type": "Feature", "properties": { "pt_id": "  7035", "trajectory_id": 7, "北京时间": "2026-05-06 12:00", "lon": 113.552, "lat": 29.44, "height": 133.0 }, "geometry": { "type": "Point", "coordinates": [ 113.552, 29.44 ] } },
{ "type": "Feature", "properties": { "pt_id": "  7036", "trajectory_id": 7, "北京时间": "2026-05-06 11:00", "lon": 113.498, "lat": 29.234, "height": 166.0 }, "geometry": { "type": "Point", "coordinates": [ 113.498, 29.234 ] } },
{ "type": "Feature", "properties": { "pt_id": "  7037", "trajectory_id": 7, "北京时间": "2026-05-06 10:00", "lon": 113.488, "lat": 29.041, "height": 203.0 }, "geometry": { "type": "Point", "coordinates": [ 113.488, 29.041 ] } },
{ "type": "Feature", "properties": { "pt_id": "  7038", "trajectory_id": 7, "北京时间": "2026-05-06 09:00", "lon": 113.526, "lat": 28.868, "height": 268.0 }, "geometry": { "type": "Point", "coordinates": [ 113.526, 28.868 ] } },
{ "type": "Feature", "properties": { "pt_id": "  7039", "trajectory_id": 7, "北京时间": "2026-05-06 08:00", "lon": 113.594, "lat": 28.74, "height": 298.0 }, "geometry": { "type": "Point", "coordinates": [ 113.594, 28.74 ] } },
{ "type": "Feature", "properties": { "pt_id": "  8000", "trajectory_id": 8, "北京时间": "2026-05-06 23:00", "lon": 113.942, "lat": 30.907, "height": 10.0 }, "geometry": { "type": "Point", "coordinates": [ 113.942, 30.907 ] } },
{ "type": "Feature", "properties": { "pt_id": "  8029", "trajectory_id": 8, "北京时间": "2026-05-06 22:00", "lon": 113.897, "lat": 30.757, "height": 9.0 }, "geometry": { "type": "Point", "coordinates": [ 113.897, 30.757 ] } },
{ "type": "Feature", "properties": { "pt_id": "  8030", "trajectory_id": 8, "北京时间": "2026-05-06 21:00", "lon": 113.848, "lat": 30.599, "height": 10.0 }, "geometry": { "type": "Point", "coordinates": [ 113.848, 30.599 ] } },
{ "type": "Feature", "properties": { "pt_id": "  8031", "trajectory_id": 8, "北京时间": "2026-05-06 20:00", "lon": 113.793, "lat": 30.435, "height": 11.0 }, "geometry": { "type": "Point", "coordinates": [ 113.793, 30.435 ] } },
{ "type": "Feature", "properties": { "pt_id": "  8032", "trajectory_id": 8, "北京时间": "2026-05-06 19:00", "lon": 113.73, "lat": 30.272, "height": 11.0 }, "geometry": { "type": "Point", "coordinates": [ 113.73, 30.272 ] } },
{ "type": "Feature", "properties": { "pt_id": "  8033", "trajectory_id": 8, "北京时间": "2026-05-06 18:00", "lon": 113.663, "lat": 30.108, "height": 11.0 }, "geometry": { "type": "Point", "coordinates": [ 113.663, 30.108 ] } },
{ "type": "Feature", "properties": { "pt_id": "  8034", "trajectory_id": 8, "北京时间": "2026-05-06 17:00", "lon": 113.594, "lat": 29.94, "height": 14.0 }, "geometry": { "type": "Point", "coordinates": [ 113.594, 29.94 ] } },
{ "type": "Feature", "properties": { "pt_id": "  8035", "trajectory_id": 8, "北京时间": "2026-05-06 16:00", "lon": 113.52, "lat": 29.761, "height": 30.0 }, "geometry": { "type": "Point", "coordinates": [ 113.52, 29.761 ] } },
{ "type": "Feature", "properties": { "pt_id": "  8036", "trajectory_id": 8, "北京时间": "2026-05-06 15:00", "lon": 113.444, "lat": 29.55, "height": 77.0 }, "geometry": { "type": "Point", "coordinates": [ 113.444, 29.55 ] } },
{ "type": "Feature", "properties": { "pt_id": "  8037", "trajectory_id": 8, "北京时间": "2026-05-06 14:00", "lon": 113.406, "lat": 29.326, "height": 141.0 }, "geometry": { "type": "Point", "coordinates": [ 113.406, 29.326 ] } },
{ "type": "Feature", "properties": { "pt_id": "  8038", "trajectory_id": 8, "北京时间": "2026-05-06 13:00", "lon": 113.419, "lat": 29.14, "height": 182.0 }, "geometry": { "type": "Point", "coordinates": [ 113.419, 29.14 ] } },
{ "type": "Feature", "properties": { "pt_id": "  8039", "trajectory_id": 8, "北京时间": "2026-05-06 12:00", "lon": 113.475, "lat": 28.965, "height": 261.0 }, "geometry": { "type": "Point", "coordinates": [ 113.475, 28.965 ] } },
{ "type": "Feature", "properties": { "pt_id": "  9000", "trajectory_id": 9, "北京时间": "2026-05-06 23:00", "lon": 113.942, "lat": 30.907, "height": 10.0 }, "geometry": { "type": "Point", "coordinates": [ 113.942, 30.907 ] } },
{ "type": "Feature", "properties": { "pt_id": "  9033", "trajectory_id": 9, "北京时间": "2026-05-06 22:00", "lon": 113.896, "lat": 30.719, "height": 10.0 }, "geometry": { "type": "Point", "coordinates": [ 113.896, 30.719 ] } },
{ "type": "Feature", "properties": { "pt_id": "  9034", "trajectory_id": 9, "北京时间": "2026-05-06 21:00", "lon": 113.856, "lat": 30.537, "height": 10.0 }, "geometry": { "type": "Point", "coordinates": [ 113.856, 30.537 ] } },
{ "type": "Feature", "properties": { "pt_id": "  9035", "trajectory_id": 9, "北京时间": "2026-05-06 20:00", "lon": 113.82, "lat": 30.369, "height": 10.0 }, "geometry": { "type": "Point", "coordinates": [ 113.82, 30.369 ] } },
{ "type": "Feature", "properties": { "pt_id": "  9036", "trajectory_id": 9, "北京时间": "2026-05-06 19:00", "lon": 113.786, "lat": 30.212, "height": 10.0 }, "geometry": { "type": "Point", "coordinates": [ 113.786, 30.212 ] } },
{ "type": "Feature", "properties": { "pt_id": "  9037", "trajectory_id": 9, "北京时间": "2026-05-06 18:00", "lon": 113.766, "lat": 30.073, "height": 11.0 }, "geometry": { "type": "Point", "coordinates": [ 113.766, 30.073 ] } },
{ "type": "Feature", "properties": { "pt_id": "  9038", "trajectory_id": 9, "北京时间": "2026-05-06 17:00", "lon": 113.769, "lat": 29.962, "height": 14.0 }, "geometry": { "type": "Point", "coordinates": [ 113.769, 29.962 ] } },
{ "type": "Feature", "properties": { "pt_id": "  9039", "trajectory_id": 9, "北京时间": "2026-05-06 16:00", "lon": 113.8, "lat": 29.868, "height": 32.0 }, "geometry": { "type": "Point", "coordinates": [ 113.8, 29.868 ] } },
{ "type": "Feature", "properties": { "pt_id": " 10000", "trajectory_id": 10, "北京时间": "2026-05-06 23:00", "lon": 113.942, "lat": 30.907, "height": 10.0 }, "geometry": { "type": "Point", "coordinates": [ 113.942, 30.907 ] } },
{ "type": "Feature", "properties": { "pt_id": " 10037", "trajectory_id": 10, "北京时间": "2026-05-06 22:00", "lon": 113.938, "lat": 30.755, "height": 8.0 }, "geometry": { "type": "Point", "coordinates": [ 113.938, 30.755 ] } },
{ "type": "Feature", "properties": { "pt_id": " 10038", "trajectory_id": 10, "北京时间": "2026-05-06 21:00", "lon": 113.961, "lat": 30.626, "height": 8.0 }, "geometry": { "type": "Point", "coordinates": [ 113.961, 30.626 ] } },
{ "type": "Feature", "properties": { "pt_id": " 10039", "trajectory_id": 10, "北京时间": "2026-05-06 20:00", "lon": 114.018, "lat": 30.523, "height": 9.0 }, "geometry": { "type": "Point", "coordinates": [ 114.018, 30.523 ] } }
]
}
