{
"type": "FeatureCollection",
"name": "东城",
"crs": { "type": "name", "properties": { "name": "urn:ogc:def:crs:OGC:1.3:CRS84" } },
"features": [
{ "type": "Feature", "properties": { "北京时间": "2026-05-06 23:00" }, "geometry": { "type": "Polygon", "coordinates": [ [ [ 113.950983152841175, 30.899292125133776 ], [ 113.950983152841175, 30.914707254158273 ], [ 113.933016847158797, 30.914707254158273 ], [ 113.933016847158797, 30.899292125133776 ], [ 113.950983152841175, 30.899292125133776 ] ] ] } },
{ "type": "Feature", "properties": { "北京时间": "2026-05-06 22:00" }, "geometry": { "type": "Polygon", "coordinates": [ [ [ 113.904983152841183, 30.711277027677042 ], [ 113.904983152841183, 30.726722353811201 ], [ 113.88701684715879, 30.726722353811201 ], [ 113.88701684715879, 30.711277027677042 ], [ 113.904983152841183, 30.711277027677042 ] ] ] } },
{ "type": "Feature", "properties": { "北京时间": "2026-05-06 22:00" }, "geometry": { "type": "Polygon", "coordinates": [ [ [ 113.905983152841202, 30.749280072590306 ], [ 113.905983152841202, 30.76471930845188 ], [ 113.888016847158809, 30.76471930845188 ], [ 113.888016847158809, 30.749280072590306 ], [ 113.905983152841202, 30.749280072590306 ] ] ] } },
{ "type": "Feature", "properties": { "北京时间": "2026-05-06 22:00" }, "geometry": { "type": "Polygon", "coordinates": [ [ [ 114.013983152841178, 30.790283361700322 ], [ 114.013983152841178, 30.805716018861794 ], [ 113.996016847158785, 30.805716018861794 ], [ 113.996016847158785, 30.790283361700322 ], [ 114.013983152841178, 30.790283361700322 ] ] ] } },
{ "type": "Feature", "properties": { "北京时间": "2026-05-06 22:00" }, "geometry": { "type": "Polygon", "coordinates": [ [ [ 114.046983152841179, 30.797283923650699 ], [ 114.046983152841179, 30.812715456829597 ], [ 114.0290168471588, 30.812715456829597 ], [ 114.0290168471588, 30.797283923650699 ], [ 114.046983152841179, 30.797283923650699 ] ] ] } },
{ "type": "Feature", "properties": { "北京时间": "2026-05-06 22:00" }, "geometry": { "type": "Polygon", "coordinates": [ [ [ 114.055983152841179, 30.781282639361979 ], [ 114.055983152841179, 30.796716741305413 ], [ 114.038016847158787, 30.796716741305413 ], [ 114.038016847158787, 30.781282639361979 ], [ 114.055983152841179, 30.781282639361979 ] ] ] } },
{ "type": "Feature", "properties": { "北京时间": "2026-05-06 22:00" }, "geometry": { "type": "Polygon", "coordinates": [ [ [ 113.902983152841202, 30.682274706213143 ], [ 113.902983152841202, 30.697724675616232 ], [ 113.885016847158809, 30.697724675616232 ], [ 113.885016847158809, 30.682274706213143 ], [ 113.902983152841202, 30.682274706213143 ] ] ] } },
{ "type": "Feature", "properties": { "北京时间": "2026-05-06 22:00" }, "geometry": { "type": "Polygon", "coordinates": [ [ [ 113.97798315284119, 30.95429655764228 ], [ 113.97798315284119, 30.96970282101233 ], [ 113.960016847158784, 30.96970282101233 ], [ 113.960016847158784, 30.95429655764228 ], [ 113.97798315284119, 30.95429655764228 ] ] ] } },
{ "type": "Feature", "properties": { "北京时间": "2026-05-06 22:00" }, "geometry": { "type": "Polygon", "coordinates": [ [ [ 113.879983152841191, 30.765281355675139 ], [ 113.879983152841191, 30.780718025179539 ], [ 113.862016847158799, 30.780718025179539 ], [ 113.862016847158799, 30.765281355675139 ], [ 113.879983152841191, 30.765281355675139 ] ] ] } },
{ "type": "Feature", "properties": { "北京时间": "2026-05-06 21:00" }, "geometry": { "type": "Polygon", "coordinates": [ [ [ 113.807983152841189, 30.600268152786814 ], [ 113.807983152841189, 30.615731230010628 ], [ 113.79001684715881, 30.615731230010628 ], [ 113.79001684715881, 30.600268152786814 ], [ 113.807983152841189, 30.600268152786814 ] ] ] } },
{ "type": "Feature", "properties": { "北京时间": "2026-05-06 21:00" }, "geometry": { "type": "Polygon", "coordinates": [ [ [ 113.856983152841181, 30.591267434472666 ], [ 113.856983152841181, 30.606731948431342 ], [ 113.839016847158788, 30.606731948431342 ], [ 113.839016847158788, 30.591267434472666 ], [ 113.856983152841181, 30.591267434472666 ] ] ] } },
{ "type": "Feature", "properties": { "北京时间": "2026-05-06 21:00" }, "geometry": { "type": "Polygon", "coordinates": [ [ [ 113.968983152841176, 30.947295993110465 ], [ 113.968983152841176, 30.962703385625133 ], [ 113.951016847158783, 30.962703385625133 ], [ 113.951016847158783, 30.947295993110465 ], [ 113.968983152841176, 30.947295993110465 ] ] ] } },
{ "type": "Feature", "properties": { "北京时间": "2026-05-06 21:00" }, "geometry": { "type": "Polygon", "coordinates": [ [ [ 113.864983152841191, 30.529262491272245 ], [ 113.864983152841191, 30.54473689236746 ], [ 113.847016847158798, 30.54473689236746 ], [ 113.847016847158798, 30.529262491272245 ], [ 113.864983152841191, 30.529262491272245 ] ] ] } },
{ "type": "Feature", "properties": { "北京时间": "2026-05-06 20:00" }, "geometry": { "type": "Polygon", "coordinates": [ [ [ 113.732983152841186, 30.417253584592991 ], [ 113.732983152841186, 30.432745800383071 ], [ 113.715016847158793, 30.432745800383071 ], [ 113.715016847158793, 30.417253584592991 ], [ 113.732983152841186, 30.417253584592991 ] ] ] } },
{ "type": "Feature", "properties": { "北京时间": "2026-05-06 20:00" }, "geometry": { "type": "Polygon", "coordinates": [ [ [ 113.914983152841202, 30.886291078487726 ], [ 113.914983152841202, 30.901708300955345 ], [ 113.89701684715881, 30.901708300955345 ], [ 113.89701684715881, 30.886291078487726 ], [ 113.914983152841202, 30.886291078487726 ] ] ] } },
{ "type": "Feature", "properties": { "北京时间": "2026-05-06 19:00" }, "geometry": { "type": "Polygon", "coordinates": [ [ [ 113.838983152841195, 30.780282559113914 ], [ 113.838983152841195, 30.795716821565179 ], [ 113.821016847158802, 30.795716821565179 ], [ 113.821016847158802, 30.780282559113914 ], [ 113.838983152841195, 30.780282559113914 ] ] ] } },
{ "type": "Feature", "properties": { "北京时间": "2026-05-06 18:00" }, "geometry": { "type": "Polygon", "coordinates": [ [ [ 113.759983152841201, 30.644271667291111 ], [ 113.759983152841201, 30.659727714986264 ], [ 113.742016847158808, 30.659727714986264 ], [ 113.742016847158808, 30.644271667291111 ], [ 113.759983152841201, 30.644271667291111 ] ] ] } },
{ "type": "Feature", "properties": { "北京时间": "2026-05-06 17:00" }, "geometry": { "type": "Polygon", "coordinates": [ [ [ 113.678983152841184, 30.478258431883468 ], [ 113.678983152841184, 30.493740952363598 ], [ 113.661016847158791, 30.493740952363598 ], [ 113.661016847158791, 30.478258431883468 ], [ 113.678983152841184, 30.478258431883468 ] ] ] } }
]
}
