{
"type": "FeatureCollection",
"name": "东城",
"crs": { "type": "name", "properties": { "name": "urn:ogc:def:crs:OGC:1.3:CRS84" } },
"features": [
{ "type": "Feature", "properties": { "北京时间": "2026-05-08 23:00" }, "geometry": { "type": "Polygon", "coordinates": [ [ [ 113.950983152841175, 30.899292125133776 ], [ 113.950983152841175, 30.914707254158273 ], [ 113.933016847158797, 30.914707254158273 ], [ 113.933016847158797, 30.899292125133776 ], [ 113.950983152841175, 30.899292125133776 ] ] ] } },
{ "type": "Feature", "properties": { "北京时间": "2026-05-08 22:00" }, "geometry": { "type": "Polygon", "coordinates": [ [ [ 114.012983152841201, 31.045303907017473 ], [ 114.012983152841201, 31.060695470587461 ], [ 113.995016847158809, 31.060695470587461 ], [ 113.995016847158809, 31.045303907017473 ], [ 114.012983152841201, 31.045303907017473 ] ] ] } },
{ "type": "Feature", "properties": { "北京时间": "2026-05-08 22:00" }, "geometry": { "type": "Polygon", "coordinates": [ [ [ 114.024983152841187, 31.021301966834869 ], [ 114.024983152841187, 31.036697411046308 ], [ 114.007016847158795, 31.036697411046308 ], [ 114.007016847158795, 31.021301966834869 ], [ 114.024983152841187, 31.021301966834869 ] ] ] } },
{ "type": "Feature", "properties": { "北京时间": "2026-05-08 22:00" }, "geometry": { "type": "Polygon", "coordinates": [ [ [ 113.999983152841196, 31.091307629475406 ], [ 113.999983152841196, 31.106691747601332 ], [ 113.982016847158789, 31.106691747601332 ], [ 113.982016847158789, 31.091307629475406 ], [ 113.999983152841196, 31.091307629475406 ] ] ] } },
{ "type": "Feature", "properties": { "北京时间": "2026-05-08 22:00" }, "geometry": { "type": "Polygon", "coordinates": [ [ [ 113.981983152841181, 31.07230609133719 ], [ 113.981983152841181, 31.087693285957538 ], [ 113.964016847158803, 31.087693285957538 ], [ 113.964016847158803, 31.07230609133719 ], [ 113.981983152841181, 31.07230609133719 ] ] ] } },
{ "type": "Feature", "properties": { "北京时间": "2026-05-08 22:00" }, "geometry": { "type": "Polygon", "coordinates": [ [ [ 113.97798315284119, 31.042303664420785 ], [ 113.97798315284119, 31.057695713218674 ], [ 113.960016847158784, 31.057695713218674 ], [ 113.960016847158784, 31.042303664420785 ], [ 113.97798315284119, 31.042303664420785 ] ] ] } },
{ "type": "Feature", "properties": { "北京时间": "2026-05-08 22:00" }, "geometry": { "type": "Polygon", "coordinates": [ [ [ 113.964983152841199, 31.032302855917553 ], [ 113.964983152841199, 31.04769652183694 ], [ 113.947016847158807, 31.04769652183694 ], [ 113.947016847158807, 31.032302855917553 ], [ 113.964983152841199, 31.032302855917553 ] ] ] } },
{ "type": "Feature", "properties": { "北京时间": "2026-05-08 22:00" }, "geometry": { "type": "Polygon", "coordinates": [ [ [ 113.895983152841183, 30.831286654762224 ], [ 113.895983152841183, 30.846712725321122 ], [ 113.87801684715879, 30.846712725321122 ], [ 113.87801684715879, 30.831286654762224 ], [ 113.895983152841183, 30.831286654762224 ] ] ] } },
{ "type": "Feature", "properties": { "北京时间": "2026-05-08 22:00" }, "geometry": { "type": "Polygon", "coordinates": [ [ [ 114.033983152841188, 30.865289388590242 ], [ 114.033983152841188, 30.880709991097021 ], [ 114.016016847158795, 30.880709991097021 ], [ 114.016016847158795, 30.865289388590242 ], [ 114.033983152841188, 30.865289388590242 ] ] ] } },
{ "type": "Feature", "properties": { "北京时间": "2026-05-08 22:00" }, "geometry": { "type": "Polygon", "coordinates": [ [ [ 113.950983152841175, 30.921293897284997 ], [ 113.950983152841175, 30.936705481751801 ], [ 113.933016847158797, 30.936705481751801 ], [ 113.933016847158797, 30.921293897284997 ], [ 113.950983152841175, 30.921293897284997 ] ] ] } },
{ "type": "Feature", "properties": { "北京时间": "2026-05-08 22:00" }, "geometry": { "type": "Polygon", "coordinates": [ [ [ 113.924983152841193, 30.765281355675139 ], [ 113.924983152841193, 30.780718025179539 ], [ 113.9070168471588, 30.780718025179539 ], [ 113.9070168471588, 30.765281355675139 ], [ 113.924983152841193, 30.765281355675139 ] ] ] } },
{ "type": "Feature", "properties": { "北京时间": "2026-05-08 22:00" }, "geometry": { "type": "Polygon", "coordinates": [ [ [ 114.056983152841198, 31.049304230512551 ], [ 114.056983152841198, 31.064695147046397 ], [ 114.039016847158805, 31.064695147046397 ], [ 114.039016847158805, 31.049304230512551 ], [ 114.056983152841198, 31.049304230512551 ] ] ] } },
{ "type": "Feature", "properties": { "北京时间": "2026-05-08 22:00" }, "geometry": { "type": "Polygon", "coordinates": [ [ [ 114.041983152841183, 31.018301724407014 ], [ 114.041983152841183, 31.033697653508714 ], [ 114.024016847158791, 31.033697653508714 ], [ 114.024016847158791, 31.018301724407014 ], [ 114.041983152841183, 31.018301724407014 ] ] ] } },
{ "type": "Feature", "properties": { "北京时间": "2026-05-08 22:00" }, "geometry": { "type": "Polygon", "coordinates": [ [ [ 113.918983152841179, 30.672273906167266 ], [ 113.918983152841179, 30.687725475779892 ], [ 113.901016847158786, 30.687725475779892 ], [ 113.901016847158786, 30.672273906167266 ], [ 113.918983152841179, 30.672273906167266 ] ] ] } },
{ "type": "Feature", "properties": { "北京时间": "2026-05-08 22:00" }, "geometry": { "type": "Polygon", "coordinates": [ [ [ 114.033983152841188, 30.778282398624846 ], [ 114.033983152841188, 30.793716982077655 ], [ 114.016016847158795, 30.793716982077655 ], [ 114.016016847158795, 30.778282398624846 ], [ 114.033983152841188, 30.778282398624846 ] ] ] } },
{ "type": "Feature", "properties": { "北京时间": "2026-05-08 22:00" }, "geometry": { "type": "Polygon", "coordinates": [ [ [ 113.9889831528412, 30.780282559113914 ], [ 113.9889831528412, 30.795716821565179 ], [ 113.971016847158793, 30.795716821565179 ], [ 113.971016847158793, 30.780282559113914 ], [ 113.9889831528412, 30.780282559113914 ] ] ] } },
{ "type": "Feature", "properties": { "北京时间": "2026-05-08 22:00" }, "geometry": { "type": "Polygon", "coordinates": [ [ [ 113.915983152841179, 30.749280072590306 ], [ 113.915983152841179, 30.76471930845188 ], [ 113.898016847158786, 30.76471930845188 ], [ 113.898016847158786, 30.749280072590306 ], [ 113.915983152841179, 30.749280072590306 ] ] ] } },
{ "type": "Feature", "properties": { "北京时间": "2026-05-08 22:00" }, "geometry": { "type": "Polygon", "coordinates": [ [ [ 114.030983152841188, 30.975298251927647 ], [ 114.030983152841188, 30.990701126484161 ], [ 114.013016847158795, 30.990701126484161 ], [ 114.013016847158795, 30.975298251927647 ], [ 114.030983152841188, 30.975298251927647 ] ] ] } },
{ "type": "Feature", "properties": { "北京时间": "2026-05-08 22:00" }, "geometry": { "type": "Polygon", "coordinates": [ [ [ 114.007983152841177, 31.107308925405878 ], [ 114.007983152841177, 31.122690451487497 ], [ 113.990016847158785, 31.122690451487497 ], [ 113.990016847158785, 31.107308925405878 ], [ 114.007983152841177, 31.107308925405878 ] ] ] } },
{ "type": "Feature", "properties": { "北京时间": "2026-05-08 21:00" }, "geometry": { "type": "Polygon", "coordinates": [ [ [ 114.075983152841189, 31.178314683332722 ], [ 114.075983152841189, 31.193684692749397 ], [ 114.058016847158783, 31.193684692749397 ], [ 114.058016847158783, 31.178314683332722 ], [ 114.075983152841189, 31.178314683332722 ] ] ] } },
{ "type": "Feature", "properties": { "北京时间": "2026-05-08 21:00" }, "geometry": { "type": "Polygon", "coordinates": [ [ [ 114.028983152841192, 31.279322894521357 ], [ 114.028983152841192, 31.29467648041333 ], [ 114.0110168471588, 31.29467648041333 ], [ 114.0110168471588, 31.279322894521357 ], [ 114.028983152841192, 31.279322894521357 ] ] ] } },
{ "type": "Feature", "properties": { "北京时间": "2026-05-08 21:00" }, "geometry": { "type": "Polygon", "coordinates": [ [ [ 114.067983152841194, 31.317325990057768 ], [ 114.067983152841194, 31.332673384447208 ], [ 114.050016847158801, 31.332673384447208 ], [ 114.050016847158801, 31.317325990057768 ], [ 114.067983152841194, 31.317325990057768 ] ] ] } },
{ "type": "Feature", "properties": { "北京时间": "2026-05-08 21:00" }, "geometry": { "type": "Polygon", "coordinates": [ [ [ 114.063983152841189, 31.278322813105479 ], [ 114.063983152841189, 31.293676561840538 ], [ 114.04601684715881, 31.293676561840538 ], [ 114.04601684715881, 31.278322813105479 ], [ 114.063983152841189, 31.278322813105479 ] ] ] } },
{ "type": "Feature", "properties": { "北京时间": "2026-05-08 21:00" }, "geometry": { "type": "Polygon", "coordinates": [ [ [ 114.086983152841199, 30.809284887262169 ], [ 114.086983152841199, 30.824714493077924 ], [ 114.069016847158807, 30.824714493077924 ], [ 114.069016847158807, 30.809284887262169 ], [ 114.086983152841199, 30.809284887262169 ] ] ] } },
{ "type": "Feature", "properties": { "北京时间": "2026-05-08 21:00" }, "geometry": { "type": "Polygon", "coordinates": [ [ [ 113.899983152841202, 30.59726791332756 ], [ 113.899983152841202, 30.612731469505391 ], [ 113.882016847158809, 30.612731469505391 ], [ 113.882016847158809, 30.59726791332756 ], [ 113.899983152841202, 30.59726791332756 ] ] ] } },
{ "type": "Feature", "properties": { "北京时间": "2026-05-08 21:00" }, "geometry": { "type": "Polygon", "coordinates": [ [ [ 113.853983152841195, 30.765281355675139 ], [ 113.853983152841195, 30.780718025179539 ], [ 113.836016847158788, 30.780718025179539 ], [ 113.836016847158788, 30.765281355675139 ], [ 113.853983152841195, 30.765281355675139 ] ] ] } },
{ "type": "Feature", "properties": { "北京时间": "2026-05-08 21:00" }, "geometry": { "type": "Polygon", "coordinates": [ [ [ 113.981983152841181, 31.10430868237323 ], [ 113.981983152841181, 31.119690694554524 ], [ 113.964016847158803, 31.119690694554524 ], [ 113.964016847158803, 31.10430868237323 ], [ 113.981983152841181, 31.10430868237323 ] ] ] } },
{ "type": "Feature", "properties": { "北京时间": "2026-05-08 21:00" }, "geometry": { "type": "Polygon", "coordinates": [ [ [ 113.873983152841191, 30.592267514275921 ], [ 113.873983152841191, 30.607731868616227 ], [ 113.856016847158799, 30.607731868616227 ], [ 113.856016847158799, 30.592267514275921 ], [ 113.873983152841191, 30.592267514275921 ] ] ] } },
{ "type": "Feature", "properties": { "北京时间": "2026-05-08 21:00" }, "geometry": { "type": "Polygon", "coordinates": [ [ [ 114.120983152841177, 31.153312654546951 ], [ 114.120983152841177, 31.168686721820386 ], [ 114.103016847158784, 31.168686721820386 ], [ 114.103016847158784, 31.153312654546951 ], [ 114.120983152841177, 31.153312654546951 ] ] ] } },
{ "type": "Feature", "properties": { "北京时间": "2026-05-08 21:00" }, "geometry": { "type": "Polygon", "coordinates": [ [ [ 114.172983152841198, 31.232319070503603 ], [ 114.172983152841198, 31.24768030496406 ], [ 114.155016847158805, 31.24768030496406 ], [ 114.155016847158805, 31.232319070503603 ], [ 114.172983152841198, 31.232319070503603 ] ] ] } },
{ "type": "Feature", "properties": { "北京时间": "2026-05-08 21:00" }, "geometry": { "type": "Polygon", "coordinates": [ [ [ 114.044983152841183, 31.221318176267104 ], [ 114.044983152841183, 31.236681199325549 ], [ 114.027016847158791, 31.236681199325549 ], [ 114.027016847158791, 31.221318176267104 ], [ 114.044983152841183, 31.221318176267104 ] ] ] } },
{ "type": "Feature", "properties": { "北京时间": "2026-05-08 21:00" }, "geometry": { "type": "Polygon", "coordinates": [ [ [ 114.1139831528412, 31.144311924542382 ], [ 114.1139831528412, 31.159687451927756 ], [ 114.096016847158808, 31.159687451927756 ], [ 114.096016847158808, 31.144311924542382 ], [ 114.1139831528412, 31.144311924542382 ] ] ] } },
{ "type": "Feature", "properties": { "北京时间": "2026-05-08 21:00" }, "geometry": { "type": "Polygon", "coordinates": [ [ [ 113.955983152841185, 30.962297202962301 ], [ 113.955983152841185, 30.977702175599777 ], [ 113.938016847158792, 30.977702175599777 ], [ 113.938016847158792, 30.962297202962301 ], [ 113.955983152841185, 30.962297202962301 ] ] ] } },
{ "type": "Feature", "properties": { "北京时间": "2026-05-08 21:00" }, "geometry": { "type": "Polygon", "coordinates": [ [ [ 114.142983152841182, 31.075306334144859 ], [ 114.142983152841182, 31.090693043115419 ], [ 114.12501684715879, 31.090693043115419 ], [ 114.12501684715879, 31.075306334144859 ], [ 114.142983152841182, 31.075306334144859 ] ] ] } },
{ "type": "Feature", "properties": { "北京时间": "2026-05-08 20:00" }, "geometry": { "type": "Polygon", "coordinates": [ [ [ 114.108983152841191, 31.444336360154185 ], [ 114.108983152841191, 31.459663012922682 ], [ 114.091016847158798, 31.459663012922682 ], [ 114.091016847158798, 31.444336360154185 ], [ 114.108983152841191, 31.444336360154185 ] ] ] } },
{ "type": "Feature", "properties": { "北京时间": "2026-05-08 20:00" }, "geometry": { "type": "Polygon", "coordinates": [ [ [ 114.164983152841202, 31.412333743665656 ], [ 114.164983152841202, 31.42766562976988 ], [ 114.14701684715881, 31.42766562976988 ], [ 114.14701684715881, 31.412333743665656 ], [ 114.164983152841202, 31.412333743665656 ] ] ] } },
{ "type": "Feature", "properties": { "北京时间": "2026-05-08 20:00" }, "geometry": { "type": "Polygon", "coordinates": [ [ [ 113.811983152841179, 30.691275426455675 ], [ 113.811983152841179, 30.706723955267773 ], [ 113.794016847158787, 30.706723955267773 ], [ 113.794016847158787, 30.691275426455675 ], [ 113.811983152841179, 30.691275426455675 ] ] ] } },
{ "type": "Feature", "properties": { "北京时间": "2026-05-08 20:00" }, "geometry": { "type": "Polygon", "coordinates": [ [ [ 114.124983152841196, 31.507341518351989 ], [ 114.124983152841196, 31.522657854021013 ], [ 114.107016847158803, 31.522657854021013 ], [ 114.107016847158803, 31.507341518351989 ], [ 114.124983152841196, 31.507341518351989 ] ] ] } },
{ "type": "Feature", "properties": { "北京时间": "2026-05-08 20:00" }, "geometry": { "type": "Polygon", "coordinates": [ [ [ 113.978983152841181, 31.019301805213942 ], [ 113.978983152841181, 31.034697572690252 ], [ 113.961016847158803, 31.034697572690252 ], [ 113.961016847158803, 31.019301805213942 ], [ 113.978983152841181, 31.019301805213942 ] ] ] } },
{ "type": "Feature", "properties": { "北京时间": "2026-05-08 20:00" }, "geometry": { "type": "Polygon", "coordinates": [ [ [ 114.049983152841193, 31.114309492564097 ], [ 114.049983152841193, 31.129689884249132 ], [ 114.0320168471588, 31.129689884249132 ], [ 114.0320168471588, 31.114309492564097 ], [ 114.049983152841193, 31.114309492564097 ] ] ] } },
{ "type": "Feature", "properties": { "北京时间": "2026-05-08 20:00" }, "geometry": { "type": "Polygon", "coordinates": [ [ [ 114.122983152841186, 31.518342419939476 ], [ 114.122983152841186, 31.533656952310928 ], [ 114.105016847158808, 31.533656952310928 ], [ 114.105016847158808, 31.518342419939476 ], [ 114.122983152841186, 31.518342419939476 ] ] ] } },
{ "type": "Feature", "properties": { "北京时间": "2026-05-08 20:00" }, "geometry": { "type": "Polygon", "coordinates": [ [ [ 114.164983152841202, 31.26832199907528 ], [ 114.164983152841202, 31.283677375983977 ], [ 114.14701684715881, 31.283677375983977 ], [ 114.14701684715881, 31.26832199907528 ], [ 114.164983152841202, 31.26832199907528 ] ] ] } },
{ "type": "Feature", "properties": { "北京时间": "2026-05-08 20:00" }, "geometry": { "type": "Polygon", "coordinates": [ [ [ 114.153983152841178, 31.331327131369633 ], [ 114.153983152841178, 31.346672242977309 ], [ 114.1360168471588, 31.346672242977309 ], [ 114.1360168471588, 31.331327131369633 ], [ 114.153983152841178, 31.331327131369633 ] ] ] } },
{ "type": "Feature", "properties": { "北京时间": "2026-05-08 20:00" }, "geometry": { "type": "Polygon", "coordinates": [ [ [ 114.284983152841193, 31.447336605572563 ], [ 114.284983152841193, 31.462662767470693 ], [ 114.2670168471588, 31.462662767470693 ], [ 114.2670168471588, 31.447336605572563 ], [ 114.284983152841193, 31.447336605572563 ] ] ] } },
{ "type": "Feature", "properties": { "北京时间": "2026-05-08 19:00" }, "geometry": { "type": "Polygon", "coordinates": [ [ [ 114.358983152841191, 31.321326316100112 ], [ 114.358983152841191, 31.336673058359697 ], [ 114.341016847158798, 31.336673058359697 ], [ 114.341016847158798, 31.321326316100112 ], [ 114.358983152841191, 31.321326316100112 ] ] ] } },
{ "type": "Feature", "properties": { "北京时间": "2026-05-08 19:00" }, "geometry": { "type": "Polygon", "coordinates": [ [ [ 114.040983152841179, 31.096308034389239 ], [ 114.040983152841179, 31.111691342630181 ], [ 114.0230168471588, 31.111691342630181 ], [ 114.0230168471588, 31.096308034389239 ], [ 114.040983152841179, 31.096308034389239 ] ] ] } },
{ "type": "Feature", "properties": { "北京时间": "2026-05-08 19:00" }, "geometry": { "type": "Polygon", "coordinates": [ [ [ 114.175983152841198, 31.062305282130612 ], [ 114.175983152841198, 31.077694095278925 ], [ 114.158016847158805, 31.077694095278925 ], [ 114.158016847158805, 31.062305282130612 ], [ 114.175983152841198, 31.062305282130612 ] ] ] } },
{ "type": "Feature", "properties": { "北京时间": "2026-05-08 19:00" }, "geometry": { "type": "Polygon", "coordinates": [ [ [ 114.212983152841176, 31.396332436318197 ], [ 114.212983152841176, 31.411666937296975 ], [ 114.195016847158797, 31.411666937296975 ], [ 114.195016847158797, 31.396332436318197 ], [ 114.212983152841176, 31.396332436318197 ] ] ] } },
{ "type": "Feature", "properties": { "北京时间": "2026-05-08 19:00" }, "geometry": { "type": "Polygon", "coordinates": [ [ [ 114.418983152841179, 31.703357625271451 ], [ 114.418983152841179, 31.718641744931158 ], [ 114.401016847158786, 31.718641744931158 ], [ 114.401016847158786, 31.703357625271451 ], [ 114.418983152841179, 31.703357625271451 ] ] ] } },
{ "type": "Feature", "properties": { "北京时间": "2026-05-08 19:00" }, "geometry": { "type": "Polygon", "coordinates": [ [ [ 114.091983152841181, 31.57434701421532 ], [ 114.091983152841181, 31.589652357412465 ], [ 114.074016847158788, 31.589652357412465 ], [ 114.074016847158788, 31.57434701421532 ], [ 114.091983152841181, 31.57434701421532 ] ] ] } },
{ "type": "Feature", "properties": { "北京时间": "2026-05-08 19:00" }, "geometry": { "type": "Polygon", "coordinates": [ [ [ 114.162983152841193, 31.710358202173946 ], [ 114.162983152841193, 31.725641167951686 ], [ 114.145016847158786, 31.725641167951686 ], [ 114.145016847158786, 31.710358202173946 ], [ 114.162983152841193, 31.710358202173946 ] ] ] } },
{ "type": "Feature", "properties": { "北京时间": "2026-05-08 19:00" }, "geometry": { "type": "Polygon", "coordinates": [ [ [ 114.258983152841196, 31.526343075816779 ], [ 114.258983152841196, 31.541656296344538 ], [ 114.241016847158789, 31.541656296344538 ], [ 114.241016847158789, 31.526343075816779 ], [ 114.258983152841196, 31.526343075816779 ] ] ] } },
{ "type": "Feature", "properties": { "北京时间": "2026-05-08 19:00" }, "geometry": { "type": "Polygon", "coordinates": [ [ [ 114.347983152841181, 31.617350546925699 ], [ 114.347983152841181, 31.632648824225598 ], [ 114.330016847158802, 31.632648824225598 ], [ 114.330016847158802, 31.617350546925699 ], [ 114.347983152841181, 31.617350546925699 ] ] ] } },
{ "type": "Feature", "properties": { "北京时间": "2026-05-08 19:00" }, "geometry": { "type": "Polygon", "coordinates": [ [ [ 114.22198315284119, 31.8063661254861 ], [ 114.22198315284119, 31.821633243587765 ], [ 114.204016847158783, 31.821633243587765 ], [ 114.204016847158783, 31.8063661254861 ], [ 114.22198315284119, 31.8063661254861 ] ] ] } },
{ "type": "Feature", "properties": { "北京时间": "2026-05-08 19:00" }, "geometry": { "type": "Polygon", "coordinates": [ [ [ 113.784983152841178, 30.623269989345321 ], [ 113.784983152841178, 30.638729393180071 ], [ 113.7670168471588, 30.638729393180071 ], [ 113.7670168471588, 30.623269989345321 ], [ 113.784983152841178, 30.623269989345321 ] ] ] } },
{ "type": "Feature", "properties": { "北京时间": "2026-05-08 19:00" }, "geometry": { "type": "Polygon", "coordinates": [ [ [ 114.463983152841195, 31.558345700818805 ], [ 114.463983152841195, 31.573653670986626 ], [ 114.446016847158802, 31.573653670986626 ], [ 114.446016847158802, 31.558345700818805 ], [ 114.463983152841195, 31.558345700818805 ] ] ] } },
{ "type": "Feature", "properties": { "北京时间": "2026-05-08 18:00" }, "geometry": { "type": "Polygon", "coordinates": [ [ [ 114.290983152841193, 31.544344552086539 ], [ 114.290983152841193, 31.559654819874481 ], [ 114.2730168471588, 31.559654819874481 ], [ 114.2730168471588, 31.544344552086539 ], [ 114.290983152841193, 31.544344552086539 ] ] ] } },
{ "type": "Feature", "properties": { "北京时间": "2026-05-08 18:00" }, "geometry": { "type": "Polygon", "coordinates": [ [ [ 113.779983152841197, 30.575266157940884 ], [ 113.779983152841197, 30.59073322515269 ], [ 113.762016847158804, 30.59073322515269 ], [ 113.762016847158804, 30.575266157940884 ], [ 113.779983152841197, 30.575266157940884 ] ] ] } },
{ "type": "Feature", "properties": { "北京时间": "2026-05-08 18:00" }, "geometry": { "type": "Polygon", "coordinates": [ [ [ 114.399983152841187, 31.724359356321163 ], [ 114.399983152841187, 31.739640013650646 ], [ 114.382016847158795, 31.739640013650646 ], [ 114.382016847158795, 31.724359356321163 ], [ 114.399983152841187, 31.724359356321163 ] ] ] } },
{ "type": "Feature", "properties": { "北京时间": "2026-05-08 18:00" }, "geometry": { "type": "Polygon", "coordinates": [ [ [ 114.147983152841192, 31.201316551108075 ], [ 114.147983152841192, 31.216682824712066 ], [ 114.130016847158799, 31.216682824712066 ], [ 114.130016847158799, 31.201316551108075 ], [ 114.147983152841192, 31.201316551108075 ] ] ] } },
{ "type": "Feature", "properties": { "北京时间": "2026-05-08 18:00" }, "geometry": { "type": "Polygon", "coordinates": [ [ [ 114.447983152841189, 31.460337669295043 ], [ 114.447983152841189, 31.475661703602771 ], [ 114.430016847158797, 31.475661703602771 ], [ 114.430016847158797, 31.460337669295043 ], [ 114.447983152841189, 31.460337669295043 ] ] ] } },
{ "type": "Feature", "properties": { "北京时间": "2026-05-08 17:00" }, "geometry": { "type": "Polygon", "coordinates": [ [ [ 113.790983152841193, 30.547263925461731 ], [ 113.790983152841193, 30.562735457964088 ], [ 113.7730168471588, 30.562735457964088 ], [ 113.7730168471588, 30.547263925461731 ], [ 113.790983152841193, 30.547263925461731 ] ] ] } },
{ "type": "Feature", "properties": { "北京时间": "2026-05-08 17:00" }, "geometry": { "type": "Polygon", "coordinates": [ [ [ 114.413983152841197, 31.713358449452802 ], [ 114.413983152841197, 31.728640920639869 ], [ 114.396016847158805, 31.728640920639869 ], [ 114.396016847158805, 31.713358449452802 ], [ 114.413983152841197, 31.713358449452802 ] ] ] } },
{ "type": "Feature", "properties": { "北京时间": "2026-05-08 17:00" }, "geometry": { "type": "Polygon", "coordinates": [ [ [ 114.555983152841179, 31.592348492499838 ], [ 114.555983152841179, 31.607650878928311 ], [ 114.538016847158801, 31.607650878928311 ], [ 114.538016847158801, 31.592348492499838 ], [ 114.555983152841179, 31.592348492499838 ] ] ] } },
{ "type": "Feature", "properties": { "北京时间": "2026-05-08 16:00" }, "geometry": { "type": "Polygon", "coordinates": [ [ [ 113.810983152841189, 30.533262809915026 ], [ 113.810983152841189, 30.548736573677129 ], [ 113.79301684715881, 30.548736573677129 ], [ 113.79301684715881, 30.533262809915026 ], [ 113.810983152841189, 30.533262809915026 ] ] ] } },
{ "type": "Feature", "properties": { "北京时间": "2026-05-08 16:00" }, "geometry": { "type": "Polygon", "coordinates": [ [ [ 114.391983152841206, 31.463337914825491 ], [ 114.391983152841206, 31.478661458038779 ], [ 114.374016847158799, 31.478661458038779 ], [ 114.374016847158799, 31.463337914825491 ], [ 114.391983152841206, 31.463337914825491 ] ] ] } },
{ "type": "Feature", "properties": { "北京时间": "2026-05-08 15:00" }, "geometry": { "type": "Polygon", "coordinates": [ [ [ 114.516983152841178, 31.605349560619484 ], [ 114.516983152841178, 31.620649810664631 ], [ 114.499016847158785, 31.620649810664631 ], [ 114.499016847158785, 31.605349560619484 ], [ 114.516983152841178, 31.605349560619484 ] ] ] } },
{ "type": "Feature", "properties": { "北京时间": "2026-05-08 15:00" }, "geometry": { "type": "Polygon", "coordinates": [ [ [ 113.840983152841204, 30.524262093021822 ], [ 113.840983152841204, 30.539737290677341 ], [ 113.823016847158797, 30.539737290677341 ], [ 113.823016847158797, 30.524262093021822 ], [ 113.840983152841204, 30.524262093021822 ] ] ] } },
{ "type": "Feature", "properties": { "北京时间": "2026-05-08 14:00" }, "geometry": { "type": "Polygon", "coordinates": [ [ [ 113.883983152841182, 30.521261854099851 ], [ 113.883983152841182, 30.536737529634998 ], [ 113.866016847158804, 30.536737529634998 ], [ 113.866016847158804, 30.521261854099851 ], [ 113.883983152841182, 30.521261854099851 ] ] ] } },
{ "type": "Feature", "properties": { "北京时间": "2026-05-08 12:00" }, "geometry": { "type": "Polygon", "coordinates": [ [ [ 113.693983152841184, 31.332327212909448 ], [ 113.693983152841184, 31.347672161426232 ], [ 113.676016847158792, 31.347672161426232 ], [ 113.676016847158792, 31.332327212909448 ], [ 113.693983152841184, 31.332327212909448 ] ] ] } },
{ "type": "Feature", "properties": { "北京时间": "2026-05-08 11:00" }, "geometry": { "type": "Polygon", "coordinates": [ [ [ 113.6049831528412, 31.069305848550606 ], [ 113.6049831528412, 31.084693528778558 ], [ 113.587016847158807, 31.084693528778558 ], [ 113.587016847158807, 31.069305848550606 ], [ 113.6049831528412, 31.069305848550606 ] ] ] } },
{ "type": "Feature", "properties": { "北京时间": "2026-05-08 10:00" }, "geometry": { "type": "Polygon", "coordinates": [ [ [ 113.538983152841183, 30.799284084229107 ], [ 113.538983152841183, 30.814715296227821 ], [ 113.521016847158791, 30.814715296227821 ], [ 113.521016847158791, 30.799284084229107 ], [ 113.538983152841183, 30.799284084229107 ] ] ] } },
{ "type": "Feature", "properties": { "北京时间": "2026-05-08 09:00" }, "geometry": { "type": "Polygon", "coordinates": [ [ [ 113.46598315284119, 30.505260580207704 ], [ 113.46598315284119, 30.520738803717588 ], [ 113.448016847158783, 30.520738803717588 ], [ 113.448016847158783, 30.505260580207704 ], [ 113.46598315284119, 30.505260580207704 ] ] ] } }
]
}
