{
"type": "FeatureCollection",
"name": "trajectories",
"crs": { "type": "name", "properties": { "name": "urn:ogc:def:crs:OGC:1.3:CRS84" } },
"features": [
{ "type": "Feature", "properties": { "pt_id": "  1000", "trajectory_id": 1, "北京时间": "2026-04-29 23:00", "lon": 113.942, "lat": 30.907, "height": 10.0 }, "geometry": { "type": "Point", "coordinates": [ 113.942, 30.907 ] } },
{ "type": "Feature", "properties": { "pt_id": "  1001", "trajectory_id": 1, "北京时间": "2026-04-29 22:00", "lon": 114.051, "lat": 30.918, "height": 8.0 }, "geometry": { "type": "Point", "coordinates": [ 114.051, 30.918 ] } },
{ "type": "Feature", "properties": { "pt_id": "  1002", "trajectory_id": 1, "北京时间": "2026-04-29 21:00", "lon": 114.163, "lat": 30.958, "height": 16.0 }, "geometry": { "type": "Point", "coordinates": [ 114.163, 30.958 ] } },
{ "type": "Feature", "properties": { "pt_id": "  1003", "trajectory_id": 1, "北京时间": "2026-04-29 20:00", "lon": 114.305, "lat": 31.043, "height": 47.0 }, "geometry": { "type": "Point", "coordinates": [ 114.305, 31.043 ] } },
{ "type": "Feature", "properties": { "pt_id": "  1004", "trajectory_id": 1, "北京时间": "2026-04-29 19:00", "lon": 114.506, "lat": 31.16, "height": 70.0 }, "geometry": { "type": "Point", "coordinates": [ 114.506, 31.16 ] } },
{ "type": "Feature", "properties": { "pt_id": "  1005", "trajectory_id": 1, "北京时间": "2026-04-29 18:00", "lon": 114.739, "lat": 31.273, "height": 102.0 }, "geometry": { "type": "Point", "coordinates": [ 114.739, 31.273 ] } },
{ "type": "Feature", "properties": { "pt_id": "  1006", "trajectory_id": 1, "北京时间": "2026-04-29 17:00", "lon": 114.991, "lat": 31.384, "height": 218.0 }, "geometry": { "type": "Point", "coordinates": [ 114.991, 31.384 ] } },
{ "type": "Feature", "properties": { "pt_id": "  1007", "trajectory_id": 1, "北京时间": "2026-04-29 16:00", "lon": 115.259, "lat": 31.483, "height": 366.0 }, "geometry": { "type": "Point", "coordinates": [ 115.259, 31.483 ] } },
{ "type": "Feature", "properties": { "pt_id": "  1008", "trajectory_id": 1, "北京时间": "2026-04-29 15:00", "lon": 115.544, "lat": 31.55, "height": 479.0 }, "geometry": { "type": "Point", "coordinates": [ 115.544, 31.55 ] } },
{ "type": "Feature", "properties": { "pt_id": "  1009", "trajectory_id": 1, "北京时间": "2026-04-29 14:00", "lon": 115.802, "lat": 31.587, "height": 524.0 }, "geometry": { "type": "Point", "coordinates": [ 115.802, 31.587 ] } },
{ "type": "Feature", "properties": { "pt_id": "  1010", "trajectory_id": 1, "北京时间": "2026-04-29 13:00", "lon": 116.035, "lat": 31.611, "height": 517.0 }, "geometry": { "type": "Point", "coordinates": [ 116.035, 31.611 ] } },
{ "type": "Feature", "properties": { "pt_id": "  1011", "trajectory_id": 1, "北京时间": "2026-04-29 12:00", "lon": 116.235, "lat": 31.626, "height": 531.0 }, "geometry": { "type": "Point", "coordinates": [ 116.235, 31.626 ] } },
{ "type": "Feature", "properties": { "pt_id": "  1012", "trajectory_id": 1, "北京时间": "2026-04-29 11:00", "lon": 116.414, "lat": 31.637, "height": 548.0 }, "geometry": { "type": "Point", "coordinates": [ 116.414, 31.637 ] } },
{ "type": "Feature", "properties": { "pt_id": "  1013", "trajectory_id": 1, "北京时间": "2026-04-29 10:00", "lon": 116.618, "lat": 31.658, "height": 552.0 }, "geometry": { "type": "Point", "coordinates": [ 116.618, 31.658 ] } },
{ "type": "Feature", "properties": { "pt_id": "  1014", "trajectory_id": 1, "北京时间": "2026-04-29 09:00", "lon": 116.881, "lat": 31.702, "height": 561.0 }, "geometry": { "type": "Point", "coordinates": [ 116.881, 31.702 ] } },
{ "type": "Feature", "properties": { "pt_id": "  1015", "trajectory_id": 1, "北京时间": "2026-04-29 08:00", "lon": 117.22, "lat": 31.774, "height": 577.0 }, "geometry": { "type": "Point", "coordinates": [ 117.22, 31.774 ] } },
{ "type": "Feature", "properties": { "pt_id": "  1016", "trajectory_id": 1, "北京时间": "2026-04-29 07:00", "lon": 117.617, "lat": 31.877, "height": 634.0 }, "geometry": { "type": "Point", "coordinates": [ 117.617, 31.877 ] } },
{ "type": "Feature", "properties": { "pt_id": "  1017", "trajectory_id": 1, "北京时间": "2026-04-29 06:00", "lon": 118.045, "lat": 31.998, "height": 702.0 }, "geometry": { "type": "Point", "coordinates": [ 118.045, 31.998 ] } },
{ "type": "Feature", "properties": { "pt_id": "  1018", "trajectory_id": 1, "北京时间": "2026-04-29 05:00", "lon": 118.487, "lat": 32.144, "height": 762.0 }, "geometry": { "type": "Point", "coordinates": [ 118.487, 32.144 ] } },
{ "type": "Feature", "properties": { "pt_id": "  1019", "trajectory_id": 1, "北京时间": "2026-04-29 04:00", "lon": 118.91, "lat": 32.314, "height": 786.0 }, "geometry": { "type": "Point", "coordinates": [ 118.91, 32.314 ] } },
{ "type": "Feature", "properties": { "pt_id": "  1020", "trajectory_id": 1, "北京时间": "2026-04-29 03:00", "lon": 119.3, "lat": 32.482, "height": 818.0 }, "geometry": { "type": "Point", "coordinates": [ 119.3, 32.482 ] } },
{ "type": "Feature", "properties": { "pt_id": "  1021", "trajectory_id": 1, "北京时间": "2026-04-29 02:00", "lon": 119.657, "lat": 32.666, "height": 900.0 }, "geometry": { "type": "Point", "coordinates": [ 119.657, 32.666 ] } },
{ "type": "Feature", "properties": { "pt_id": "  1022", "trajectory_id": 1, "北京时间": "2026-04-29 01:00", "lon": 119.983, "lat": 32.9, "height": 1080.0 }, "geometry": { "type": "Point", "coordinates": [ 119.983, 32.9 ] } },
{ "type": "Feature", "properties": { "pt_id": "  1023", "trajectory_id": 1, "北京时间": "2026-04-29 00:00", "lon": 120.268, "lat": 33.145, "height": 1368.0 }, "geometry": { "type": "Point", "coordinates": [ 120.268, 33.145 ] } },
{ "type": "Feature", "properties": { "pt_id": "  1024", "trajectory_id": 1, "北京时间": "2026-04-28 23:00", "lon": 120.507, "lat": 33.422, "height": 1608.0 }, "geometry": { "type": "Point", "coordinates": [ 120.507, 33.422 ] } },
{ "type": "Feature", "properties": { "pt_id": "  1025", "trajectory_id": 1, "北京时间": "2026-04-28 22:00", "lon": 120.691, "lat": 33.701, "height": 1592.0 }, "geometry": { "type": "Point", "coordinates": [ 120.691, 33.701 ] } },
{ "type": "Feature", "properties": { "pt_id": "  1026", "trajectory_id": 1, "北京时间": "2026-04-28 21:00", "lon": 120.823, "lat": 33.922, "height": 1577.0 }, "geometry": { "type": "Point", "coordinates": [ 120.823, 33.922 ] } },
{ "type": "Feature", "properties": { "pt_id": "  1027", "trajectory_id": 1, "北京时间": "2026-04-28 20:00", "lon": 120.899, "lat": 34.152, "height": 1659.0 }, "geometry": { "type": "Point", "coordinates": [ 120.899, 34.152 ] } },
{ "type": "Feature", "properties": { "pt_id": "  1028", "trajectory_id": 1, "北京时间": "2026-04-28 19:00", "lon": 120.943, "lat": 34.409, "height": 1687.0 }, "geometry": { "type": "Point", "coordinates": [ 120.943, 34.409 ] } },
{ "type": "Feature", "properties": { "pt_id": "  1029", "trajectory_id": 1, "北京时间": "2026-04-28 18:00", "lon": 120.934, "lat": 34.661, "height": 1812.0 }, "geometry": { "type": "Point", "coordinates": [ 120.934, 34.661 ] } },
{ "type": "Feature", "properties": { "pt_id": "  1030", "trajectory_id": 1, "北京时间": "2026-04-28 17:00", "lon": 120.879, "lat": 34.918, "height": 1868.0 }, "geometry": { "type": "Point", "coordinates": [ 120.879, 34.918 ] } },
{ "type": "Feature", "properties": { "pt_id": "  1031", "trajectory_id": 1, "北京时间": "2026-04-28 16:00", "lon": 120.796, "lat": 35.21, "height": 1934.0 }, "geometry": { "type": "Point", "coordinates": [ 120.796, 35.21 ] } },
{ "type": "Feature", "properties": { "pt_id": "  1032", "trajectory_id": 1, "北京时间": "2026-04-28 15:00", "lon": 120.656, "lat": 35.51, "height": 2000.0 }, "geometry": { "type": "Point", "coordinates": [ 120.656, 35.51 ] } },
{ "type": "Feature", "properties": { "pt_id": "  1033", "trajectory_id": 1, "北京时间": "2026-04-28 14:00", "lon": 120.492, "lat": 35.825, "height": 2074.0 }, "geometry": { "type": "Point", "coordinates": [ 120.492, 35.825 ] } },
{ "type": "Feature", "properties": { "pt_id": "  1034", "trajectory_id": 1, "北京时间": "2026-04-28 13:00", "lon": 120.277, "lat": 36.167, "height": 2284.0 }, "geometry": { "type": "Point", "coordinates": [ 120.277, 36.167 ] } },
{ "type": "Feature", "properties": { "pt_id": "  1035", "trajectory_id": 1, "北京时间": "2026-04-28 12:00", "lon": 120.013, "lat": 36.515, "height": 2354.0 }, "geometry": { "type": "Point", "coordinates": [ 120.013, 36.515 ] } },
{ "type": "Feature", "properties": { "pt_id": "  1036", "trajectory_id": 1, "北京时间": "2026-04-28 11:00", "lon": 119.704, "lat": 36.878, "height": 2416.0 }, "geometry": { "type": "Point", "coordinates": [ 119.704, 36.878 ] } },
{ "type": "Feature", "properties": { "pt_id": "  1037", "trajectory_id": 1, "北京时间": "2026-04-28 10:00", "lon": 119.377, "lat": 37.254, "height": 2440.0 }, "geometry": { "type": "Point", "coordinates": [ 119.377, 37.254 ] } },
{ "type": "Feature", "properties": { "pt_id": "  1038", "trajectory_id": 1, "北京时间": "2026-04-28 09:00", "lon": 118.955, "lat": 37.614, "height": 2535.0 }, "geometry": { "type": "Point", "coordinates": [ 118.955, 37.614 ] } },
{ "type": "Feature", "properties": { "pt_id": "  1039", "trajectory_id": 1, "北京时间": "2026-04-28 08:00", "lon": 118.491, "lat": 37.972, "height": 2564.0 }, "geometry": { "type": "Point", "coordinates": [ 118.491, 37.972 ] } },
{ "type": "Feature", "properties": { "pt_id": "  2000", "trajectory_id": 2, "北京时间": "2026-04-29 23:00", "lon": 113.942, "lat": 30.907, "height": 10.0 }, "geometry": { "type": "Point", "coordinates": [ 113.942, 30.907 ] } },
{ "type": "Feature", "properties": { "pt_id": "  2005", "trajectory_id": 2, "北京时间": "2026-04-29 22:00", "lon": 114.079, "lat": 30.994, "height": 18.0 }, "geometry": { "type": "Point", "coordinates": [ 114.079, 30.994 ] } },
{ "type": "Feature", "properties": { "pt_id": "  2006", "trajectory_id": 2, "北京时间": "2026-04-29 21:00", "lon": 114.261, "lat": 31.094, "height": 51.0 }, "geometry": { "type": "Point", "coordinates": [ 114.261, 31.094 ] } },
{ "type": "Feature", "properties": { "pt_id": "  2007", "trajectory_id": 2, "北京时间": "2026-04-29 20:00", "lon": 114.463, "lat": 31.208, "height": 64.0 }, "geometry": { "type": "Point", "coordinates": [ 114.463, 31.208 ] } },
{ "type": "Feature", "properties": { "pt_id": "  2008", "trajectory_id": 2, "北京时间": "2026-04-29 19:00", "lon": 114.669, "lat": 31.329, "height": 82.0 }, "geometry": { "type": "Point", "coordinates": [ 114.669, 31.329 ] } },
{ "type": "Feature", "properties": { "pt_id": "  2009", "trajectory_id": 2, "北京时间": "2026-04-29 18:00", "lon": 114.885, "lat": 31.459, "height": 157.0 }, "geometry": { "type": "Point", "coordinates": [ 114.885, 31.459 ] } },
{ "type": "Feature", "properties": { "pt_id": "  2010", "trajectory_id": 2, "北京时间": "2026-04-29 17:00", "lon": 115.124, "lat": 31.572, "height": 258.0 }, "geometry": { "type": "Point", "coordinates": [ 115.124, 31.572 ] } },
{ "type": "Feature", "properties": { "pt_id": "  2011", "trajectory_id": 2, "北京时间": "2026-04-29 16:00", "lon": 115.38, "lat": 31.655, "height": 313.0 }, "geometry": { "type": "Point", "coordinates": [ 115.38, 31.655 ] } },
{ "type": "Feature", "properties": { "pt_id": "  2012", "trajectory_id": 2, "北京时间": "2026-04-29 15:00", "lon": 115.632, "lat": 31.693, "height": 411.0 }, "geometry": { "type": "Point", "coordinates": [ 115.632, 31.693 ] } },
{ "type": "Feature", "properties": { "pt_id": "  2013", "trajectory_id": 2, "北京时间": "2026-04-29 14:00", "lon": 115.884, "lat": 31.701, "height": 472.0 }, "geometry": { "type": "Point", "coordinates": [ 115.884, 31.701 ] } },
{ "type": "Feature", "properties": { "pt_id": "  2014", "trajectory_id": 2, "北京时间": "2026-04-29 13:00", "lon": 116.135, "lat": 31.698, "height": 472.0 }, "geometry": { "type": "Point", "coordinates": [ 116.135, 31.698 ] } },
{ "type": "Feature", "properties": { "pt_id": "  2015", "trajectory_id": 2, "北京时间": "2026-04-29 12:00", "lon": 116.385, "lat": 31.705, "height": 435.0 }, "geometry": { "type": "Point", "coordinates": [ 116.385, 31.705 ] } },
{ "type": "Feature", "properties": { "pt_id": "  2016", "trajectory_id": 2, "北京时间": "2026-04-29 11:00", "lon": 116.665, "lat": 31.737, "height": 432.0 }, "geometry": { "type": "Point", "coordinates": [ 116.665, 31.737 ] } },
{ "type": "Feature", "properties": { "pt_id": "  2017", "trajectory_id": 2, "北京时间": "2026-04-29 10:00", "lon": 117.001, "lat": 31.798, "height": 457.0 }, "geometry": { "type": "Point", "coordinates": [ 117.001, 31.798 ] } },
{ "type": "Feature", "properties": { "pt_id": "  2018", "trajectory_id": 2, "北京时间": "2026-04-29 09:00", "lon": 117.384, "lat": 31.885, "height": 488.0 }, "geometry": { "type": "Point", "coordinates": [ 117.384, 31.885 ] } },
{ "type": "Feature", "properties": { "pt_id": "  2019", "trajectory_id": 2, "北京时间": "2026-04-29 08:00", "lon": 117.822, "lat": 31.976, "height": 561.0 }, "geometry": { "type": "Point", "coordinates": [ 117.822, 31.976 ] } },
{ "type": "Feature", "properties": { "pt_id": "  2020", "trajectory_id": 2, "北京时间": "2026-04-29 07:00", "lon": 118.274, "lat": 32.08, "height": 669.0 }, "geometry": { "type": "Point", "coordinates": [ 118.274, 32.08 ] } },
{ "type": "Feature", "properties": { "pt_id": "  2021", "trajectory_id": 2, "北京时间": "2026-04-29 06:00", "lon": 118.697, "lat": 32.214, "height": 787.0 }, "geometry": { "type": "Point", "coordinates": [ 118.697, 32.214 ] } },
{ "type": "Feature", "properties": { "pt_id": "  2022", "trajectory_id": 2, "北京时间": "2026-04-29 05:00", "lon": 119.114, "lat": 32.378, "height": 914.0 }, "geometry": { "type": "Point", "coordinates": [ 119.114, 32.378 ] } },
{ "type": "Feature", "properties": { "pt_id": "  2023", "trajectory_id": 2, "北京时间": "2026-04-29 04:00", "lon": 119.505, "lat": 32.569, "height": 1048.0 }, "geometry": { "type": "Point", "coordinates": [ 119.505, 32.569 ] } },
{ "type": "Feature", "properties": { "pt_id": "  2024", "trajectory_id": 2, "北京时间": "2026-04-29 03:00", "lon": 119.833, "lat": 32.773, "height": 1310.0 }, "geometry": { "type": "Point", "coordinates": [ 119.833, 32.773 ] } },
{ "type": "Feature", "properties": { "pt_id": "  2025", "trajectory_id": 2, "北京时间": "2026-04-29 02:00", "lon": 120.144, "lat": 32.978, "height": 1646.0 }, "geometry": { "type": "Point", "coordinates": [ 120.144, 32.978 ] } },
{ "type": "Feature", "properties": { "pt_id": "  2026", "trajectory_id": 2, "北京时间": "2026-04-29 01:00", "lon": 120.429, "lat": 33.23, "height": 1952.0 }, "geometry": { "type": "Point", "coordinates": [ 120.429, 33.23 ] } },
{ "type": "Feature", "properties": { "pt_id": "  2027", "trajectory_id": 2, "北京时间": "2026-04-29 00:00", "lon": 120.672, "lat": 33.514, "height": 2218.0 }, "geometry": { "type": "Point", "coordinates": [ 120.672, 33.514 ] } },
{ "type": "Feature", "properties": { "pt_id": "  2028", "trajectory_id": 2, "北京时间": "2026-04-28 23:00", "lon": 120.818, "lat": 33.795, "height": 2335.0 }, "geometry": { "type": "Point", "coordinates": [ 120.818, 33.795 ] } },
{ "type": "Feature", "properties": { "pt_id": "  2029", "trajectory_id": 2, "北京时间": "2026-04-28 22:00", "lon": 120.864, "lat": 34.049, "height": 2405.0 }, "geometry": { "type": "Point", "coordinates": [ 120.864, 34.049 ] } },
{ "type": "Feature", "properties": { "pt_id": "  2030", "trajectory_id": 2, "北京时间": "2026-04-28 21:00", "lon": 120.828, "lat": 34.264, "height": 2618.0 }, "geometry": { "type": "Point", "coordinates": [ 120.828, 34.264 ] } },
{ "type": "Feature", "properties": { "pt_id": "  2031", "trajectory_id": 2, "北京时间": "2026-04-28 20:00", "lon": 120.692, "lat": 34.477, "height": 2810.0 }, "geometry": { "type": "Point", "coordinates": [ 120.692, 34.477 ] } },
{ "type": "Feature", "properties": { "pt_id": "  2032", "trajectory_id": 2, "北京时间": "2026-04-28 19:00", "lon": 120.459, "lat": 34.709, "height": 2716.0 }, "geometry": { "type": "Point", "coordinates": [ 120.459, 34.709 ] } },
{ "type": "Feature", "properties": { "pt_id": "  2033", "trajectory_id": 2, "北京时间": "2026-04-28 18:00", "lon": 120.177, "lat": 34.931, "height": 2657.0 }, "geometry": { "type": "Point", "coordinates": [ 120.177, 34.931 ] } },
{ "type": "Feature", "properties": { "pt_id": "  2034", "trajectory_id": 2, "北京时间": "2026-04-28 17:00", "lon": 119.848, "lat": 35.147, "height": 2753.0 }, "geometry": { "type": "Point", "coordinates": [ 119.848, 35.147 ] } },
{ "type": "Feature", "properties": { "pt_id": "  2035", "trajectory_id": 2, "北京时间": "2026-04-28 16:00", "lon": 119.474, "lat": 35.366, "height": 2791.0 }, "geometry": { "type": "Point", "coordinates": [ 119.474, 35.366 ] } },
{ "type": "Feature", "properties": { "pt_id": "  2036", "trajectory_id": 2, "北京时间": "2026-04-28 15:00", "lon": 119.03, "lat": 35.611, "height": 2804.0 }, "geometry": { "type": "Point", "coordinates": [ 119.03, 35.611 ] } },
{ "type": "Feature", "properties": { "pt_id": "  2037", "trajectory_id": 2, "北京时间": "2026-04-28 14:00", "lon": 118.532, "lat": 35.884, "height": 2842.0 }, "geometry": { "type": "Point", "coordinates": [ 118.532, 35.884 ] } },
{ "type": "Feature", "properties": { "pt_id": "  2038", "trajectory_id": 2, "北京时间": "2026-04-28 13:00", "lon": 117.963, "lat": 36.153, "height": 2916.0 }, "geometry": { "type": "Point", "coordinates": [ 117.963, 36.153 ] } },
{ "type": "Feature", "properties": { "pt_id": "  2039", "trajectory_id": 2, "北京时间": "2026-04-28 12:00", "lon": 117.337, "lat": 36.405, "height": 3099.0 }, "geometry": { "type": "Point", "coordinates": [ 117.337, 36.405 ] } },
{ "type": "Feature", "properties": { "pt_id": "  3000", "trajectory_id": 3, "北京时间": "2026-04-29 23:00", "lon": 113.942, "lat": 30.907, "height": 10.0 }, "geometry": { "type": "Point", "coordinates": [ 113.942, 30.907 ] } },
{ "type": "Feature", "properties": { "pt_id": "  3009", "trajectory_id": 3, "北京时间": "2026-04-29 22:00", "lon": 114.092, "lat": 31.025, "height": 26.0 }, "geometry": { "type": "Point", "coordinates": [ 114.092, 31.025 ] } },
{ "type": "Feature", "properties": { "pt_id": "  3010", "trajectory_id": 3, "北京时间": "2026-04-29 21:00", "lon": 114.259, "lat": 31.165, "height": 58.0 }, "geometry": { "type": "Point", "coordinates": [ 114.259, 31.165 ] } },
{ "type": "Feature", "properties": { "pt_id": "  3011", "trajectory_id": 3, "北京时间": "2026-04-29 20:00", "lon": 114.433, "lat": 31.32, "height": 71.0 }, "geometry": { "type": "Point", "coordinates": [ 114.433, 31.32 ] } },
{ "type": "Feature", "properties": { "pt_id": "  3012", "trajectory_id": 3, "北京时间": "2026-04-29 19:00", "lon": 114.633, "lat": 31.492, "height": 145.0 }, "geometry": { "type": "Point", "coordinates": [ 114.633, 31.492 ] } },
{ "type": "Feature", "properties": { "pt_id": "  3013", "trajectory_id": 3, "北京时间": "2026-04-29 18:00", "lon": 114.846, "lat": 31.659, "height": 166.0 }, "geometry": { "type": "Point", "coordinates": [ 114.846, 31.659 ] } },
{ "type": "Feature", "properties": { "pt_id": "  3014", "trajectory_id": 3, "北京时间": "2026-04-29 17:00", "lon": 115.066, "lat": 31.801, "height": 85.0 }, "geometry": { "type": "Point", "coordinates": [ 115.066, 31.801 ] } },
{ "type": "Feature", "properties": { "pt_id": "  3015", "trajectory_id": 3, "北京时间": "2026-04-29 16:00", "lon": 115.26, "lat": 31.895, "height": 45.0 }, "geometry": { "type": "Point", "coordinates": [ 115.26, 31.895 ] } },
{ "type": "Feature", "properties": { "pt_id": "  3016", "trajectory_id": 3, "北京时间": "2026-04-29 15:00", "lon": 115.457, "lat": 31.943, "height": 50.0 }, "geometry": { "type": "Point", "coordinates": [ 115.457, 31.943 ] } },
{ "type": "Feature", "properties": { "pt_id": "  3017", "trajectory_id": 3, "北京时间": "2026-04-29 14:00", "lon": 115.655, "lat": 31.949, "height": 67.0 }, "geometry": { "type": "Point", "coordinates": [ 115.655, 31.949 ] } },
{ "type": "Feature", "properties": { "pt_id": "  3018", "trajectory_id": 3, "北京时间": "2026-04-29 13:00", "lon": 115.816, "lat": 31.941, "height": 64.0 }, "geometry": { "type": "Point", "coordinates": [ 115.816, 31.941 ] } },
{ "type": "Feature", "properties": { "pt_id": "  3019", "trajectory_id": 3, "北京时间": "2026-04-29 12:00", "lon": 115.963, "lat": 31.939, "height": 55.0 }, "geometry": { "type": "Point", "coordinates": [ 115.963, 31.939 ] } },
{ "type": "Feature", "properties": { "pt_id": "  3020", "trajectory_id": 3, "北京时间": "2026-04-29 11:00", "lon": 116.107, "lat": 31.946, "height": 47.0 }, "geometry": { "type": "Point", "coordinates": [ 116.107, 31.946 ] } },
{ "type": "Feature", "properties": { "pt_id": "  3021", "trajectory_id": 3, "北京时间": "2026-04-29 10:00", "lon": 116.245, "lat": 31.957, "height": 43.0 }, "geometry": { "type": "Point", "coordinates": [ 116.245, 31.957 ] } },
{ "type": "Feature", "properties": { "pt_id": "  3022", "trajectory_id": 3, "北京时间": "2026-04-29 09:00", "lon": 116.401, "lat": 31.96, "height": 44.0 }, "geometry": { "type": "Point", "coordinates": [ 116.401, 31.96 ] } },
{ "type": "Feature", "properties": { "pt_id": "  3023", "trajectory_id": 3, "北京时间": "2026-04-29 08:00", "lon": 116.595, "lat": 31.943, "height": 50.0 }, "geometry": { "type": "Point", "coordinates": [ 116.595, 31.943 ] } },
{ "type": "Feature", "properties": { "pt_id": "  3024", "trajectory_id": 3, "北京时间": "2026-04-29 07:00", "lon": 116.838, "lat": 31.929, "height": 64.0 }, "geometry": { "type": "Point", "coordinates": [ 116.838, 31.929 ] } },
{ "type": "Feature", "properties": { "pt_id": "  3025", "trajectory_id": 3, "北京时间": "2026-04-29 06:00", "lon": 117.098, "lat": 31.948, "height": 85.0 }, "geometry": { "type": "Point", "coordinates": [ 117.098, 31.948 ] } },
{ "type": "Feature", "properties": { "pt_id": "  3026", "trajectory_id": 3, "北京时间": "2026-04-29 05:00", "lon": 117.363, "lat": 32.004, "height": 97.0 }, "geometry": { "type": "Point", "coordinates": [ 117.363, 32.004 ] } },
{ "type": "Feature", "properties": { "pt_id": "  3027", "trajectory_id": 3, "北京时间": "2026-04-29 04:00", "lon": 117.652, "lat": 32.084, "height": 110.0 }, "geometry": { "type": "Point", "coordinates": [ 117.652, 32.084 ] } },
{ "type": "Feature", "properties": { "pt_id": "  3028", "trajectory_id": 3, "北京时间": "2026-04-29 03:00", "lon": 117.935, "lat": 32.178, "height": 161.0 }, "geometry": { "type": "Point", "coordinates": [ 117.935, 32.178 ] } },
{ "type": "Feature", "properties": { "pt_id": "  3029", "trajectory_id": 3, "北京时间": "2026-04-29 02:00", "lon": 118.234, "lat": 32.273, "height": 196.0 }, "geometry": { "type": "Point", "coordinates": [ 118.234, 32.273 ] } },
{ "type": "Feature", "properties": { "pt_id": "  3030", "trajectory_id": 3, "北京时间": "2026-04-29 01:00", "lon": 118.544, "lat": 32.357, "height": 207.0 }, "geometry": { "type": "Point", "coordinates": [ 118.544, 32.357 ] } },
{ "type": "Feature", "properties": { "pt_id": "  3031", "trajectory_id": 3, "北京时间": "2026-04-29 00:00", "lon": 118.848, "lat": 32.425, "height": 265.0 }, "geometry": { "type": "Point", "coordinates": [ 118.848, 32.425 ] } },
{ "type": "Feature", "properties": { "pt_id": "  3032", "trajectory_id": 3, "北京时间": "2026-04-28 23:00", "lon": 119.139, "lat": 32.511, "height": 301.0 }, "geometry": { "type": "Point", "coordinates": [ 119.139, 32.511 ] } },
{ "type": "Feature", "properties": { "pt_id": "  3033", "trajectory_id": 3, "北京时间": "2026-04-28 22:00", "lon": 119.438, "lat": 32.624, "height": 285.0 }, "geometry": { "type": "Point", "coordinates": [ 119.438, 32.624 ] } },
{ "type": "Feature", "properties": { "pt_id": "  3034", "trajectory_id": 3, "北京时间": "2026-04-28 21:00", "lon": 119.728, "lat": 32.754, "height": 285.0 }, "geometry": { "type": "Point", "coordinates": [ 119.728, 32.754 ] } },
{ "type": "Feature", "properties": { "pt_id": "  3035", "trajectory_id": 3, "北京时间": "2026-04-28 20:00", "lon": 119.977, "lat": 32.922, "height": 262.0 }, "geometry": { "type": "Point", "coordinates": [ 119.977, 32.922 ] } },
{ "type": "Feature", "properties": { "pt_id": "  3036", "trajectory_id": 3, "北京时间": "2026-04-28 19:00", "lon": 120.205, "lat": 33.16, "height": 245.0 }, "geometry": { "type": "Point", "coordinates": [ 120.205, 33.16 ] } },
{ "type": "Feature", "properties": { "pt_id": "  3037", "trajectory_id": 3, "北京时间": "2026-04-28 18:00", "lon": 120.428, "lat": 33.395, "height": 315.0 }, "geometry": { "type": "Point", "coordinates": [ 120.428, 33.395 ] } },
{ "type": "Feature", "properties": { "pt_id": "  3038", "trajectory_id": 3, "北京时间": "2026-04-28 17:00", "lon": 120.65, "lat": 33.611, "height": 372.0 }, "geometry": { "type": "Point", "coordinates": [ 120.65, 33.611 ] } },
{ "type": "Feature", "properties": { "pt_id": "  3039", "trajectory_id": 3, "北京时间": "2026-04-28 16:00", "lon": 120.889, "lat": 33.832, "height": 357.0 }, "geometry": { "type": "Point", "coordinates": [ 120.889, 33.832 ] } },
{ "type": "Feature", "properties": { "pt_id": "  4000", "trajectory_id": 4, "北京时间": "2026-04-29 23:00", "lon": 113.942, "lat": 30.907, "height": 10.0 }, "geometry": { "type": "Point", "coordinates": [ 113.942, 30.907 ] } },
{ "type": "Feature", "properties": { "pt_id": "  4013", "trajectory_id": 4, "北京时间": "2026-04-29 22:00", "lon": 114.075, "lat": 31.076, "height": 34.0 }, "geometry": { "type": "Point", "coordinates": [ 114.075, 31.076 ] } },
{ "type": "Feature", "properties": { "pt_id": "  4014", "trajectory_id": 4, "北京时间": "2026-04-29 21:00", "lon": 114.212, "lat": 31.257, "height": 78.0 }, "geometry": { "type": "Point", "coordinates": [ 114.212, 31.257 ] } },
{ "type": "Feature", "properties": { "pt_id": "  4015", "trajectory_id": 4, "北京时间": "2026-04-29 20:00", "lon": 114.339, "lat": 31.43, "height": 113.0 }, "geometry": { "type": "Point", "coordinates": [ 114.339, 31.43 ] } },
{ "type": "Feature", "properties": { "pt_id": "  4016", "trajectory_id": 4, "北京时间": "2026-04-29 19:00", "lon": 114.48, "lat": 31.619, "height": 180.0 }, "geometry": { "type": "Point", "coordinates": [ 114.48, 31.619 ] } },
{ "type": "Feature", "properties": { "pt_id": "  4017", "trajectory_id": 4, "北京时间": "2026-04-29 18:00", "lon": 114.674, "lat": 31.803, "height": 117.0 }, "geometry": { "type": "Point", "coordinates": [ 114.674, 31.803 ] } },
{ "type": "Feature", "properties": { "pt_id": "  4018", "trajectory_id": 4, "北京时间": "2026-04-29 17:00", "lon": 114.873, "lat": 31.944, "height": 42.0 }, "geometry": { "type": "Point", "coordinates": [ 114.873, 31.944 ] } },
{ "type": "Feature", "properties": { "pt_id": "  4019", "trajectory_id": 4, "北京时间": "2026-04-29 16:00", "lon": 115.069, "lat": 32.055, "height": 33.0 }, "geometry": { "type": "Point", "coordinates": [ 115.069, 32.055 ] } },
{ "type": "Feature", "properties": { "pt_id": "  4020", "trajectory_id": 4, "北京时间": "2026-04-29 15:00", "lon": 115.265, "lat": 32.13, "height": 35.0 }, "geometry": { "type": "Point", "coordinates": [ 115.265, 32.13 ] } },
{ "type": "Feature", "properties": { "pt_id": "  4021", "trajectory_id": 4, "北京时间": "2026-04-29 14:00", "lon": 115.463, "lat": 32.169, "height": 35.0 }, "geometry": { "type": "Point", "coordinates": [ 115.463, 32.169 ] } },
{ "type": "Feature", "properties": { "pt_id": "  4022", "trajectory_id": 4, "北京时间": "2026-04-29 13:00", "lon": 115.668, "lat": 32.166, "height": 36.0 }, "geometry": { "type": "Point", "coordinates": [ 115.668, 32.166 ] } },
{ "type": "Feature", "properties": { "pt_id": "  4023", "trajectory_id": 4, "北京时间": "2026-04-29 12:00", "lon": 115.882, "lat": 32.117, "height": 39.0 }, "geometry": { "type": "Point", "coordinates": [ 115.882, 32.117 ] } },
{ "type": "Feature", "properties": { "pt_id": "  4024", "trajectory_id": 4, "北京时间": "2026-04-29 11:00", "lon": 116.111, "lat": 32.038, "height": 42.0 }, "geometry": { "type": "Point", "coordinates": [ 116.111, 32.038 ] } },
{ "type": "Feature", "properties": { "pt_id": "  4025", "trajectory_id": 4, "北京时间": "2026-04-29 10:00", "lon": 116.361, "lat": 31.975, "height": 54.0 }, "geometry": { "type": "Point", "coordinates": [ 116.361, 31.975 ] } },
{ "type": "Feature", "properties": { "pt_id": "  4026", "trajectory_id": 4, "北京时间": "2026-04-29 09:00", "lon": 116.623, "lat": 31.96, "height": 63.0 }, "geometry": { "type": "Point", "coordinates": [ 116.623, 31.96 ] } },
{ "type": "Feature", "properties": { "pt_id": "  4027", "trajectory_id": 4, "北京时间": "2026-04-29 08:00", "lon": 116.897, "lat": 31.988, "height": 79.0 }, "geometry": { "type": "Point", "coordinates": [ 116.897, 31.988 ] } },
{ "type": "Feature", "properties": { "pt_id": "  4028", "trajectory_id": 4, "北京时间": "2026-04-29 07:00", "lon": 117.175, "lat": 32.041, "height": 106.0 }, "geometry": { "type": "Point", "coordinates": [ 117.175, 32.041 ] } },
{ "type": "Feature", "properties": { "pt_id": "  4029", "trajectory_id": 4, "北京时间": "2026-04-29 06:00", "lon": 117.462, "lat": 32.11, "height": 123.0 }, "geometry": { "type": "Point", "coordinates": [ 117.462, 32.11 ] } },
{ "type": "Feature", "properties": { "pt_id": "  4030", "trajectory_id": 4, "北京时间": "2026-04-29 05:00", "lon": 117.765, "lat": 32.193, "height": 138.0 }, "geometry": { "type": "Point", "coordinates": [ 117.765, 32.193 ] } },
{ "type": "Feature", "properties": { "pt_id": "  4031", "trajectory_id": 4, "北京时间": "2026-04-29 04:00", "lon": 118.088, "lat": 32.266, "height": 166.0 }, "geometry": { "type": "Point", "coordinates": [ 118.088, 32.266 ] } },
{ "type": "Feature", "properties": { "pt_id": "  4032", "trajectory_id": 4, "北京时间": "2026-04-29 03:00", "lon": 118.392, "lat": 32.331, "height": 175.0 }, "geometry": { "type": "Point", "coordinates": [ 118.392, 32.331 ] } },
{ "type": "Feature", "properties": { "pt_id": "  4033", "trajectory_id": 4, "北京时间": "2026-04-29 02:00", "lon": 118.679, "lat": 32.403, "height": 206.0 }, "geometry": { "type": "Point", "coordinates": [ 118.679, 32.403 ] } },
{ "type": "Feature", "properties": { "pt_id": "  4034", "trajectory_id": 4, "北京时间": "2026-04-29 01:00", "lon": 118.954, "lat": 32.5, "height": 211.0 }, "geometry": { "type": "Point", "coordinates": [ 118.954, 32.5 ] } },
{ "type": "Feature", "properties": { "pt_id": "  4035", "trajectory_id": 4, "北京时间": "2026-04-29 00:00", "lon": 119.209, "lat": 32.633, "height": 171.0 }, "geometry": { "type": "Point", "coordinates": [ 119.209, 32.633 ] } },
{ "type": "Feature", "properties": { "pt_id": "  4036", "trajectory_id": 4, "北京时间": "2026-04-28 23:00", "lon": 119.441, "lat": 32.805, "height": 135.0 }, "geometry": { "type": "Point", "coordinates": [ 119.441, 32.805 ] } },
{ "type": "Feature", "properties": { "pt_id": "  4037", "trajectory_id": 4, "北京时间": "2026-04-28 22:00", "lon": 119.66, "lat": 33.002, "height": 140.0 }, "geometry": { "type": "Point", "coordinates": [ 119.66, 33.002 ] } },
{ "type": "Feature", "properties": { "pt_id": "  4038", "trajectory_id": 4, "北京时间": "2026-04-28 21:00", "lon": 119.888, "lat": 33.198, "height": 145.0 }, "geometry": { "type": "Point", "coordinates": [ 119.888, 33.198 ] } },
{ "type": "Feature", "properties": { "pt_id": "  4039", "trajectory_id": 4, "北京时间": "2026-04-28 20:00", "lon": 120.133, "lat": 33.382, "height": 140.0 }, "geometry": { "type": "Point", "coordinates": [ 120.133, 33.382 ] } },
{ "type": "Feature", "properties": { "pt_id": "  5000", "trajectory_id": 5, "北京时间": "2026-04-29 23:00", "lon": 113.942, "lat": 30.907, "height": 10.0 }, "geometry": { "type": "Point", "coordinates": [ 113.942, 30.907 ] } },
{ "type": "Feature", "properties": { "pt_id": "  5017", "trajectory_id": 5, "北京时间": "2026-04-29 22:00", "lon": 113.989, "lat": 31.097, "height": 33.0 }, "geometry": { "type": "Point", "coordinates": [ 113.989, 31.097 ] } },
{ "type": "Feature", "properties": { "pt_id": "  5018", "trajectory_id": 5, "北京时间": "2026-04-29 21:00", "lon": 114.054, "lat": 31.312, "height": 86.0 }, "geometry": { "type": "Point", "coordinates": [ 114.054, 31.312 ] } },
{ "type": "Feature", "properties": { "pt_id": "  5019", "trajectory_id": 5, "北京时间": "2026-04-29 20:00", "lon": 114.175, "lat": 31.533, "height": 157.0 }, "geometry": { "type": "Point", "coordinates": [ 114.175, 31.533 ] } },
{ "type": "Feature", "properties": { "pt_id": "  5020", "trajectory_id": 5, "北京时间": "2026-04-29 19:00", "lon": 114.362, "lat": 31.755, "height": 186.0 }, "geometry": { "type": "Point", "coordinates": [ 114.362, 31.755 ] } },
{ "type": "Feature", "properties": { "pt_id": "  5021", "trajectory_id": 5, "北京时间": "2026-04-29 18:00", "lon": 114.621, "lat": 31.958, "height": 147.0 }, "geometry": { "type": "Point", "coordinates": [ 114.621, 31.958 ] } },
{ "type": "Feature", "properties": { "pt_id": "  5022", "trajectory_id": 5, "北京时间": "2026-04-29 17:00", "lon": 114.931, "lat": 32.1, "height": 150.0 }, "geometry": { "type": "Point", "coordinates": [ 114.931, 32.1 ] } },
{ "type": "Feature", "properties": { "pt_id": "  5023", "trajectory_id": 5, "北京时间": "2026-04-29 16:00", "lon": 115.269, "lat": 32.151, "height": 170.0 }, "geometry": { "type": "Point", "coordinates": [ 115.269, 32.151 ] } },
{ "type": "Feature", "properties": { "pt_id": "  5024", "trajectory_id": 5, "北京时间": "2026-04-29 15:00", "lon": 115.639, "lat": 32.088, "height": 205.0 }, "geometry": { "type": "Point", "coordinates": [ 115.639, 32.088 ] } },
{ "type": "Feature", "properties": { "pt_id": "  5025", "trajectory_id": 5, "北京时间": "2026-04-29 14:00", "lon": 116.011, "lat": 31.984, "height": 243.0 }, "geometry": { "type": "Point", "coordinates": [ 116.011, 31.984 ] } },
{ "type": "Feature", "properties": { "pt_id": "  5026", "trajectory_id": 5, "北京时间": "2026-04-29 13:00", "lon": 116.367, "lat": 31.946, "height": 252.0 }, "geometry": { "type": "Point", "coordinates": [ 116.367, 31.946 ] } },
{ "type": "Feature", "properties": { "pt_id": "  5027", "trajectory_id": 5, "北京时间": "2026-04-29 12:00", "lon": 116.733, "lat": 31.966, "height": 294.0 }, "geometry": { "type": "Point", "coordinates": [ 116.733, 31.966 ] } },
{ "type": "Feature", "properties": { "pt_id": "  5028", "trajectory_id": 5, "北京时间": "2026-04-29 11:00", "lon": 117.126, "lat": 32.018, "height": 374.0 }, "geometry": { "type": "Point", "coordinates": [ 117.126, 32.018 ] } },
{ "type": "Feature", "properties": { "pt_id": "  5029", "trajectory_id": 5, "北京时间": "2026-04-29 10:00", "lon": 117.549, "lat": 32.102, "height": 435.0 }, "geometry": { "type": "Point", "coordinates": [ 117.549, 32.102 ] } },
{ "type": "Feature", "properties": { "pt_id": "  5030", "trajectory_id": 5, "北京时间": "2026-04-29 09:00", "lon": 118.01, "lat": 32.195, "height": 506.0 }, "geometry": { "type": "Point", "coordinates": [ 118.01, 32.195 ] } },
{ "type": "Feature", "properties": { "pt_id": "  5031", "trajectory_id": 5, "北京时间": "2026-04-29 08:00", "lon": 118.507, "lat": 32.292, "height": 615.0 }, "geometry": { "type": "Point", "coordinates": [ 118.507, 32.292 ] } },
{ "type": "Feature", "properties": { "pt_id": "  5032", "trajectory_id": 5, "北京时间": "2026-04-29 07:00", "lon": 118.952, "lat": 32.404, "height": 731.0 }, "geometry": { "type": "Point", "coordinates": [ 118.952, 32.404 ] } },
{ "type": "Feature", "properties": { "pt_id": "  5033", "trajectory_id": 5, "北京时间": "2026-04-29 06:00", "lon": 119.357, "lat": 32.543, "height": 712.0 }, "geometry": { "type": "Point", "coordinates": [ 119.357, 32.543 ] } },
{ "type": "Feature", "properties": { "pt_id": "  5034", "trajectory_id": 5, "北京时间": "2026-04-29 05:00", "lon": 119.74, "lat": 32.703, "height": 705.0 }, "geometry": { "type": "Point", "coordinates": [ 119.74, 32.703 ] } },
{ "type": "Feature", "properties": { "pt_id": "  5035", "trajectory_id": 5, "北京时间": "2026-04-29 04:00", "lon": 120.086, "lat": 32.881, "height": 666.0 }, "geometry": { "type": "Point", "coordinates": [ 120.086, 32.881 ] } },
{ "type": "Feature", "properties": { "pt_id": "  5036", "trajectory_id": 5, "北京时间": "2026-04-29 03:00", "lon": 120.405, "lat": 33.096, "height": 677.0 }, "geometry": { "type": "Point", "coordinates": [ 120.405, 33.096 ] } },
{ "type": "Feature", "properties": { "pt_id": "  5037", "trajectory_id": 5, "北京时间": "2026-04-29 02:00", "lon": 120.706, "lat": 33.312, "height": 785.0 }, "geometry": { "type": "Point", "coordinates": [ 120.706, 33.312 ] } },
{ "type": "Feature", "properties": { "pt_id": "  5038", "trajectory_id": 5, "北京时间": "2026-04-29 01:00", "lon": 120.986, "lat": 33.556, "height": 843.0 }, "geometry": { "type": "Point", "coordinates": [ 120.986, 33.556 ] } },
{ "type": "Feature", "properties": { "pt_id": "  5039", "trajectory_id": 5, "北京时间": "2026-04-29 00:00", "lon": 121.244, "lat": 33.852, "height": 839.0 }, "geometry": { "type": "Point", "coordinates": [ 121.244, 33.852 ] } },
{ "type": "Feature", "properties": { "pt_id": "  6000", "trajectory_id": 6, "北京时间": "2026-04-29 23:00", "lon": 113.942, "lat": 30.907, "height": 10.0 }, "geometry": { "type": "Point", "coordinates": [ 113.942, 30.907 ] } },
{ "type": "Feature", "properties": { "pt_id": "  6021", "trajectory_id": 6, "北京时间": "2026-04-29 22:00", "lon": 113.958, "lat": 31.08, "height": 21.0 }, "geometry": { "type": "Point", "coordinates": [ 113.958, 31.08 ] } },
{ "type": "Feature", "properties": { "pt_id": "  6022", "trajectory_id": 6, "北京时间": "2026-04-29 21:00", "lon": 114.035, "lat": 31.269, "height": 71.0 }, "geometry": { "type": "Point", "coordinates": [ 114.035, 31.269 ] } },
{ "type": "Feature", "properties": { "pt_id": "  6023", "trajectory_id": 6, "北京时间": "2026-04-29 20:00", "lon": 114.188, "lat": 31.463, "height": 145.0 }, "geometry": { "type": "Point", "coordinates": [ 114.188, 31.463 ] } },
{ "type": "Feature", "properties": { "pt_id": "  6024", "trajectory_id": 6, "北京时间": "2026-04-29 19:00", "lon": 114.377, "lat": 31.655, "height": 195.0 }, "geometry": { "type": "Point", "coordinates": [ 114.377, 31.655 ] } },
{ "type": "Feature", "properties": { "pt_id": "  6025", "trajectory_id": 6, "北京时间": "2026-04-29 18:00", "lon": 114.646, "lat": 31.823, "height": 120.0 }, "geometry": { "type": "Point", "coordinates": [ 114.646, 31.823 ] } },
{ "type": "Feature", "properties": { "pt_id": "  6026", "trajectory_id": 6, "北京时间": "2026-04-29 17:00", "lon": 114.943, "lat": 31.953, "height": 49.0 }, "geometry": { "type": "Point", "coordinates": [ 114.943, 31.953 ] } },
{ "type": "Feature", "properties": { "pt_id": "  6027", "trajectory_id": 6, "北京时间": "2026-04-29 16:00", "lon": 115.269, "lat": 32.043, "height": 52.0 }, "geometry": { "type": "Point", "coordinates": [ 115.269, 32.043 ] } },
{ "type": "Feature", "properties": { "pt_id": "  6028", "trajectory_id": 6, "北京时间": "2026-04-29 15:00", "lon": 115.586, "lat": 32.074, "height": 56.0 }, "geometry": { "type": "Point", "coordinates": [ 115.586, 32.074 ] } },
{ "type": "Feature", "properties": { "pt_id": "  6029", "trajectory_id": 6, "北京时间": "2026-04-29 14:00", "lon": 115.857, "lat": 32.067, "height": 61.0 }, "geometry": { "type": "Point", "coordinates": [ 115.857, 32.067 ] } },
{ "type": "Feature", "properties": { "pt_id": "  6030", "trajectory_id": 6, "北京时间": "2026-04-29 13:00", "lon": 116.075, "lat": 32.067, "height": 62.0 }, "geometry": { "type": "Point", "coordinates": [ 116.075, 32.067 ] } },
{ "type": "Feature", "properties": { "pt_id": "  6031", "trajectory_id": 6, "北京时间": "2026-04-29 12:00", "lon": 116.301, "lat": 32.069, "height": 64.0 }, "geometry": { "type": "Point", "coordinates": [ 116.301, 32.069 ] } },
{ "type": "Feature", "properties": { "pt_id": "  6032", "trajectory_id": 6, "北京时间": "2026-04-29 11:00", "lon": 116.546, "lat": 32.062, "height": 68.0 }, "geometry": { "type": "Point", "coordinates": [ 116.546, 32.062 ] } },
{ "type": "Feature", "properties": { "pt_id": "  6033", "trajectory_id": 6, "北京时间": "2026-04-29 10:00", "lon": 116.803, "lat": 32.056, "height": 92.0 }, "geometry": { "type": "Point", "coordinates": [ 116.803, 32.056 ] } },
{ "type": "Feature", "properties": { "pt_id": "  6034", "trajectory_id": 6, "北京时间": "2026-04-29 09:00", "lon": 117.094, "lat": 32.054, "height": 121.0 }, "geometry": { "type": "Point", "coordinates": [ 117.094, 32.054 ] } },
{ "type": "Feature", "properties": { "pt_id": "  6035", "trajectory_id": 6, "北京时间": "2026-04-29 08:00", "lon": 117.451, "lat": 32.05, "height": 146.0 }, "geometry": { "type": "Point", "coordinates": [ 117.451, 32.05 ] } },
{ "type": "Feature", "properties": { "pt_id": "  6036", "trajectory_id": 6, "北京时间": "2026-04-29 07:00", "lon": 117.844, "lat": 32.045, "height": 253.0 }, "geometry": { "type": "Point", "coordinates": [ 117.844, 32.045 ] } },
{ "type": "Feature", "properties": { "pt_id": "  6037", "trajectory_id": 6, "北京时间": "2026-04-29 06:00", "lon": 118.303, "lat": 32.095, "height": 485.0 }, "geometry": { "type": "Point", "coordinates": [ 118.303, 32.095 ] } },
{ "type": "Feature", "properties": { "pt_id": "  6038", "trajectory_id": 6, "北京时间": "2026-04-29 05:00", "lon": 118.801, "lat": 32.186, "height": 495.0 }, "geometry": { "type": "Point", "coordinates": [ 118.801, 32.186 ] } },
{ "type": "Feature", "properties": { "pt_id": "  6039", "trajectory_id": 6, "北京时间": "2026-04-29 04:00", "lon": 119.329, "lat": 32.315, "height": 461.0 }, "geometry": { "type": "Point", "coordinates": [ 119.329, 32.315 ] } },
{ "type": "Feature", "properties": { "pt_id": "  7000", "trajectory_id": 7, "北京时间": "2026-04-29 23:00", "lon": 113.942, "lat": 30.907, "height": 10.0 }, "geometry": { "type": "Point", "coordinates": [ 113.942, 30.907 ] } },
{ "type": "Feature", "properties": { "pt_id": "  7025", "trajectory_id": 7, "北京时间": "2026-04-29 22:00", "lon": 114.016, "lat": 31.048, "height": 21.0 }, "geometry": { "type": "Point", "coordinates": [ 114.016, 31.048 ] } },
{ "type": "Feature", "properties": { "pt_id": "  7026", "trajectory_id": 7, "北京时间": "2026-04-29 21:00", "lon": 114.138, "lat": 31.215, "height": 63.0 }, "geometry": { "type": "Point", "coordinates": [ 114.138, 31.215 ] } },
{ "type": "Feature", "properties": { "pt_id": "  7027", "trajectory_id": 7, "北京时间": "2026-04-29 20:00", "lon": 114.312, "lat": 31.402, "height": 94.0 }, "geometry": { "type": "Point", "coordinates": [ 114.312, 31.402 ] } },
{ "type": "Feature", "properties": { "pt_id": "  7028", "trajectory_id": 7, "北京时间": "2026-04-29 19:00", "lon": 114.531, "lat": 31.599, "height": 149.0 }, "geometry": { "type": "Point", "coordinates": [ 114.531, 31.599 ] } },
{ "type": "Feature", "properties": { "pt_id": "  7029", "trajectory_id": 7, "北京时间": "2026-04-29 18:00", "lon": 114.822, "lat": 31.786, "height": 83.0 }, "geometry": { "type": "Point", "coordinates": [ 114.822, 31.786 ] } },
{ "type": "Feature", "properties": { "pt_id": "  7030", "trajectory_id": 7, "北京时间": "2026-04-29 17:00", "lon": 115.082, "lat": 31.891, "height": 17.0 }, "geometry": { "type": "Point", "coordinates": [ 115.082, 31.891 ] } },
{ "type": "Feature", "properties": { "pt_id": "  7031", "trajectory_id": 7, "北京时间": "2026-04-29 16:00", "lon": 115.305, "lat": 31.937, "height": 4.0 }, "geometry": { "type": "Point", "coordinates": [ 115.305, 31.937 ] } },
{ "type": "Feature", "properties": { "pt_id": "  7032", "trajectory_id": 7, "北京时间": "2026-04-29 15:00", "lon": 115.529, "lat": 31.943, "height": 19.0 }, "geometry": { "type": "Point", "coordinates": [ 115.529, 31.943 ] } },
{ "type": "Feature", "properties": { "pt_id": "  7033", "trajectory_id": 7, "北京时间": "2026-04-29 14:00", "lon": 115.755, "lat": 31.909, "height": 26.0 }, "geometry": { "type": "Point", "coordinates": [ 115.755, 31.909 ] } },
{ "type": "Feature", "properties": { "pt_id": "  7034", "trajectory_id": 7, "北京时间": "2026-04-29 13:00", "lon": 115.95, "lat": 31.871, "height": 3.0 }, "geometry": { "type": "Point", "coordinates": [ 115.95, 31.871 ] } },
{ "type": "Feature", "properties": { "pt_id": "  7035", "trajectory_id": 7, "北京时间": "2026-04-29 12:00", "lon": 116.149, "lat": 31.837, "height": 0.0 }, "geometry": { "type": "Point", "coordinates": [ 116.149, 31.837 ] } },
{ "type": "Feature", "properties": { "pt_id": "  7036", "trajectory_id": 7, "北京时间": "2026-04-29 11:00", "lon": 116.366, "lat": 31.797, "height": 0.0 }, "geometry": { "type": "Point", "coordinates": [ 116.366, 31.797 ] } },
{ "type": "Feature", "properties": { "pt_id": "  7037", "trajectory_id": 7, "北京时间": "2026-04-29 10:00", "lon": 116.618, "lat": 31.768, "height": 0.0 }, "geometry": { "type": "Point", "coordinates": [ 116.618, 31.768 ] } },
{ "type": "Feature", "properties": { "pt_id": "  7038", "trajectory_id": 7, "北京时间": "2026-04-29 09:00", "lon": 116.882, "lat": 31.779, "height": 0.0 }, "geometry": { "type": "Point", "coordinates": [ 116.882, 31.779 ] } },
{ "type": "Feature", "properties": { "pt_id": "  7039", "trajectory_id": 7, "北京时间": "2026-04-29 08:00", "lon": 117.14, "lat": 31.823, "height": 0.0 }, "geometry": { "type": "Point", "coordinates": [ 117.14, 31.823 ] } },
{ "type": "Feature", "properties": { "pt_id": "  8000", "trajectory_id": 8, "北京时间": "2026-04-29 23:00", "lon": 113.942, "lat": 30.907, "height": 10.0 }, "geometry": { "type": "Point", "coordinates": [ 113.942, 30.907 ] } },
{ "type": "Feature", "properties": { "pt_id": "  8029", "trajectory_id": 8, "北京时间": "2026-04-29 22:00", "lon": 114.05, "lat": 31.106, "height": 37.0 }, "geometry": { "type": "Point", "coordinates": [ 114.05, 31.106 ] } },
{ "type": "Feature", "properties": { "pt_id": "  8030", "trajectory_id": 8, "北京时间": "2026-04-29 21:00", "lon": 114.185, "lat": 31.327, "height": 85.0 }, "geometry": { "type": "Point", "coordinates": [ 114.185, 31.327 ] } },
{ "type": "Feature", "properties": { "pt_id": "  8031", "trajectory_id": 8, "北京时间": "2026-04-29 20:00", "lon": 114.383, "lat": 31.542, "height": 134.0 }, "geometry": { "type": "Point", "coordinates": [ 114.383, 31.542 ] } },
{ "type": "Feature", "properties": { "pt_id": "  8032", "trajectory_id": 8, "北京时间": "2026-04-29 19:00", "lon": 114.665, "lat": 31.74, "height": 123.0 }, "geometry": { "type": "Point", "coordinates": [ 114.665, 31.74 ] } },
{ "type": "Feature", "properties": { "pt_id": "  8033", "trajectory_id": 8, "北京时间": "2026-04-29 18:00", "lon": 114.925, "lat": 31.876, "height": 24.0 }, "geometry": { "type": "Point", "coordinates": [ 114.925, 31.876 ] } },
{ "type": "Feature", "properties": { "pt_id": "  8034", "trajectory_id": 8, "北京时间": "2026-04-29 17:00", "lon": 115.15, "lat": 31.945, "height": 1.0 }, "geometry": { "type": "Point", "coordinates": [ 115.15, 31.945 ] } },
{ "type": "Feature", "properties": { "pt_id": "  8035", "trajectory_id": 8, "北京时间": "2026-04-29 16:00", "lon": 115.378, "lat": 31.962, "height": 1.0 }, "geometry": { "type": "Point", "coordinates": [ 115.378, 31.962 ] } },
{ "type": "Feature", "properties": { "pt_id": "  8036", "trajectory_id": 8, "北京时间": "2026-04-29 15:00", "lon": 115.605, "lat": 31.936, "height": 14.0 }, "geometry": { "type": "Point", "coordinates": [ 115.605, 31.936 ] } },
{ "type": "Feature", "properties": { "pt_id": "  8037", "trajectory_id": 8, "北京时间": "2026-04-29 14:00", "lon": 115.813, "lat": 31.909, "height": 0.0 }, "geometry": { "type": "Point", "coordinates": [ 115.813, 31.909 ] } },
{ "type": "Feature", "properties": { "pt_id": "  8038", "trajectory_id": 8, "北京时间": "2026-04-29 13:00", "lon": 116.009, "lat": 31.903, "height": 0.0 }, "geometry": { "type": "Point", "coordinates": [ 116.009, 31.903 ] } },
{ "type": "Feature", "properties": { "pt_id": "  8039", "trajectory_id": 8, "北京时间": "2026-04-29 12:00", "lon": 116.209, "lat": 31.921, "height": 0.0 }, "geometry": { "type": "Point", "coordinates": [ 116.209, 31.921 ] } },
{ "type": "Feature", "properties": { "pt_id": "  9000", "trajectory_id": 9, "北京时间": "2026-04-29 23:00", "lon": 113.942, "lat": 30.907, "height": 10.0 }, "geometry": { "type": "Point", "coordinates": [ 113.942, 30.907 ] } },
{ "type": "Feature", "properties": { "pt_id": "  9033", "trajectory_id": 9, "北京时间": "2026-04-29 22:00", "lon": 114.138, "lat": 31.11, "height": 43.0 }, "geometry": { "type": "Point", "coordinates": [ 114.138, 31.11 ] } },
{ "type": "Feature", "properties": { "pt_id": "  9034", "trajectory_id": 9, "北京时间": "2026-04-29 21:00", "lon": 114.377, "lat": 31.335, "height": 71.0 }, "geometry": { "type": "Point", "coordinates": [ 114.377, 31.335 ] } },
{ "type": "Feature", "properties": { "pt_id": "  9035", "trajectory_id": 9, "北京时间": "2026-04-29 20:00", "lon": 114.65, "lat": 31.554, "height": 180.0 }, "geometry": { "type": "Point", "coordinates": [ 114.65, 31.554 ] } },
{ "type": "Feature", "properties": { "pt_id": "  9036", "trajectory_id": 9, "北京时间": "2026-04-29 19:00", "lon": 115.061, "lat": 31.744, "height": 302.0 }, "geometry": { "type": "Point", "coordinates": [ 115.061, 31.744 ] } },
{ "type": "Feature", "properties": { "pt_id": "  9037", "trajectory_id": 9, "北京时间": "2026-04-29 18:00", "lon": 115.563, "lat": 31.837, "height": 570.0 }, "geometry": { "type": "Point", "coordinates": [ 115.563, 31.837 ] } },
{ "type": "Feature", "properties": { "pt_id": "  9038", "trajectory_id": 9, "北京时间": "2026-04-29 17:00", "lon": 116.108, "lat": 31.844, "height": 619.0 }, "geometry": { "type": "Point", "coordinates": [ 116.108, 31.844 ] } },
{ "type": "Feature", "properties": { "pt_id": "  9039", "trajectory_id": 9, "北京时间": "2026-04-29 16:00", "lon": 116.617, "lat": 31.841, "height": 601.0 }, "geometry": { "type": "Point", "coordinates": [ 116.617, 31.841 ] } },
{ "type": "Feature", "properties": { "pt_id": " 10000", "trajectory_id": 10, "北京时间": "2026-04-29 23:00", "lon": 113.942, "lat": 30.907, "height": 10.0 }, "geometry": { "type": "Point", "coordinates": [ 113.942, 30.907 ] } },
{ "type": "Feature", "properties": { "pt_id": " 10037", "trajectory_id": 10, "北京时间": "2026-04-29 22:00", "lon": 114.114, "lat": 31.165, "height": 58.0 }, "geometry": { "type": "Point", "coordinates": [ 114.114, 31.165 ] } },
{ "type": "Feature", "properties": { "pt_id": " 10038", "trajectory_id": 10, "北京时间": "2026-04-29 21:00", "lon": 114.317, "lat": 31.381, "height": 101.0 }, "geometry": { "type": "Point", "coordinates": [ 114.317, 31.381 ] } },
{ "type": "Feature", "properties": { "pt_id": " 10039", "trajectory_id": 10, "北京时间": "2026-04-29 20:00", "lon": 114.498, "lat": 31.582, "height": 167.0 }, "geometry": { "type": "Point", "coordinates": [ 114.498, 31.582 ] } }
]
}
