{
"type": "FeatureCollection",
"name": "东城",
"crs": { "type": "name", "properties": { "name": "urn:ogc:def:crs:OGC:1.3:CRS84" } },
"features": [
{ "type": "Feature", "properties": { "北京时间": "2026-04-29 23:00" }, "geometry": { "type": "Polygon", "coordinates": [ [ [ 113.950983152841175, 30.899292125133776 ], [ 113.950983152841175, 30.914707254158273 ], [ 113.933016847158797, 30.914707254158273 ], [ 113.933016847158797, 30.899292125133776 ], [ 113.950983152841175, 30.899292125133776 ] ] ] } },
{ "type": "Feature", "properties": { "北京时间": "2026-04-29 22:00" }, "geometry": { "type": "Polygon", "coordinates": [ [ [ 114.122983152841186, 31.157312979054325 ], [ 114.122983152841186, 31.172686397267352 ], [ 114.105016847158808, 31.172686397267352 ], [ 114.105016847158808, 31.157312979054325 ], [ 114.122983152841186, 31.157312979054325 ] ] ] } },
{ "type": "Feature", "properties": { "北京时间": "2026-04-29 22:00" }, "geometry": { "type": "Polygon", "coordinates": [ [ [ 114.083983152841185, 31.068305767626423 ], [ 114.083983152841185, 31.083693609714206 ], [ 114.066016847158792, 31.083693609714206 ], [ 114.066016847158792, 31.068305767626423 ], [ 114.083983152841185, 31.068305767626423 ] ] ] } },
{ "type": "Feature", "properties": { "北京时间": "2026-04-29 22:00" }, "geometry": { "type": "Polygon", "coordinates": [ [ [ 114.100983152841181, 31.017301643602416 ], [ 114.100983152841181, 31.032697734324824 ], [ 114.083016847158788, 31.032697734324824 ], [ 114.083016847158788, 31.017301643602416 ], [ 114.100983152841181, 31.017301643602416 ] ] ] } },
{ "type": "Feature", "properties": { "北京时间": "2026-04-29 22:00" }, "geometry": { "type": "Polygon", "coordinates": [ [ [ 113.997983152841201, 31.089307467526272 ], [ 113.997983152841201, 31.10469190957339 ], [ 113.980016847158808, 31.10469190957339 ], [ 113.980016847158808, 31.089307467526272 ], [ 113.997983152841201, 31.089307467526272 ] ] ] } },
{ "type": "Feature", "properties": { "北京时间": "2026-04-29 22:00" }, "geometry": { "type": "Polygon", "coordinates": [ [ [ 114.146983152841187, 31.10230852036317 ], [ 114.146983152841187, 31.117690856587494 ], [ 114.129016847158795, 31.117690856587494 ], [ 114.129016847158795, 31.10230852036317 ], [ 114.146983152841187, 31.10230852036317 ] ] ] } },
{ "type": "Feature", "properties": { "北京时间": "2026-04-29 22:00" }, "geometry": { "type": "Polygon", "coordinates": [ [ [ 114.08798315284119, 30.986299139823448 ], [ 114.08798315284119, 31.001700238461336 ], [ 114.070016847158797, 31.001700238461336 ], [ 114.070016847158797, 30.986299139823448 ], [ 114.08798315284119, 30.986299139823448 ] ] ] } },
{ "type": "Feature", "properties": { "北京时间": "2026-04-29 22:00" }, "geometry": { "type": "Polygon", "coordinates": [ [ [ 113.966983152841181, 31.07230609133719 ], [ 113.966983152841181, 31.087693285957538 ], [ 113.949016847158788, 31.087693285957538 ], [ 113.949016847158788, 31.07230609133719 ], [ 113.966983152841181, 31.07230609133719 ] ] ] } },
{ "type": "Feature", "properties": { "北京时间": "2026-04-29 22:00" }, "geometry": { "type": "Polygon", "coordinates": [ [ [ 114.059983152841198, 30.910293011067342 ], [ 114.059983152841198, 30.925706368097046 ], [ 114.042016847158806, 30.925706368097046 ], [ 114.042016847158806, 30.910293011067342 ], [ 114.059983152841198, 30.910293011067342 ] ] ] } },
{ "type": "Feature", "properties": { "北京时间": "2026-04-29 22:00" }, "geometry": { "type": "Polygon", "coordinates": [ [ [ 114.058983152841193, 31.098308196371182 ], [ 114.058983152841193, 31.113691180625324 ], [ 114.041016847158801, 31.113691180625324 ], [ 114.041016847158801, 31.098308196371182 ], [ 114.058983152841193, 31.098308196371182 ] ] ] } },
{ "type": "Feature", "properties": { "北京时间": "2026-04-29 22:00" }, "geometry": { "type": "Polygon", "coordinates": [ [ [ 114.024983152841187, 31.040303502701384 ], [ 114.024983152841187, 31.055695874961071 ], [ 114.007016847158795, 31.055695874961071 ], [ 114.007016847158795, 31.040303502701384 ], [ 114.024983152841187, 31.040303502701384 ] ] ] } },
{ "type": "Feature", "properties": { "北京时间": "2026-04-29 21:00" }, "geometry": { "type": "Polygon", "coordinates": [ [ [ 114.385983152841192, 31.327326805233774 ], [ 114.385983152841192, 31.34267256915831 ], [ 114.368016847158799, 31.34267256915831 ], [ 114.368016847158799, 31.327326805233774 ], [ 114.385983152841192, 31.327326805233774 ] ] ] } },
{ "type": "Feature", "properties": { "北京时间": "2026-04-29 21:00" }, "geometry": { "type": "Polygon", "coordinates": [ [ [ 114.146983152841187, 31.207317038557477 ], [ 114.146983152841187, 31.222682337194385 ], [ 114.129016847158795, 31.222682337194385 ], [ 114.129016847158795, 31.207317038557477 ], [ 114.146983152841187, 31.207317038557477 ] ] ] } },
{ "type": "Feature", "properties": { "北京时间": "2026-04-29 21:00" }, "geometry": { "type": "Polygon", "coordinates": [ [ [ 114.193983152841199, 31.319326153074268 ], [ 114.193983152841199, 31.334673221408121 ], [ 114.176016847158806, 31.334673221408121 ], [ 114.176016847158806, 31.319326153074268 ], [ 114.193983152841199, 31.319326153074268 ] ] ] } },
{ "type": "Feature", "properties": { "北京时间": "2026-04-29 21:00" }, "geometry": { "type": "Polygon", "coordinates": [ [ [ 114.325983152841175, 31.373330558053929 ], [ 114.325983152841175, 31.388668815819802 ], [ 114.308016847158783, 31.388668815819802 ], [ 114.308016847158783, 31.373330558053929 ], [ 114.325983152841175, 31.373330558053929 ] ] ] } },
{ "type": "Feature", "properties": { "北京时间": "2026-04-29 21:00" }, "geometry": { "type": "Polygon", "coordinates": [ [ [ 114.043983152841179, 31.26132142939333 ], [ 114.043983152841179, 31.276677945745266 ], [ 114.0260168471588, 31.276677945745266 ], [ 114.0260168471588, 31.26132142939333 ], [ 114.043983152841179, 31.26132142939333 ] ] ] } },
{ "type": "Feature", "properties": { "北京时间": "2026-04-29 21:00" }, "geometry": { "type": "Polygon", "coordinates": [ [ [ 114.062983152841198, 31.30432493067849 ], [ 114.062983152841198, 31.319674443973369 ], [ 114.045016847158806, 31.319674443973369 ], [ 114.045016847158806, 31.30432493067849 ], [ 114.062983152841198, 31.30432493067849 ] ] ] } },
{ "type": "Feature", "properties": { "北京时间": "2026-04-29 21:00" }, "geometry": { "type": "Polygon", "coordinates": [ [ [ 114.171983152841193, 30.950296235038593 ], [ 114.171983152841193, 30.965703143662296 ], [ 114.154016847158786, 30.965703143662296 ], [ 114.154016847158786, 30.950296235038593 ], [ 114.171983152841193, 30.950296235038593 ] ] ] } },
{ "type": "Feature", "properties": { "北京时间": "2026-04-29 20:00" }, "geometry": { "type": "Polygon", "coordinates": [ [ [ 114.32098315284118, 31.39433227294181 ], [ 114.32098315284118, 31.409667100695827 ], [ 114.303016847158787, 31.409667100695827 ], [ 114.303016847158787, 31.39433227294181 ], [ 114.32098315284118, 31.39433227294181 ] ] ] } },
{ "type": "Feature", "properties": { "北京时间": "2026-04-29 20:00" }, "geometry": { "type": "Polygon", "coordinates": [ [ [ 114.196983152841185, 31.455337260124328 ], [ 114.196983152841185, 31.470662112829427 ], [ 114.179016847158792, 31.470662112829427 ], [ 114.179016847158792, 31.455337260124328 ], [ 114.196983152841185, 31.455337260124328 ] ] ] } },
{ "type": "Feature", "properties": { "北京时间": "2026-04-29 20:00" }, "geometry": { "type": "Polygon", "coordinates": [ [ [ 114.391983152841206, 31.534343731843375 ], [ 114.391983152841206, 31.549655640228895 ], [ 114.374016847158799, 31.549655640228895 ], [ 114.374016847158799, 31.534343731843375 ], [ 114.391983152841206, 31.534343731843375 ] ] ] } },
{ "type": "Feature", "properties": { "北京时间": "2026-04-29 20:00" }, "geometry": { "type": "Polygon", "coordinates": [ [ [ 114.183983152841193, 31.525342993823955 ], [ 114.183983152841193, 31.540656378348494 ], [ 114.166016847158801, 31.540656378348494 ], [ 114.166016847158801, 31.525342993823955 ], [ 114.183983152841193, 31.525342993823955 ] ] ] } },
{ "type": "Feature", "properties": { "北京时间": "2026-04-29 20:00" }, "geometry": { "type": "Polygon", "coordinates": [ [ [ 114.347983152841181, 31.422334561061447 ], [ 114.347983152841181, 31.437664812261922 ], [ 114.330016847158802, 31.437664812261922 ], [ 114.330016847158802, 31.422334561061447 ], [ 114.347983152841181, 31.422334561061447 ] ] ] } },
{ "type": "Feature", "properties": { "北京时间": "2026-04-29 20:00" }, "geometry": { "type": "Polygon", "coordinates": [ [ [ 114.441983152841203, 31.312325582557438 ], [ 114.441983152841203, 31.32767379200402 ], [ 114.424016847158796, 31.32767379200402 ], [ 114.424016847158796, 31.312325582557438 ], [ 114.441983152841203, 31.312325582557438 ] ] ] } },
{ "type": "Feature", "properties": { "北京时间": "2026-04-29 20:00" }, "geometry": { "type": "Polygon", "coordinates": [ [ [ 114.506983152841187, 31.57434701421532 ], [ 114.506983152841187, 31.589652357412465 ], [ 114.489016847158794, 31.589652357412465 ], [ 114.489016847158794, 31.57434701421532 ], [ 114.506983152841187, 31.57434701421532 ] ] ] } },
{ "type": "Feature", "properties": { "北京时间": "2026-04-29 19:00" }, "geometry": { "type": "Polygon", "coordinates": [ [ [ 114.539983152841202, 31.591348410353103 ], [ 114.539983152841202, 31.606650961086125 ], [ 114.52201684715881, 31.606650961086125 ], [ 114.52201684715881, 31.591348410353103 ], [ 114.539983152841202, 31.591348410353103 ] ] ] } },
{ "type": "Feature", "properties": { "北京时间": "2026-04-29 19:00" }, "geometry": { "type": "Polygon", "coordinates": [ [ [ 114.385983152841192, 31.647353014159322 ], [ 114.385983152841192, 31.6626463566604 ], [ 114.368016847158799, 31.6626463566604 ], [ 114.368016847158799, 31.647353014159322 ], [ 114.385983152841192, 31.647353014159322 ] ] ] } },
{ "type": "Feature", "properties": { "北京时间": "2026-04-29 19:00" }, "geometry": { "type": "Polygon", "coordinates": [ [ [ 114.370983152841177, 31.747361253410588 ], [ 114.370983152841177, 31.762638116308835 ], [ 114.353016847158784, 31.762638116308835 ], [ 114.353016847158784, 31.747361253410588 ], [ 114.370983152841177, 31.747361253410588 ] ] ] } },
{ "type": "Feature", "properties": { "北京时间": "2026-04-29 19:00" }, "geometry": { "type": "Polygon", "coordinates": [ [ [ 114.488983152841186, 31.611350053730643 ], [ 114.488983152841186, 31.62664931748705 ], [ 114.471016847158808, 31.62664931748705 ], [ 114.471016847158808, 31.611350053730643 ], [ 114.488983152841186, 31.611350053730643 ] ] ] } }
]
}
