{
"type": "FeatureCollection",
"name": "东城",
"crs": { "type": "name", "properties": { "name": "urn:ogc:def:crs:OGC:1.3:CRS84" } },
"features": [
{ "type": "Feature", "properties": { "北京时间": "2026-05-18 06:00" }, "geometry": { "type": "Polygon", "coordinates": [ [ [ 113.950983152841175, 30.899292125133776 ], [ 113.950983152841175, 30.914707254158273 ], [ 113.933016847158797, 30.914707254158273 ], [ 113.933016847158797, 30.899292125133776 ], [ 113.950983152841175, 30.899292125133776 ] ] ] } },
{ "type": "Feature", "properties": { "北京时间": "2026-05-18 05:00" }, "geometry": { "type": "Polygon", "coordinates": [ [ [ 114.144983152841178, 30.851288262567429 ], [ 114.144983152841178, 30.866711117282819 ], [ 114.127016847158799, 30.866711117282819 ], [ 114.127016847158799, 30.851288262567429 ], [ 114.144983152841178, 30.851288262567429 ] ] ] } },
{ "type": "Feature", "properties": { "北京时间": "2026-05-18 05:00" }, "geometry": { "type": "Polygon", "coordinates": [ [ [ 114.074983152841185, 30.899292125133776 ], [ 114.074983152841185, 30.914707254158273 ], [ 114.057016847158806, 30.914707254158273 ], [ 114.057016847158806, 30.899292125133776 ], [ 114.074983152841185, 30.899292125133776 ] ] ] } },
{ "type": "Feature", "properties": { "北京时间": "2026-05-18 05:00" }, "geometry": { "type": "Polygon", "coordinates": [ [ [ 113.996983152841182, 30.927294380796173 ], [ 113.996983152841182, 30.94270499817106 ], [ 113.979016847158789, 30.94270499817106 ], [ 113.979016847158789, 30.927294380796173 ], [ 113.996983152841182, 30.927294380796173 ] ] ] } },
{ "type": "Feature", "properties": { "北京时间": "2026-05-18 05:00" }, "geometry": { "type": "Polygon", "coordinates": [ [ [ 114.017983152841197, 30.917293574991167 ], [ 114.017983152841197, 30.932705804092027 ], [ 114.000016847158804, 30.932705804092027 ], [ 114.000016847158804, 30.917293574991167 ], [ 114.017983152841197, 30.917293574991167 ] ] ] } },
{ "type": "Feature", "properties": { "北京时间": "2026-05-18 05:00" }, "geometry": { "type": "Polygon", "coordinates": [ [ [ 114.1169831528412, 30.841287458547338 ], [ 114.1169831528412, 30.856711921419411 ], [ 114.099016847158808, 30.856711921419411 ], [ 114.099016847158808, 30.841287458547338 ], [ 114.1169831528412, 30.841287458547338 ] ] ] } },
{ "type": "Feature", "properties": { "北京时间": "2026-05-18 05:00" }, "geometry": { "type": "Polygon", "coordinates": [ [ [ 114.038983152841197, 30.918293655561101 ], [ 114.038983152841197, 30.933705723510489 ], [ 114.021016847158805, 30.933705723510489 ], [ 114.021016847158805, 30.918293655561101 ], [ 114.038983152841197, 30.918293655561101 ] ] ] } },
{ "type": "Feature", "properties": { "北京时间": "2026-05-18 05:00" }, "geometry": { "type": "Polygon", "coordinates": [ [ [ 114.059983152841198, 30.926294300205114 ], [ 114.059983152841198, 30.941705078773722 ], [ 114.042016847158806, 30.941705078773722 ], [ 114.042016847158806, 30.926294300205114 ], [ 114.059983152841198, 30.926294300205114 ] ] ] } },
{ "type": "Feature", "properties": { "北京时间": "2026-05-18 05:00" }, "geometry": { "type": "Polygon", "coordinates": [ [ [ 114.101983152841186, 30.868289629940755 ], [ 114.101983152841186, 30.883709749711613 ], [ 114.084016847158793, 30.883709749711613 ], [ 114.084016847158793, 30.868289629940755 ], [ 114.101983152841186, 30.868289629940755 ] ] ] } },
{ "type": "Feature", "properties": { "北京时间": "2026-05-18 05:00" }, "geometry": { "type": "Polygon", "coordinates": [ [ [ 114.129983152841177, 30.876290273645452 ], [ 114.129983152841177, 30.891709105913858 ], [ 114.112016847158785, 30.891709105913858 ], [ 114.112016847158785, 30.876290273645452 ], [ 114.129983152841177, 30.876290273645452 ] ] ] } },
{ "type": "Feature", "properties": { "北京时间": "2026-05-18 05:00" }, "geometry": { "type": "Polygon", "coordinates": [ [ [ 114.094983152841181, 30.90129228619147 ], [ 114.094983152841181, 30.916707093077353 ], [ 114.077016847158802, 30.916707093077353 ], [ 114.077016847158802, 30.90129228619147 ], [ 114.094983152841181, 30.90129228619147 ] ] ] } },
{ "type": "Feature", "properties": { "北京时间": "2026-05-18 05:00" }, "geometry": { "type": "Polygon", "coordinates": [ [ [ 114.042983152841188, 30.799284084229107 ], [ 114.042983152841188, 30.814715296227821 ], [ 114.025016847158795, 30.814715296227821 ], [ 114.025016847158795, 30.799284084229107 ], [ 114.042983152841188, 30.799284084229107 ] ] ] } },
{ "type": "Feature", "properties": { "北京时间": "2026-05-18 05:00" }, "geometry": { "type": "Polygon", "coordinates": [ [ [ 114.08598315284118, 30.897291964085486 ], [ 114.08598315284118, 30.9127074152298 ], [ 114.068016847158802, 30.9127074152298 ], [ 114.068016847158802, 30.897291964085486 ], [ 114.08598315284118, 30.897291964085486 ] ] ] } },
{ "type": "Feature", "properties": { "北京时间": "2026-05-18 05:00" }, "geometry": { "type": "Polygon", "coordinates": [ [ [ 114.100983152841181, 30.816285449525161 ], [ 114.100983152841181, 30.831713930733198 ], [ 114.083016847158788, 30.831713930733198 ], [ 114.083016847158788, 30.816285449525161 ], [ 114.100983152841181, 30.816285449525161 ] ] ] } },
{ "type": "Feature", "properties": { "北京时间": "2026-05-18 05:00" }, "geometry": { "type": "Polygon", "coordinates": [ [ [ 114.141983152841178, 30.871289871312399 ], [ 114.141983152841178, 30.886709508305067 ], [ 114.124016847158799, 30.886709508305067 ], [ 114.124016847158799, 30.871289871312399 ], [ 114.141983152841178, 30.871289871312399 ] ] ] } },
{ "type": "Feature", "properties": { "北京时间": "2026-05-18 05:00" }, "geometry": { "type": "Polygon", "coordinates": [ [ [ 114.190983152841184, 30.77728231838384 ], [ 114.190983152841184, 30.792717062330357 ], [ 114.173016847158792, 30.792717062330357 ], [ 114.173016847158792, 30.77728231838384 ], [ 114.190983152841184, 30.77728231838384 ] ] ] } },
{ "type": "Feature", "properties": { "北京时间": "2026-05-18 05:00" }, "geometry": { "type": "Polygon", "coordinates": [ [ [ 114.080983152841185, 30.81128504789698 ], [ 114.080983152841185, 30.826714332419751 ], [ 114.063016847158792, 30.826714332419751 ], [ 114.063016847158792, 30.81128504789698 ], [ 114.080983152841185, 30.81128504789698 ] ] ] } },
{ "type": "Feature", "properties": { "北京时间": "2026-05-18 05:00" }, "geometry": { "type": "Polygon", "coordinates": [ [ [ 114.147983152841192, 30.809284887262169 ], [ 114.147983152841192, 30.824714493077924 ], [ 114.130016847158799, 30.824714493077924 ], [ 114.130016847158799, 30.809284887262169 ], [ 114.147983152841192, 30.809284887262169 ] ] ] } },
{ "type": "Feature", "properties": { "北京时间": "2026-05-18 04:00" }, "geometry": { "type": "Polygon", "coordinates": [ [ [ 114.161983152841202, 30.939295348072086 ], [ 114.161983152841202, 30.954704030756137 ], [ 114.144016847158809, 30.954704030756137 ], [ 114.144016847158809, 30.939295348072086 ], [ 114.161983152841202, 30.939295348072086 ] ] ] } },
{ "type": "Feature", "properties": { "北京时间": "2026-05-18 04:00" }, "geometry": { "type": "Polygon", "coordinates": [ [ [ 114.123983152841191, 30.926294300205114 ], [ 114.123983152841191, 30.941705078773722 ], [ 114.106016847158784, 30.941705078773722 ], [ 114.106016847158784, 30.926294300205114 ], [ 114.123983152841191, 30.926294300205114 ] ] ] } },
{ "type": "Feature", "properties": { "北京时间": "2026-05-18 04:00" }, "geometry": { "type": "Polygon", "coordinates": [ [ [ 114.080983152841185, 30.936295106221419 ], [ 114.080983152841185, 30.951704272641553 ], [ 114.063016847158792, 30.951704272641553 ], [ 114.063016847158792, 30.936295106221419 ], [ 114.080983152841185, 30.936295106221419 ] ] ] } },
{ "type": "Feature", "properties": { "北京时间": "2026-05-18 04:00" }, "geometry": { "type": "Polygon", "coordinates": [ [ [ 114.055983152841179, 30.95829688028352 ], [ 114.055983152841179, 30.973702498324819 ], [ 114.038016847158787, 30.973702498324819 ], [ 114.038016847158787, 30.95829688028352 ], [ 114.055983152841179, 30.95829688028352 ] ] ] } },
{ "type": "Feature", "properties": { "北京时间": "2026-05-18 03:00" }, "geometry": { "type": "Polygon", "coordinates": [ [ [ 114.139983152841182, 30.957296799619687 ], [ 114.139983152841182, 30.97270257900022 ], [ 114.12201684715879, 30.97270257900022 ], [ 114.12201684715879, 30.957296799619687 ], [ 114.139983152841182, 30.957296799619687 ] ] ] } },
{ "type": "Feature", "properties": { "北京时间": "2026-05-18 03:00" }, "geometry": { "type": "Polygon", "coordinates": [ [ [ 114.134983152841201, 31.000300270283191 ], [ 114.134983152841201, 31.015699107840035 ], [ 114.117016847158794, 31.015699107840035 ], [ 114.117016847158794, 31.000300270283191 ], [ 114.134983152841201, 31.000300270283191 ] ] ] } }
]
}
